,Line,Station_Name,Latitude,Longitude,Zipcode
0,Astoria,Ditmars Blvd,40.775149,-73.912074,11105
<<<<<<< HEAD
1,Astoria,Ditmars Blvd,40.77481,-73.912151,11105
=======
1,Astoria,Ditmars Blvd,40.774809999999995,-73.912151,11105
>>>>>>> 0926605a035426e9993d06469d3abb162d099394
2,Astoria,Ditmars Blvd,40.775025,-73.911891,11105
3,Astoria,Ditmars Blvd,40.774938,-73.912337,11105
4,Astoria,Astoria Blvd-Hoyt Av,40.770313,-73.917978,11102
5,Astoria,Astoria Blvd-Hoyt Av,40.77017,-73.917755,11102
6,Astoria,Astoria Blvd-Hoyt Av,40.771009,-73.917167,11102
7,Astoria,Astoria Blvd-Hoyt Av,40.77087,-73.916935,11102
<<<<<<< HEAD
8,Astoria,30 Av-Grand Av,40.766787,-73.921629,11102
=======
8,Astoria,30 Av-Grand Av,40.766787,-73.92162900000001,11102
>>>>>>> 0926605a035426e9993d06469d3abb162d099394
9,Astoria,30 Av-Grand Av,40.7667,-73.921406,11102
10,Astoria,30 Av-Grand Av,40.767052,-73.921409,11102
11,Astoria,30 Av-Grand Av,40.766963,-73.921192,11105
12,Astoria,Broadway,40.76188,-73.925638,11106
13,Astoria,Broadway,40.761773,-73.925399,11106
14,Astoria,Broadway,40.762217,-73.925349,11106
<<<<<<< HEAD
15,Astoria,36 Av-Washington Av,40.756478,-73.929993,11106
16,Astoria,36 Av-Washington Av,40.756379,-73.929766,11106
=======
15,Astoria,36 Av-Washington Av,40.756478,-73.92999300000001,11106
16,Astoria,36 Av-Washington Av,40.756378999999995,-73.929766,11106
>>>>>>> 0926605a035426e9993d06469d3abb162d099394
17,Astoria,36 Av-Washington Av,40.756796,-73.92974,11106
18,Astoria,39 Av-Beebe Av,40.752901,-73.932903,11101
19,Astoria,39 Av-Beebe Av,40.752491,-73.932936,11101
20,Broadway,5th Av,40.765156,-73.972501,10022
<<<<<<< HEAD
21,Broadway,5th Av,40.764728,-73.972396,10022
22,Broadway,5th Av,40.764849,-73.972306,10022
23,Broadway,5th Av,40.764657,-73.972229,10022
24,Broadway,57th St,40.765365,-73.980341,10106
25,Broadway,57th St,40.765298,-73.980033,10019
26,Broadway,57th St,40.765796,-73.980012,10019
27,Broadway,57th St,40.765639,-73.979764,10106
28,Broadway,49th St,40.760486,-73.983974,10036
29,Broadway,49th St,40.760621,-73.983904,10036
30,Broadway,28th St,40.745089,-73.988472,10001
31,Broadway,28th St,40.745299,-73.988579,10001
32,Broadway,23rd St,40.74108,-73.989083,10010
33,Broadway,23rd St,40.741111,-73.98892,10010
34,Broadway,23rd St,40.741378,-73.988895,10010
=======
21,Broadway,5th Av,40.764728000000005,-73.972396,10022
22,Broadway,5th Av,40.764849,-73.972306,10022
23,Broadway,5th Av,40.764657,-73.972229,10022
24,Broadway,57th St,40.765365,-73.98034100000001,10106
25,Broadway,57th St,40.765298,-73.98003299999999,10019
26,Broadway,57th St,40.765796,-73.980012,10019
27,Broadway,57th St,40.765639,-73.979764,10106
28,Broadway,49th St,40.760486,-73.983974,10036
29,Broadway,49th St,40.760621,-73.98390400000001,10036
30,Broadway,28th St,40.745089,-73.988472,10001
31,Broadway,28th St,40.745298999999996,-73.988579,10001
32,Broadway,23rd St,40.74108,-73.989083,10010
33,Broadway,23rd St,40.741111,-73.98892,10010
34,Broadway,23rd St,40.741378000000005,-73.988895,10010
>>>>>>> 0926605a035426e9993d06469d3abb162d099394
35,Broadway,23rd St,40.741539,-73.988989,10010
36,Broadway,Union Square,40.735278,-73.991058,10003
37,Broadway,8th St,40.730477,-73.992286,10003
38,Broadway,8th St,40.730578,-73.992216,10003
<<<<<<< HEAD
39,Broadway,Prince St,40.724124,-73.997686,10012
40,Broadway,Prince St,40.72422,-73.997633,10012
41,Broadway,City Hall,40.71311,-74.007045,10007
42,Broadway,City Hall,40.713437,-74.00676,10007
43,Broadway,City Hall,40.713521,-74.006697,10007
44,Broadway,Cortlandt St,40.710871,-74.010767,10007
45,Broadway,Cortlandt St,40.711065,-74.010644,10007
46,Broadway,Rector St,40.707647,-74.012924,10006
47,Broadway,Rector St,40.707902,-74.012774,10006
48,Broadway,Rector St,40.708028,-74.012696,10006
49,Broadway,Whitehall St,40.701938,-74.012588,10004
50,Broadway,Whitehall St,40.702108,-74.012642,10004
51,Broadway,Whitehall St,40.702108,-74.012642,10004
52,Broadway,Lawrence St,40.692114,-73.986107,11201
53,Broadway,Lawrence St,40.692258,-73.986114,11201
54,Broadway,Lawrence St,40.692052,-73.986191,11201
55,Broadway,Lawrence St,40.692359,-73.986181,11201
56,4 Avenue,DeKalb Av,40.689804,-73.981164,11217
57,4 Avenue,DeKalb Av,40.68981,-73.981651,11201
58,4 Avenue,DeKalb Av,40.689817,-73.981082,11217
59,4 Avenue,DeKalb Av,40.68974,-73.981156,11217
60,4 Avenue,Atlantic Av-Barclays Ctr,40.683805,-73.978487,11217
61,4 Avenue,Pacific St,40.683905,-73.978879,11217
62,4 Avenue,Pacific St,40.683928,-73.978412,11217
63,4 Avenue,Union St,40.677001,-73.983133,11215
64,4 Avenue,Union St,40.677279,-73.983327,11215
65,4 Avenue,Union St,40.677171,-73.98302,11215
66,4 Avenue,9th St,40.670387,-73.98848,11215
=======
39,Broadway,Prince St,40.724123999999996,-73.997686,10012
40,Broadway,Prince St,40.72422,-73.997633,10012
41,Broadway,City Hall,40.71311,-74.00704499999999,10007
42,Broadway,City Hall,40.713437,-74.00676,10007
43,Broadway,City Hall,40.713521,-74.006697,10007
44,Broadway,Cortlandt St,40.710871000000004,-74.010767,10007
45,Broadway,Cortlandt St,40.711065000000005,-74.010644,10007
46,Broadway,Rector St,40.707646999999994,-74.012924,10006
47,Broadway,Rector St,40.707902000000004,-74.012774,10006
48,Broadway,Rector St,40.708028000000006,-74.01269599999999,10006
49,Broadway,Whitehall St,40.701938,-74.012588,10004
50,Broadway,Whitehall St,40.702108,-74.012642,10004
51,Broadway,Whitehall St,40.702108,-74.012642,10004
52,Broadway,Lawrence St,40.692114000000004,-73.98610699999999,11201
53,Broadway,Lawrence St,40.692258,-73.986114,11201
54,Broadway,Lawrence St,40.692052000000004,-73.986191,11201
55,Broadway,Lawrence St,40.692359,-73.986181,11201
56,4 Avenue,DeKalb Av,40.689803999999995,-73.981164,11217
57,4 Avenue,DeKalb Av,40.689809999999994,-73.981651,11201
58,4 Avenue,DeKalb Av,40.689817,-73.981082,11217
59,4 Avenue,DeKalb Av,40.68974,-73.981156,11217
60,4 Avenue,Atlantic Av-Barclays Ctr,40.683805,-73.978487,11217
61,4 Avenue,Pacific St,40.683904999999996,-73.978879,11217
62,4 Avenue,Pacific St,40.683928,-73.978412,11217
63,4 Avenue,Union St,40.677001000000004,-73.983133,11215
64,4 Avenue,Union St,40.677279,-73.983327,11215
65,4 Avenue,Union St,40.677171,-73.98302,11215
66,4 Avenue,9th St,40.670387,-73.98848000000001,11215
>>>>>>> 0926605a035426e9993d06469d3abb162d099394
67,4 Avenue,Prospect Av,40.665299,-73.992729,11215
68,4 Avenue,Prospect Av,40.665058,-73.993002,11215
69,4 Avenue,25th St,40.660323,-73.997952,11232
70,4 Avenue,36th St,40.65449,-74.004499,11232
<<<<<<< HEAD
71,4 Avenue,36th St,40.654365,-74.004113,10012
72,4 Avenue,36th St,40.654676,-74.004306,11232
73,4 Avenue,45th St,40.649389,-74.009333,11220
74,4 Avenue,45th St,40.649424,-74.009728,11220
75,4 Avenue,45th St,40.649265,-74.009457,11220
76,4 Avenue,45th St,40.649546,-74.009602,11220
77,4 Avenue,53rd St,40.644653,-74.01469,11220
78,4 Avenue,53rd St,40.644493,-74.014419,11220
79,4 Avenue,53rd St,40.644756,-74.014586,11220
80,4 Avenue,53rd St,40.644601,-74.014309,11220
81,4 Avenue,59th St,40.641606,-74.017897,11220
82,4 Avenue,59th St,40.641435,-74.017561,11220
83,4 Avenue,59th St,40.641778,-74.017722,11220
84,4 Avenue,59th St,40.641633,-74.017362,11220
85,4 Avenue,Bay Ridge Av,40.634827,-74.02358,11220
86,4 Avenue,Bay Ridge Av,40.634768,-74.023339,11220
87,4 Avenue,77th St,40.62955,-74.025731,11209
88,4 Avenue,77th St,40.629503,-74.025452,11209
89,4 Avenue,86th St,40.622656,-74.028547,11209
90,4 Avenue,86th St,40.622583,-74.028315,11209
91,4 Avenue,95th St,40.616021,-74.031383,11209
=======
71,4 Avenue,36th St,40.654365000000006,-74.004113,10012
72,4 Avenue,36th St,40.654676,-74.004306,11232
73,4 Avenue,45th St,40.649389,-74.009333,11220
74,4 Avenue,45th St,40.649423999999996,-74.00972800000001,11220
75,4 Avenue,45th St,40.649265,-74.009457,11220
76,4 Avenue,45th St,40.649546,-74.009602,11220
77,4 Avenue,53rd St,40.644653000000005,-74.01469,11220
78,4 Avenue,53rd St,40.644493,-74.01441899999999,11220
79,4 Avenue,53rd St,40.644756,-74.014586,11220
80,4 Avenue,53rd St,40.644601,-74.014309,11220
81,4 Avenue,59th St,40.641606,-74.01789699999999,11220
82,4 Avenue,59th St,40.641434999999994,-74.017561,11220
83,4 Avenue,59th St,40.641778,-74.01772199999999,11220
84,4 Avenue,59th St,40.641633,-74.017362,11220
85,4 Avenue,Bay Ridge Av,40.634827,-74.02358000000001,11220
86,4 Avenue,Bay Ridge Av,40.634768,-74.023339,11220
87,4 Avenue,77th St,40.62955,-74.02573100000001,11209
88,4 Avenue,77th St,40.629503,-74.025452,11209
89,4 Avenue,86th St,40.622656,-74.028547,11209
90,4 Avenue,86th St,40.622583,-74.028315,11209
91,4 Avenue,95th St,40.616021,-74.03138299999999,11209
>>>>>>> 0926605a035426e9993d06469d3abb162d099394
92,4 Avenue,95th St,40.615893,-74.03086,11209
93,4 Avenue,95th St,40.616189,-74.031234,11209
94,Brighton,7th Av,40.677365,-73.972788,11238
95,Brighton,7th Av,40.677324,-73.972212,11238
96,Brighton,Prospect Park,40.660792,-73.962109,11226
<<<<<<< HEAD
97,Brighton,Parkside Av,40.655221,-73.961516,11226
98,Brighton,Church Av,40.649427,-73.963356,11226
99,Brighton,Beverly Rd,40.644272,-73.964528,11226
100,Brighton,Cortelyou Rd,40.641314,-73.963996,11226
101,Brighton,Newkirk Av,40.635034,-73.962736,11226
102,Brighton,Av H,40.62993,-73.961477,11230
103,Brighton,Av J,40.62513,-73.960792,11230
104,Brighton,Av M,40.617928,-73.959454,11230
=======
97,Brighton,Parkside Av,40.655221000000004,-73.961516,11226
98,Brighton,Church Av,40.649427,-73.963356,11226
99,Brighton,Beverly Rd,40.644271999999994,-73.964528,11226
100,Brighton,Cortelyou Rd,40.641314,-73.963996,11226
101,Brighton,Newkirk Av,40.635034000000005,-73.96273599999999,11226
102,Brighton,Av H,40.62993,-73.961477,11230
103,Brighton,Av J,40.62513,-73.960792,11230
104,Brighton,Av M,40.617928000000006,-73.95945400000001,11230
>>>>>>> 0926605a035426e9993d06469d3abb162d099394
105,Brighton,Kings Highway,40.608835,-73.957769,11229
106,Brighton,Av U,40.598991,-73.955828,11229
107,Brighton,Neck Rd,40.59502,-73.95512,11229
108,Brighton,Sheepshead Bay,40.587302,-73.954224,11235
<<<<<<< HEAD
109,Brighton,Brighton Beach,40.577986,-73.960258,11235
110,Brighton,Brighton Beach,40.577931,-73.960524,11235
111,Brighton,Brighton Beach,40.577746,-73.960231,11235
112,Brighton,Brighton Beach,40.577697,-73.960438,11235
113,Brighton,Ocean Parkway,40.576423,-73.967894,11235
114,Brighton,Ocean Parkway,40.576445,-73.967591,11235
115,Brighton,Ocean Parkway,40.576209,-73.967875,11235
116,Brighton,Ocean Parkway,40.576234,-73.967561,11235
117,Coney Island,West 8th St,40.575499,-73.976873,11224
118,Coney Island,West 8th St,40.575929,-73.976747,11224
119,Coney Island,Stillwell Av,40.5769,-73.980846,11224
120,West End,9th Av,40.646337,-73.994489,11219
121,West End,Fort Hamilton Parkway,40.640185,-73.994423,11219
=======
109,Brighton,Brighton Beach,40.577985999999996,-73.960258,11235
110,Brighton,Brighton Beach,40.577931,-73.96052399999999,11235
111,Brighton,Brighton Beach,40.577746000000005,-73.96023100000001,11235
112,Brighton,Brighton Beach,40.577697,-73.960438,11235
113,Brighton,Ocean Parkway,40.576423,-73.967894,11235
114,Brighton,Ocean Parkway,40.576445,-73.967591,11235
115,Brighton,Ocean Parkway,40.576209000000006,-73.967875,11235
116,Brighton,Ocean Parkway,40.576234,-73.967561,11235
117,Coney Island,West 8th St,40.575499,-73.976873,11224
118,Coney Island,West 8th St,40.575928999999995,-73.976747,11224
119,Coney Island,Stillwell Av,40.5769,-73.980846,11224
120,West End,9th Av,40.646337,-73.994489,11219
121,West End,Fort Hamilton Parkway,40.640184999999995,-73.994423,11219
>>>>>>> 0926605a035426e9993d06469d3abb162d099394
122,West End,Fort Hamilton Parkway,40.64018,-73.99422,11219
123,West End,Fort Hamilton Parkway,40.64136,-73.994411,11219
124,West End,Fort Hamilton Parkway,40.641379,-73.994188,11219
125,West End,50th St,40.636133,-73.994915,11219
126,West End,50th St,40.636139,-73.994702,11219
127,West End,50th St,40.636415,-73.994879,11219
<<<<<<< HEAD
128,West End,50th St,40.636405,-73.994673,11219
=======
128,West End,50th St,40.636404999999996,-73.99467299999999,11219
>>>>>>> 0926605a035426e9993d06469d3abb162d099394
129,West End,55th St,40.631389,-73.995262,11219
130,West End,55th St,40.631538,-73.995643,11219
131,West End,55th St,40.631709,-73.995283,11219
132,West End,71st St,40.618834,-73.999195,11228
<<<<<<< HEAD
133,West End,71st St,40.619133,-73.99924,11228
134,West End,71st St,40.61877,-73.998995,11228
135,West End,71st St,40.618889,-73.998832,11228
136,West End,79th St,40.612855,-74.000892,11214
137,West End,79th St,40.612847,-74.000721,11214
138,West End,18th Av,40.607602,-74.001491,11214
139,West End,18th Av,40.607723,-74.001894,11214
140,West End,18th Av,40.607897,-74.001628,11214
141,West End,20th Av,40.604439,-73.998164,11214
142,West End,20th Av,40.604587,-73.998007,11214
143,West End,20th Av,40.604631,-73.998498,11214
144,West End,20th Av,40.604789,-73.998349,11214
=======
133,West End,71st St,40.619133000000005,-73.99924,11228
134,West End,71st St,40.61877,-73.998995,11228
135,West End,71st St,40.618889,-73.998832,11228
136,West End,79th St,40.612854999999996,-74.00089200000001,11214
137,West End,79th St,40.612846999999995,-74.000721,11214
138,West End,18th Av,40.607602,-74.001491,11214
139,West End,18th Av,40.607723,-74.001894,11214
140,West End,18th Av,40.607896999999994,-74.001628,11214
141,West End,20th Av,40.604439,-73.998164,11214
142,West End,20th Av,40.604587,-73.998007,11214
143,West End,20th Av,40.604631,-73.998498,11214
144,West End,20th Av,40.604789000000004,-73.998349,11214
>>>>>>> 0926605a035426e9993d06469d3abb162d099394
145,West End,Bay Parkway,40.601726,-73.993696,11214
146,West End,Bay Parkway,40.601898,-73.993538,11214
147,West End,Bay Parkway,40.601993,-73.99413,11214
148,West End,Bay Parkway,40.60215,-73.993948,11214
149,West End,25th Av,40.597889,-73.986958,11214
150,West End,25th Av,40.5981,-73.987279,11214
151,West End,25th Av,40.597751,-73.987112,11214
152,West End,25th Av,40.597952,-73.987442,11214
<<<<<<< HEAD
153,West End,Bay 50th St,40.588022,-73.983735,11214
154,West End,Bay 50th St,40.588066,-73.983498,11214
155,West End,Bay 50th St,40.588305,-73.983791,11214
156,West End,Bay 50th St,40.588348,-73.983543,11214
157,Sea Beach,8th Av,40.634552,-74.010726,11220
158,Sea Beach,Fort Hamilton Parkway,40.632179,-74.006658,11219
159,Sea Beach,New Utrecht Av,40.625606,-73.99683,11219
160,Sea Beach,18th Av,40.620062,-73.98941,11204
161,Sea Beach,20th Av,40.617341,-73.98484,11204
162,Sea Beach,Bay Parkway-22nd Av,40.612989,-73.982084,11204
163,Sea Beach,Kings Highway,40.605107,-73.980578,11223
164,Sea Beach,Av U,40.596459,-73.978943,11223
165,Sea Beach,86th St,40.592724,-73.978227,11223
166,Broadway Jamaica,121st St,40.700254,-73.829332,11418
167,Broadway Jamaica,121st St,40.70052,-73.829231,11418
168,Broadway Jamaica,111th St,40.696771,-73.837042,11418
169,Broadway Jamaica,111th St,40.697055,-73.837156,11418
170,Broadway Jamaica,104th St-102nd St,40.695033,-73.843298,11418
171,Broadway Jamaica,104th St-102nd St,40.695267,-73.843223,11418
172,Broadway Jamaica,Woodhaven Blvd,40.693451,-73.852556,11421
173,Broadway Jamaica,Woodhaven Blvd,40.693563,-73.852608,11421
174,Broadway Jamaica,Forest Parkway-85th St,40.692381,-73.858975,11421
175,Broadway Jamaica,Forest Parkway-85th St,40.692666,-73.859098,11421
176,Broadway Jamaica,Elderts Lane-75th St,40.691285,-73.866425,11421
177,Broadway Jamaica,Elderts Lane-75th St,40.691479,-73.86661,11421
178,Broadway Jamaica,Cypress Hills,40.690142,-73.87163,11208
179,Broadway Jamaica,Cypress Hills,40.68947,-73.873449,11208
180,Broadway Jamaica,Cypress Hills,40.689596,-73.873555,11208
=======
153,West End,Bay 50th St,40.588021999999995,-73.983735,11214
154,West End,Bay 50th St,40.588066,-73.983498,11214
155,West End,Bay 50th St,40.588305,-73.983791,11214
156,West End,Bay 50th St,40.588347999999996,-73.98354300000001,11214
157,Sea Beach,8th Av,40.634552,-74.010726,11220
158,Sea Beach,Fort Hamilton Parkway,40.632179,-74.006658,11219
159,Sea Beach,New Utrecht Av,40.625606,-73.99683,11219
160,Sea Beach,18th Av,40.620062,-73.98940999999999,11204
161,Sea Beach,20th Av,40.617340999999996,-73.98484,11204
162,Sea Beach,Bay Parkway-22nd Av,40.612989,-73.982084,11204
163,Sea Beach,Kings Highway,40.605107000000004,-73.98057800000001,11223
164,Sea Beach,Av U,40.596459,-73.978943,11223
165,Sea Beach,86th St,40.592724,-73.978227,11223
166,Broadway Jamaica,121st St,40.700254,-73.829332,11418
167,Broadway Jamaica,121st St,40.700520000000004,-73.82923100000001,11418
168,Broadway Jamaica,111th St,40.696771000000005,-73.83704200000001,11418
169,Broadway Jamaica,111th St,40.697055,-73.83715600000001,11418
170,Broadway Jamaica,104th St-102nd St,40.695033,-73.843298,11418
171,Broadway Jamaica,104th St-102nd St,40.695267,-73.843223,11418
172,Broadway Jamaica,Woodhaven Blvd,40.693451,-73.852556,11421
173,Broadway Jamaica,Woodhaven Blvd,40.693563,-73.85260799999999,11421
174,Broadway Jamaica,Forest Parkway-85th St,40.692381,-73.858975,11421
175,Broadway Jamaica,Forest Parkway-85th St,40.692665999999996,-73.859098,11421
176,Broadway Jamaica,Elderts Lane-75th St,40.691285,-73.866425,11421
177,Broadway Jamaica,Elderts Lane-75th St,40.691479,-73.86661,11421
178,Broadway Jamaica,Cypress Hills,40.690142,-73.87163000000001,11208
179,Broadway Jamaica,Cypress Hills,40.68947,-73.873449,11208
180,Broadway Jamaica,Cypress Hills,40.689596,-73.87355500000001,11208
>>>>>>> 0926605a035426e9993d06469d3abb162d099394
181,Broadway Jamaica,Crescent St,40.683478,-73.872548,11208
182,Broadway Jamaica,Crescent St,40.683588,-73.8726,11208
183,Broadway Jamaica,Norwood Av,40.681757,-73.879007,11208
184,Broadway Jamaica,Norwood Av,40.681643,-73.878984,11208
185,Broadway Jamaica,Cleveland St,40.679656,-73.885731,11208
186,Broadway Jamaica,Cleveland St,40.67953,-73.885716,11208
187,Broadway Jamaica,Van Siclen Av,40.677847,-73.891711,11207
188,Broadway Jamaica,Van Siclen Av,40.677864,-73.891566,11207
189,Broadway Jamaica,Alabama Av,40.676755,-73.899834,11207
<<<<<<< HEAD
190,Broadway Jamaica,Alabama Av,40.676803,-73.89951,11207
191,Broadway Jamaica,Chauncey St,40.683313,-73.911334,11207
192,Broadway Jamaica,Chauncey St,40.683417,-73.911242,11207
193,Broadway Jamaica,Halsey St,40.685847,-73.915807,11221
194,Broadway Jamaica,Halsey St,40.685946,-73.915713,11221
195,Broadway Jamaica,Gates Av,40.69003,-73.923161,11221
196,Broadway Jamaica,Gates Av,40.690142,-73.923062,11221
197,Broadway Jamaica,Kosciusko St,40.69293,-73.928257,11221
198,Broadway Jamaica,Kosciusko St,40.692929,-73.92794,11221
199,Broadway Jamaica,Myrtle Av,40.696893,-73.935461,11418
200,Broadway Jamaica,Myrtle Av,40.696987,-73.935559,11206
201,Broadway Jamaica,Flushing Av,40.700629,-73.941995,11206
202,Broadway Jamaica,Flushing Av,40.70072,-73.941672,11206
203,Broadway Jamaica,Flushing Av,40.700634,-73.942173,11206
204,Broadway Jamaica,Flushing Av,40.700847,-73.94171,11206
=======
190,Broadway Jamaica,Alabama Av,40.676803,-73.89950999999999,11207
191,Broadway Jamaica,Chauncey St,40.683313,-73.911334,11207
192,Broadway Jamaica,Chauncey St,40.683417,-73.911242,11207
193,Broadway Jamaica,Halsey St,40.685846999999995,-73.915807,11221
194,Broadway Jamaica,Halsey St,40.685946,-73.915713,11221
195,Broadway Jamaica,Gates Av,40.69003,-73.923161,11221
196,Broadway Jamaica,Gates Av,40.690142,-73.923062,11221
197,Broadway Jamaica,Kosciusko St,40.69293,-73.92825699999999,11221
198,Broadway Jamaica,Kosciusko St,40.692929,-73.92794,11221
199,Broadway Jamaica,Myrtle Av,40.696892999999996,-73.935461,11418
200,Broadway Jamaica,Myrtle Av,40.696987,-73.935559,11206
201,Broadway Jamaica,Flushing Av,40.700629,-73.94199499999999,11206
202,Broadway Jamaica,Flushing Av,40.700720000000004,-73.941672,11206
203,Broadway Jamaica,Flushing Av,40.700634,-73.942173,11206
204,Broadway Jamaica,Flushing Av,40.700846999999996,-73.94171,11206
>>>>>>> 0926605a035426e9993d06469d3abb162d099394
205,Broadway Jamaica,Lorimer St,40.704279,-73.948324,11206
206,Broadway Jamaica,Lorimer St,40.704396,-73.948223,11206
207,Broadway Jamaica,Hewes St,40.707117,-73.95437,11211
208,Broadway Jamaica,Hewes St,40.707248,-73.954326,11211
209,Broadway Jamaica,Marcy Av,40.708565,-73.957893,11211
210,Broadway Jamaica,Marcy Av,40.708409,-73.957689,11211
211,Broadway Jamaica,Marcy Av,40.708529,-73.958048,11211
212,Nassau,Essex St,40.71841,-73.987181,10002
213,Nassau,Essex St,40.718551,-73.98765,10002
214,Nassau,Bowery,40.719977,-73.993576,10002
<<<<<<< HEAD
215,Nassau,Bowery,40.720291,-73.993411,10002
216,Myrtle,Metropolitan Av,40.712082,-73.88954,11379
217,Myrtle,Fresh Pond Rd,40.705955,-73.896232,11385
218,Myrtle,Fresh Pond Rd,40.706115,-73.895559,11385
=======
215,Nassau,Bowery,40.720290999999996,-73.993411,10002
216,Myrtle,Metropolitan Av,40.712082,-73.88954,11379
217,Myrtle,Fresh Pond Rd,40.705954999999996,-73.896232,11385
218,Myrtle,Fresh Pond Rd,40.706115000000004,-73.89555899999999,11385
>>>>>>> 0926605a035426e9993d06469d3abb162d099394
219,Myrtle,Forest Av,40.704729,-73.902243,11385
220,Myrtle,Forest Av,40.704443,-73.902389,11385
221,Myrtle,Seneca Av,40.70278,-73.907515,11385
222,Myrtle,Seneca Av,40.702835,-73.907894,11385
<<<<<<< HEAD
223,Myrtle,Knickerbocker Av,40.698717,-73.918655,11237
224,Myrtle,Knickerbocker Av,40.698913,-73.918771,11237
225,Myrtle,Central Av,40.698033,-73.926371,11221
226,Myrtle,Central Av,40.697876,-73.926525,11221
227,Canarsie,8th Av,40.73955,-74.002389,10011
228,Canarsie,8th Av,40.739734,-74.002804,10014
229,Canarsie,3rd Av,40.732961,-73.986657,10003
230,Canarsie,3rd Av,40.733134,-73.987041,10003
231,Canarsie,1st Av,40.731397,-73.982112,10009
232,Canarsie,1st Av,40.731483,-73.982145,10009
233,Canarsie,Bedford Av,40.717714,-73.957695,11211
234,Canarsie,Bedford Av,40.717821,-73.957568,11211
=======
223,Myrtle,Knickerbocker Av,40.698716999999995,-73.918655,11237
224,Myrtle,Knickerbocker Av,40.698913,-73.91877099999999,11237
225,Myrtle,Central Av,40.698033,-73.926371,11221
226,Myrtle,Central Av,40.697876,-73.926525,11221
227,Canarsie,8th Av,40.73955,-74.00238900000001,10011
228,Canarsie,8th Av,40.739734000000006,-74.002804,10014
229,Canarsie,3rd Av,40.732960999999996,-73.986657,10003
230,Canarsie,3rd Av,40.733134,-73.987041,10003
231,Canarsie,1st Av,40.731396999999994,-73.982112,10009
232,Canarsie,1st Av,40.731483000000004,-73.98214499999999,10009
233,Canarsie,Bedford Av,40.717714,-73.957695,11211
234,Canarsie,Bedford Av,40.717821,-73.95756800000001,11211
>>>>>>> 0926605a035426e9993d06469d3abb162d099394
235,Canarsie,Graham Av,40.714661,-73.944287,11211
236,Canarsie,Graham Av,40.714613,-73.94457,11211
237,Canarsie,Grand St,40.711912,-73.940433,11211
238,Canarsie,Grand St,40.712182,-73.940668,11211
239,Canarsie,Montrose Av,40.707723,-73.940044,11206
240,Canarsie,Montrose Av,40.707819,-73.939749,11206
241,Canarsie,Morgan Av,40.706317,-73.931696,11237
242,Canarsie,Morgan Av,40.70621,-73.93196,11237
243,Canarsie,Jefferson St,40.705943,-73.922036,11237
244,Canarsie,Jefferson St,40.706228,-73.92191,11237
245,Canarsie,Jefferson St,40.706082,-73.9223,11237
246,Canarsie,Jefferson St,40.70632,-73.922062,11237
<<<<<<< HEAD
247,Canarsie,DeKalb Av,40.704153,-73.919273,11237
248,Canarsie,DeKalb Av,40.704379,-73.919026,11237
249,Canarsie,DeKalb Av,40.704326,-73.919452,11237
250,Canarsie,DeKalb Av,40.70448,-73.919184,11237
251,Canarsie,Halsey St,40.696094,-73.90443,11237
252,Canarsie,Halsey St,40.696069,-73.904665,11385
=======
247,Canarsie,DeKalb Av,40.704153000000005,-73.919273,11237
248,Canarsie,DeKalb Av,40.704378999999996,-73.919026,11237
249,Canarsie,DeKalb Av,40.704326,-73.919452,11237
250,Canarsie,DeKalb Av,40.70448,-73.919184,11237
251,Canarsie,Halsey St,40.696094,-73.90443,11237
252,Canarsie,Halsey St,40.696069,-73.90466500000001,11385
>>>>>>> 0926605a035426e9993d06469d3abb162d099394
253,Canarsie,Wilson Av,40.688805,-73.904741,11207
254,Canarsie,Bushwick Av,40.6823,-73.905149,11207
255,Canarsie,Atlantic Av,40.67538,-73.902612,11207
256,Canarsie,Atlantic Av,40.675609,-73.902767,11207
257,Canarsie,Atlantic Av,40.675607,-73.902672,11207
<<<<<<< HEAD
258,Canarsie,Sutter Av,40.668527,-73.901765,
259,Canarsie,Livonia Av,40.663742,-73.900522,11212
260,Canarsie,New Lots Av,40.659041,-73.899409,11212
261,Canarsie,East 105th St,40.651462,-73.899191,11236
262,Canarsie,East 105th St,40.651278,-73.898862,11236
263,Canarsie,Canarsie - Rockaway Parkway,40.64556,-73.902524,11236
264,Canarsie,Canarsie - Rockaway Parkway,40.64556,-73.902524,11236
265,Canarsie,Canarsie - Rockaway Parkway,40.645806,-73.901414,11236
266,Franklin,Franklin Av,40.681051,-73.95584,11238
267,Franklin,Park Place,40.674516,-73.957932,11238
268,Franklin,Park Place,40.675208,-73.957591,11238
269,Franklin,Botanic Gardens,40.670588,-73.959093,11225
270,8 Avenue,Inwood - 207th St,40.867892,-73.921234,10034
271,8 Avenue,Inwood - 207th St,40.867799,-73.921431,10034
272,8 Avenue,Inwood - 207th St,40.867512,-73.92133,10034
273,8 Avenue,Inwood - 207th St,40.867653,-73.920949,10034
274,8 Avenue,Dyckman St-200th St,40.865758,-73.927266,10034
275,8 Avenue,Dyckman St-200th St,40.865744,-73.927172,10040
276,8 Avenue,Dyckman St-200th St,40.865362,-73.928059,10040
277,8 Avenue,190th St,40.858899,-73.932702,10040
278,8 Avenue,190th St,40.858886,-73.934226,10040
279,8 Avenue,181st St,40.852759,-73.936636,10033
280,8 Avenue,181st St,40.850752,-73.93813,10033
281,8 Avenue,175th St,40.847946,-73.939375,10033
282,8 Avenue,175th St,40.847809,-73.939807,10033
283,8 Avenue,175th St,40.847944,-73.939679,10033
284,8 Avenue,175th St,40.847859,-73.939303,10033
285,8 Avenue,175th St,40.847992,-73.939564,10033
286,8 Avenue,168th St - Washington Heights,40.840741,-73.939252,10032
=======
258,Canarsie,Sutter Av,40.668527000000005,-73.901765,
259,Canarsie,Livonia Av,40.663742,-73.900522,11212
260,Canarsie,New Lots Av,40.659040999999995,-73.89940899999999,11212
261,Canarsie,East 105th St,40.651462,-73.899191,11236
262,Canarsie,East 105th St,40.651278000000005,-73.898862,11236
263,Canarsie,Canarsie - Rockaway Parkway,40.645559999999996,-73.902524,11236
264,Canarsie,Canarsie - Rockaway Parkway,40.645559999999996,-73.902524,11236
265,Canarsie,Canarsie - Rockaway Parkway,40.645806,-73.901414,11236
266,Franklin,Franklin Av,40.681051000000004,-73.95584000000001,11238
267,Franklin,Park Place,40.674516,-73.957932,11238
268,Franklin,Park Place,40.675208000000005,-73.95759100000001,11238
269,Franklin,Botanic Gardens,40.670588,-73.95909300000001,11225
270,8 Avenue,Inwood - 207th St,40.867892,-73.921234,10034
271,8 Avenue,Inwood - 207th St,40.867799,-73.92143100000001,10034
272,8 Avenue,Inwood - 207th St,40.867512,-73.92133000000001,10034
273,8 Avenue,Inwood - 207th St,40.867653000000004,-73.920949,10034
274,8 Avenue,Dyckman St-200th St,40.865758,-73.927266,10034
275,8 Avenue,Dyckman St-200th St,40.865744,-73.927172,10040
276,8 Avenue,Dyckman St-200th St,40.865362,-73.92805899999999,10040
277,8 Avenue,190th St,40.858899,-73.932702,10040
278,8 Avenue,190th St,40.858886,-73.934226,10040
279,8 Avenue,181st St,40.852759000000006,-73.936636,10033
280,8 Avenue,181st St,40.850752,-73.93813,10033
281,8 Avenue,175th St,40.847946,-73.939375,10033
282,8 Avenue,175th St,40.847809000000005,-73.939807,10033
283,8 Avenue,175th St,40.847944,-73.939679,10033
284,8 Avenue,175th St,40.847859,-73.93930300000001,10033
285,8 Avenue,175th St,40.847992,-73.939564,10033
286,8 Avenue,168th St - Washington Heights,40.840740999999994,-73.939252,10032
>>>>>>> 0926605a035426e9993d06469d3abb162d099394
287,8 Avenue,163rd St - Amsterdam Av,40.835192,-73.940146,10032
288,8 Avenue,163rd St - Amsterdam Av,40.835278,-73.939625,10032
289,8 Avenue,163rd St - Amsterdam Av,40.835936,-73.940137,10032
290,8 Avenue,155th St,40.830744,-73.941597,10032
<<<<<<< HEAD
291,8 Avenue,155th St,40.830854,-73.941638,10032
292,8 Avenue,155th St,40.831106,-73.94155,10032
293,8 Avenue,155th St,40.831139,-73.941447,10032
294,8 Avenue,155th St,40.831031,-73.941149,10032
295,8 Avenue,155th St,40.830921,-73.9411,10032
296,8 Avenue,145th St,40.823791,-73.944726,10030
297,8 Avenue,145th St,40.823915,-73.945027,10031
298,8 Avenue,145th St,40.824244,-73.944931,10031
299,8 Avenue,145th St,40.824028,-73.944409,10031
300,8 Avenue,135th St,40.817125,-73.948225,10030
301,8 Avenue,125th St,40.810879,-73.952318,10027
302,8 Avenue,125th St,40.810526,-73.952583,10027
303,8 Avenue,125th St,40.811007,-73.952615,10027
304,8 Avenue,125th St,40.810636,-73.952886,10027
305,8 Avenue,116th St,40.804312,-73.955643,10026
306,8 Avenue,116th St,40.804639,-73.955559,10026
307,8 Avenue,Cathedral Parkway-110th St,40.800002,-73.958882,10025
308,8 Avenue,Cathedral Parkway-110th St,40.800002,-73.958448,10026
309,8 Avenue,103rd St,40.796263,-73.96161,10025
310,8 Avenue,96th St,40.791642,-73.965009,10025
311,8 Avenue,86th St,40.785195,-73.969596,10024
312,8 Avenue,86th St,40.785282,-73.969662,10024
313,8 Avenue,86th St,40.78548,-73.969458,10024
314,8 Avenue,81st St - Museum of Natural History,40.781976,-73.972027,10024
315,8 Avenue,81st St - Museum of Natural History,40.782254,-73.971741,10024
316,8 Avenue,72nd St,40.776217,-73.976247,10023
317,8 Avenue,72nd St,40.776431,-73.975977,10023
318,8 Avenue,59th St,40.766944,-73.982941,10019
319,8 Avenue,59th St,40.766488,-73.982708,10107
320,8 Avenue,59th St,40.767667,-73.982408,10023
321,8 Avenue,59th St,40.767677,-73.982526,10019
322,8 Avenue,59th St,40.767659,-73.982542,10019
=======
291,8 Avenue,155th St,40.830853999999995,-73.941638,10032
292,8 Avenue,155th St,40.831106,-73.94155,10032
293,8 Avenue,155th St,40.831139,-73.941447,10032
294,8 Avenue,155th St,40.831031,-73.941149,10032
295,8 Avenue,155th St,40.830921000000004,-73.9411,10032
296,8 Avenue,145th St,40.823791,-73.944726,10030
297,8 Avenue,145th St,40.823915,-73.945027,10031
298,8 Avenue,145th St,40.824244,-73.94493100000001,10031
299,8 Avenue,145th St,40.824028000000006,-73.944409,10031
300,8 Avenue,135th St,40.817125,-73.948225,10030
301,8 Avenue,125th St,40.810879,-73.952318,10027
302,8 Avenue,125th St,40.810526,-73.95258299999999,10027
303,8 Avenue,125th St,40.811007000000004,-73.95261500000001,10027
304,8 Avenue,125th St,40.810635999999995,-73.95288599999999,10027
305,8 Avenue,116th St,40.804312,-73.95564300000001,10026
306,8 Avenue,116th St,40.804639,-73.955559,10026
307,8 Avenue,Cathedral Parkway-110th St,40.800002,-73.95888199999999,10025
308,8 Avenue,Cathedral Parkway-110th St,40.800002,-73.958448,10026
309,8 Avenue,103rd St,40.796263,-73.96161,10025
310,8 Avenue,96th St,40.791641999999996,-73.965009,10025
311,8 Avenue,86th St,40.785195,-73.969596,10024
312,8 Avenue,86th St,40.785282,-73.969662,10024
313,8 Avenue,86th St,40.78548,-73.96945799999999,10024
314,8 Avenue,81st St - Museum of Natural History,40.781976,-73.972027,10024
315,8 Avenue,81st St - Museum of Natural History,40.782253999999995,-73.97174100000001,10024
316,8 Avenue,72nd St,40.776216999999995,-73.976247,10023
317,8 Avenue,72nd St,40.776431,-73.975977,10023
318,8 Avenue,59th St,40.766944,-73.982941,10019
319,8 Avenue,59th St,40.766488,-73.982708,10107
320,8 Avenue,59th St,40.767666999999996,-73.98240799999999,10023
321,8 Avenue,59th St,40.767677,-73.98252600000001,10019
322,8 Avenue,59th St,40.767659,-73.98254200000001,10019
>>>>>>> 0926605a035426e9993d06469d3abb162d099394
323,8 Avenue,59th St,40.766725,-73.982563,10023
324,8 Avenue,59th St,40.767643,-73.982563,10019
325,8 Avenue,59th St,40.766745,-73.983408,10019
326,8 Avenue,59th St,40.766416,-73.983301,10019
327,8 Avenue,59th St,40.767367,-73.982137,10019
<<<<<<< HEAD
328,8 Avenue,50th St,40.761968,-73.986662,10019
329,8 Avenue,50th St,40.762312,-73.986378,10019
330,8 Avenue,50th St,40.762452,-73.986299,10019
331,8 Avenue,50th St,40.761968,-73.986662,10019
=======
328,8 Avenue,50th St,40.761967999999996,-73.986662,10019
329,8 Avenue,50th St,40.762312,-73.986378,10019
330,8 Avenue,50th St,40.762452,-73.986299,10019
331,8 Avenue,50th St,40.761967999999996,-73.986662,10019
>>>>>>> 0926605a035426e9993d06469d3abb162d099394
332,8 Avenue,50th St,40.762312,-73.986378,10019
333,8 Avenue,50th St,40.761741,-73.986924,10019
334,8 Avenue,50th St,40.761691,-73.986805,10019
335,8 Avenue,42nd St,40.757286,-73.989582,10036
336,8 Avenue,42nd St,40.755989,-73.991049,10036
337,8 Avenue,42nd St,40.755801,-73.990576,10018
338,8 Avenue,42nd St,40.756101,-73.990887,10018
<<<<<<< HEAD
339,8 Avenue,34th St,40.751996,73.993327,
340,8 Avenue,34th St,40.75202,-73.993352,10001
341,8 Avenue,34th St,40.752161,-73.993109,10123
342,8 Avenue,23rd St,40.745102,-73.998365,10011
343,8 Avenue,23rd St,40.745299,-73.998145,10011
344,8 Avenue,14th St,40.740938,-74.001919,10011
345,8 Avenue,14th St,40.741235,-74.001715,10011
346,8 Avenue,14th St,40.740944,-74.001402,10011
347,8 Avenue,14th St,40.741046,-74.001284,10011
348,8 Avenue,14th St,40.739949,-74.002655,10011
349,8 Avenue,West 4th St,40.731086,-74.001209,10012
350,8 Avenue,West 4th St,40.731133,-74.001534,10014
351,8 Avenue,West 4th St,40.731091,-74.001127,10012
352,8 Avenue,Spring St,40.725583,-74.003747,10013
353,8 Avenue,Canal St,40.720704,-74.004999,10013
354,8 Avenue,Canal St,40.720758,-74.005399,10013
355,8 Avenue,Canal St,40.721651,-74.005634,10013
356,8 Avenue,Canal St,40.721967,-74.005133,10013
357,8 Avenue,Chambers St,40.713753,-74.009046,10007
358,8 Avenue,World Trade Center,40.713333,-74.009033,10007
359,8 Avenue,World Trade Center,40.712681,-74.009891,10007
360,8 Avenue,World Trade Center,40.713286,-74.009511,10007
361,8 Avenue,World Trade Center,40.713036,-74.009245,10007
=======
339,8 Avenue,34th St,40.751996000000005,73.99332700000001,
340,8 Avenue,34th St,40.75202,-73.993352,10001
341,8 Avenue,34th St,40.752161,-73.99310899999999,10123
342,8 Avenue,23rd St,40.745102,-73.998365,10011
343,8 Avenue,23rd St,40.745298999999996,-73.998145,10011
344,8 Avenue,14th St,40.740938,-74.001919,10011
345,8 Avenue,14th St,40.741234999999996,-74.001715,10011
346,8 Avenue,14th St,40.740944,-74.001402,10011
347,8 Avenue,14th St,40.741046000000004,-74.001284,10011
348,8 Avenue,14th St,40.739948999999996,-74.002655,10011
349,8 Avenue,West 4th St,40.731086,-74.001209,10012
350,8 Avenue,West 4th St,40.731133,-74.00153399999999,10014
351,8 Avenue,West 4th St,40.731091,-74.001127,10012
352,8 Avenue,Spring St,40.725583,-74.003747,10013
353,8 Avenue,Canal St,40.720704,-74.004999,10013
354,8 Avenue,Canal St,40.720758000000004,-74.005399,10013
355,8 Avenue,Canal St,40.721651,-74.005634,10013
356,8 Avenue,Canal St,40.721967,-74.005133,10013
357,8 Avenue,Chambers St,40.713753000000004,-74.009046,10007
358,8 Avenue,World Trade Center,40.713333,-74.009033,10007
359,8 Avenue,World Trade Center,40.712680999999996,-74.00989100000001,10007
360,8 Avenue,World Trade Center,40.713286,-74.009511,10007
361,8 Avenue,World Trade Center,40.713035999999995,-74.00924499999999,10007
>>>>>>> 0926605a035426e9993d06469d3abb162d099394
362,8 Avenue,World Trade Center,40.713435,-74.009292,10007
363,8 Avenue,World Trade Center,40.711793,-74.010165,10007
364,8 Avenue,World Trade Center,40.71171,-74.010204,10007
365,8 Avenue,World Trade Center,40.712258,-74.010306,10007
<<<<<<< HEAD
366,8 Avenue,Broadway-Nassau,40.710692,-74.008428,10038
367,8 Avenue,Broadway-Nassau,40.710555,-74.008632,10038
368,8 Avenue,High St,40.699405,-73.991413,11201
369,Fulton,Jay St - Borough Hall,40.692335,-73.987446,11201
=======
366,8 Avenue,Broadway-Nassau,40.710692,-74.00842800000001,10038
367,8 Avenue,Broadway-Nassau,40.710555,-74.00863199999999,10038
368,8 Avenue,High St,40.699405,-73.991413,11201
369,Fulton,Jay St - Borough Hall,40.692335,-73.98744599999999,11201
>>>>>>> 0926605a035426e9993d06469d3abb162d099394
370,Fulton,Jay St - Borough Hall,40.692393,-73.987443,11201
371,Fulton,Jay St - Borough Hall,40.692336,-73.987494,11201
372,Fulton,Jay St - Borough Hall,40.692394,-73.987491,11201
373,Fulton,Hoyt & Schermerhorn,40.689085,-73.985941,11201
<<<<<<< HEAD
374,Fulton,Hoyt & Schermerhorn,40.688396,-73.984216,11201
375,Fulton,Lafayette Av,40.685789,-73.97276,11217
376,Fulton,Lafayette Av,40.685559,-73.9729,11217
377,Fulton,Lafayette Av,40.685969,-73.973021,11238
378,Fulton,Lafayette Av,40.6857,-73.973526,11217
379,Fulton,Lafayette Av,40.686077,-73.973308,11238
380,Fulton,Lafayette Av,40.686041,-73.974278,11217
381,Fulton,Lafayette Av,40.686409,-73.974347,11217
382,Fulton,Lafayette Av,40.686119,-73.974517,11217
383,Fulton,Lafayette Av,40.686553,-73.974606,11217
=======
374,Fulton,Hoyt & Schermerhorn,40.688396000000004,-73.984216,11201
375,Fulton,Lafayette Av,40.685789,-73.97276,11217
376,Fulton,Lafayette Av,40.685559000000005,-73.9729,11217
377,Fulton,Lafayette Av,40.685969,-73.973021,11238
378,Fulton,Lafayette Av,40.6857,-73.973526,11217
379,Fulton,Lafayette Av,40.686077000000004,-73.97330799999999,11238
380,Fulton,Lafayette Av,40.686040999999996,-73.974278,11217
381,Fulton,Lafayette Av,40.686409000000005,-73.974347,11217
382,Fulton,Lafayette Av,40.686119,-73.974517,11217
383,Fulton,Lafayette Av,40.686553,-73.97460600000001,11217
>>>>>>> 0926605a035426e9993d06469d3abb162d099394
384,Fulton,Clinton & Washington Avs,40.683653,-73.966797,11238
385,Fulton,Clinton & Washington Avs,40.683695,-73.967069,11238
386,Fulton,Nostrand Av,40.680547,-73.949515,11216
387,Fulton,Nostrand Av,40.680572,-73.949753,11216
<<<<<<< HEAD
388,Fulton,Kingston-Throop,40.68001,-73.940247,11216
389,Fulton,Kingston-Throop,40.680057,-73.940483,11216
390,Fulton,Utica Av,40.679095,-73.930044,11233
=======
388,Fulton,Kingston-Throop,40.680009999999996,-73.940247,11216
389,Fulton,Kingston-Throop,40.680057,-73.940483,11216
390,Fulton,Utica Av,40.679095000000004,-73.930044,11233
>>>>>>> 0926605a035426e9993d06469d3abb162d099394
391,Fulton,Utica Av,40.679487,-73.929725,11233
392,Fulton,Ralph Av,40.678702,-73.921552,11233
393,Fulton,Ralph Av,40.678984,-73.921442,11233
394,Fulton,Ralph Av,40.679164,-73.92187,11233
395,Fulton,Rockaway Av,40.678594,-73.913732,11233
396,Fulton,Rockaway Av,40.678317,-73.913651,11233
397,Fulton,Broadway Junction-East New York,40.678334,-73.903922,11233
<<<<<<< HEAD
398,Fulton,Liberty Av,40.674242,-73.896645,11207
399,Fulton,Liberty Av,40.674268,-73.896312,11207
400,Fulton,Liberty Av,40.67443,-73.896776,11207
401,Fulton,Liberty Av,40.674567,-73.896364,11207
402,Fulton,Van Siclen Av,40.672479,-73.890164,11207
403,Fulton,Van Siclen Av,40.67285,-73.890257,11207
404,Fulton,Van Siclen Av,40.672545,-73.890381,11207
405,Fulton,Van Siclen Av,40.672771,-73.890584,11207
406,Fulton,Shepherd Av,40.67397,-73.880667,11208
407,Fulton,Shepherd Av,40.674303,-73.880749,11208
408,Fulton,Shepherd Av,40.674234,-73.880927,11208
409,Fulton,Shepherd Av,40.673989,-73.880869,11208
410,Fulton,Euclid Av,40.675554,-73.871875,11208
411,Fulton,Euclid Av,40.675301,-73.871801,11208
412,Fulton,Euclid Av,40.675533,-73.871742,11208
413,Fulton,Euclid Av,40.675274,-73.872115,11208
414,Fulton,Euclid Av,40.675478,-73.872109,11208
415,Liberty,Grant Av,40.676735,-73.865491,11208
416,Liberty,80th St-Hudson St,40.679371,-73.858024,11417
417,Liberty,80th St-Hudson St,40.679498,-73.858049,11417
418,Liberty,88th St-Boyd Av,40.679828,-73.850401,11417
419,Liberty,88th St-Boyd Av,40.679973,-73.850413,11417
420,Liberty,Rockaway Blvd,40.680158,-73.845131,11417
421,Liberty,Rockaway Blvd,40.680305,-73.845159,11422
422,Liberty,104th St-Oxford Av,40.681994,-73.836742,11417
423,Liberty,104th St-Oxford Av,40.68212,-73.836836,11417
424,Liberty,111th St-Greenwood Av,40.684732,-73.830898,11419
425,Liberty,111th St-Greenwood Av,40.684874,-73.830943,11419
426,Liberty,Lefferts Blvd,40.686103,-73.824314,11419
427,Liberty,Lefferts Blvd,40.686234,-73.824378,11419
428,Rockaway,Aqueduct-North Conduit Av,40.667018,-73.83348,11417
429,Rockaway,Howard Beach,40.660465,-73.830518,11414
430,Rockaway,Howard Beach,40.660486,-73.830453,11414
431,Rockaway,Howard Beach,40.660372,-73.830369,11414
432,Rockaway,Broad Channel,40.608007,-73.815967,11693
433,Rockaway,Beach 90th St,40.58808,-73.813907,11693
434,Rockaway,Beach 90th St,40.587929,-73.813755,11693
435,Rockaway,Beach 90th St,40.587999,-73.814117,11693
436,Rockaway,Beach 90th St,40.587814,-73.814037,11693
437,Rockaway,Beach 98th St,40.58554,-73.820345,11694
=======
398,Fulton,Liberty Av,40.674242,-73.89664499999999,11207
399,Fulton,Liberty Av,40.674268,-73.896312,11207
400,Fulton,Liberty Av,40.67443,-73.896776,11207
401,Fulton,Liberty Av,40.674566999999996,-73.896364,11207
402,Fulton,Van Siclen Av,40.672478999999996,-73.890164,11207
403,Fulton,Van Siclen Av,40.67285,-73.89025699999999,11207
404,Fulton,Van Siclen Av,40.672545,-73.890381,11207
405,Fulton,Van Siclen Av,40.672771000000004,-73.89058399999999,11207
406,Fulton,Shepherd Av,40.673970000000004,-73.880667,11208
407,Fulton,Shepherd Av,40.674303,-73.880749,11208
408,Fulton,Shepherd Av,40.674234000000006,-73.880927,11208
409,Fulton,Shepherd Av,40.673989,-73.88086899999999,11208
410,Fulton,Euclid Av,40.675554,-73.871875,11208
411,Fulton,Euclid Av,40.675301,-73.871801,11208
412,Fulton,Euclid Av,40.675533,-73.871742,11208
413,Fulton,Euclid Av,40.675274,-73.87211500000001,11208
414,Fulton,Euclid Av,40.675478000000005,-73.872109,11208
415,Liberty,Grant Av,40.676735,-73.865491,11208
416,Liberty,80th St-Hudson St,40.679371,-73.858024,11417
417,Liberty,80th St-Hudson St,40.679497999999995,-73.858049,11417
418,Liberty,88th St-Boyd Av,40.679828,-73.850401,11417
419,Liberty,88th St-Boyd Av,40.679973,-73.850413,11417
420,Liberty,Rockaway Blvd,40.680158,-73.84513100000001,11417
421,Liberty,Rockaway Blvd,40.680305,-73.845159,11422
422,Liberty,104th St-Oxford Av,40.681994,-73.836742,11417
423,Liberty,104th St-Oxford Av,40.68212,-73.836836,11417
424,Liberty,111th St-Greenwood Av,40.684732000000004,-73.830898,11419
425,Liberty,111th St-Greenwood Av,40.684874,-73.830943,11419
426,Liberty,Lefferts Blvd,40.686103,-73.824314,11419
427,Liberty,Lefferts Blvd,40.686234000000006,-73.824378,11419
428,Rockaway,Aqueduct-North Conduit Av,40.667018,-73.83348000000001,11417
429,Rockaway,Howard Beach,40.660465,-73.83051800000001,11414
430,Rockaway,Howard Beach,40.660486,-73.830453,11414
431,Rockaway,Howard Beach,40.660371999999995,-73.83036899999999,11414
432,Rockaway,Broad Channel,40.608007,-73.815967,11693
433,Rockaway,Beach 90th St,40.58808,-73.813907,11693
434,Rockaway,Beach 90th St,40.587928999999995,-73.813755,11693
435,Rockaway,Beach 90th St,40.587998999999996,-73.81411700000001,11693
436,Rockaway,Beach 90th St,40.587814,-73.814037,11693
437,Rockaway,Beach 98th St,40.58554,-73.82034499999999,11694
>>>>>>> 0926605a035426e9993d06469d3abb162d099394
438,Rockaway,Beach 98th St,40.585342,-73.820249,11694
439,Rockaway,Beach 98th St,40.585208,-73.820595,11694
440,Rockaway,Beach 105th St,40.583187,-73.827388,11694
441,Rockaway,Beach 105th St,40.583369,-73.827474,11694
442,Rockaway,Beach 105th St,40.583248,-73.827163,11694
<<<<<<< HEAD
443,Rockaway,Beach 105th St,40.583435,-73.827232,11694
444,Rockaway,Rockaway Park-Beach 116th,40.58051,-73.837418,11694
445,Rockaway,Beach 67th St,40.590744,-73.797789,11692
446,Rockaway,Beach 67th St,40.590901,-73.796609,11692
447,Rockaway,Beach 67th St,40.591123,-73.79646,11692
448,Rockaway,Beach 67th St,40.590951,-73.796176,11692
449,Rockaway,Beach 60th St,40.592269,-73.789578,11692
450,Rockaway,Beach 60th St,40.59249,-73.789161,11692
451,Rockaway,Beach 60th St,40.592292,-73.789153,11692
452,Rockaway,Beach 60th St,40.592478,-73.78941,11692
453,Rockaway,Beach 44th St,40.593106,-73.775743,11691
454,Rockaway,Beach 44th St,40.59286,-73.776109,11691
455,Rockaway,Beach 44th St,40.593079,-73.775985,11691
456,Rockaway,Beach 44th St,40.592897,-73.775715,11691
457,Rockaway,Beach 36th St,40.595617,-73.768032,11691
458,Rockaway,Beach 36th St,40.595297,-73.768206,11691
459,Rockaway,Beach 36th St,40.595445,-73.768313,11691
460,Rockaway,Beach 36th St,40.595469,-73.767919,11691
461,Rockaway,Beach 25th St,40.599708,-73.761959,11691
462,Rockaway,Beach 25th St,40.599427,-73.761807,11691
=======
443,Rockaway,Beach 105th St,40.583434999999994,-73.827232,11694
444,Rockaway,Rockaway Park-Beach 116th,40.58051,-73.837418,11694
445,Rockaway,Beach 67th St,40.590744,-73.797789,11692
446,Rockaway,Beach 67th St,40.590901,-73.796609,11692
447,Rockaway,Beach 67th St,40.591122999999996,-73.79646,11692
448,Rockaway,Beach 67th St,40.590951000000004,-73.796176,11692
449,Rockaway,Beach 60th St,40.592269,-73.789578,11692
450,Rockaway,Beach 60th St,40.592490000000005,-73.789161,11692
451,Rockaway,Beach 60th St,40.592292,-73.789153,11692
452,Rockaway,Beach 60th St,40.592478,-73.78941,11692
453,Rockaway,Beach 44th St,40.593106,-73.775743,11691
454,Rockaway,Beach 44th St,40.592859999999995,-73.77610899999999,11691
455,Rockaway,Beach 44th St,40.593078999999996,-73.77598499999999,11691
456,Rockaway,Beach 44th St,40.592897,-73.775715,11691
457,Rockaway,Beach 36th St,40.595617,-73.76803199999999,11691
458,Rockaway,Beach 36th St,40.595296999999995,-73.768206,11691
459,Rockaway,Beach 36th St,40.595445,-73.768313,11691
460,Rockaway,Beach 36th St,40.595469,-73.76791899999999,11691
461,Rockaway,Beach 25th St,40.599708,-73.76195899999999,11691
462,Rockaway,Beach 25th St,40.599427,-73.76180699999999,11691
>>>>>>> 0926605a035426e9993d06469d3abb162d099394
463,Rockaway,Beach 25th St,40.59967,-73.761596,11691
464,Rockaway,Far Rockaway-Mott Av,40.604657,-73.754178,11691
465,Concourse,Norwood-205th St,40.874902,-73.879267,10467
466,Concourse,Norwood-205th St,40.875087,-73.87961,10467
<<<<<<< HEAD
467,Concourse,Bedford Park Blvd,40.872135,-73.887459,10468
468,Concourse,Bedford Park Blvd,40.872198,-73.887788,
469,Concourse,Bedford Park Blvd,40.872468,-73.887894,10468
470,Concourse,Kingsbridge Rd,40.868114,-73.893195,10468
471,Concourse,Kingsbridge Rd,40.867688,-73.892739,10458
472,Concourse,Fordham Rd,40.861401,-73.898098,10468
473,Concourse,Fordham Rd,40.861147,-73.897424,10458
474,Concourse,Fordham Rd,40.861592,-73.898019,10468
475,Concourse,Fordham Rd,40.861322,-73.897355,10458
476,Concourse,182nd-183rd Sts,40.856038,-73.90114,10453
477,Concourse,182nd-183rd Sts,40.855864,-73.900484,10457
478,Concourse,182nd-183rd Sts,40.856237,-73.901115,10453
479,Concourse,182nd-183rd Sts,40.856039,-73.900449,10457
480,Concourse,Tremont Av,40.849864,-73.906084,10453
481,Concourse,Tremont Av,40.850124,-73.905841,10453
482,Concourse,Tremont Av,40.849968,-73.905226,10457
483,Concourse,174-175th Sts,40.844933,-73.911212,10453
484,Concourse,174-175th Sts,40.844939,-73.910885,10453
=======
467,Concourse,Bedford Park Blvd,40.872135,-73.88745899999999,10468
468,Concourse,Bedford Park Blvd,40.872198,-73.887788,
469,Concourse,Bedford Park Blvd,40.872468,-73.88789399999999,10468
470,Concourse,Kingsbridge Rd,40.868114,-73.89319499999999,10468
471,Concourse,Kingsbridge Rd,40.867688,-73.892739,10458
472,Concourse,Fordham Rd,40.861401,-73.898098,10468
473,Concourse,Fordham Rd,40.861146999999995,-73.897424,10458
474,Concourse,Fordham Rd,40.861592,-73.89801899999999,10468
475,Concourse,Fordham Rd,40.861321999999994,-73.897355,10458
476,Concourse,182nd-183rd Sts,40.856038,-73.90114,10453
477,Concourse,182nd-183rd Sts,40.855864000000004,-73.90048399999999,10457
478,Concourse,182nd-183rd Sts,40.856237,-73.901115,10453
479,Concourse,182nd-183rd Sts,40.856039,-73.900449,10457
480,Concourse,Tremont Av,40.849864000000004,-73.90608399999999,10453
481,Concourse,Tremont Av,40.850124,-73.90584100000001,10453
482,Concourse,Tremont Av,40.849968,-73.905226,10457
483,Concourse,174-175th Sts,40.844933000000005,-73.911212,10453
484,Concourse,174-175th Sts,40.844939000000004,-73.910885,10453
>>>>>>> 0926605a035426e9993d06469d3abb162d099394
485,Concourse,170th St,40.839751,-73.912743,10452
486,Concourse,170th St,40.840097,-73.913333,10452
487,Concourse,167th St,40.834466,-73.918155,10452
488,Concourse,167th St,40.834286,-73.917562,10456
489,Concourse,167th St,40.834788,-73.917838,10452
490,Concourse,167th St,40.834609,-73.917245,10456
491,Concourse,Yankee Stadium-161st St,40.82784,-73.925715,10452
492,Concourse,Yankee Stadium-161st St,40.827488,-73.926004,10451
493,Concourse,Yankee Stadium-161st St,40.827471,-73.92625,10451
494,Concourse,Yankee Stadium-161st St,40.827545,-73.926202,10451
495,Concourse,Yankee Stadium-161st St,40.828011,-73.925588,10451
<<<<<<< HEAD
496,Concourse,155th St,40.830313,-73.936687,10039
497,63rd Street,21st St,40.754322,-73.942374,11101
=======
496,Concourse,155th St,40.830313000000004,-73.936687,10039
497,63rd Street,21st St,40.754321999999995,-73.942374,11101
>>>>>>> 0926605a035426e9993d06469d3abb162d099394
498,63rd Street,21st St,40.754131,-73.942491,11101
499,63rd Street,21st St,40.754195,-73.942521,11101
500,63rd Street,21st St,40.754069,-73.942132,11101
501,63rd Street,21st St,40.754255,-73.941935,11101
<<<<<<< HEAD
502,63rd Street,Roosevelt Island,40.759016,-73.953505,10044
503,63rd Street,Lexington Av,40.764884,-73.966514,10065
504,63rd Street,Lexington Av,40.764874,-73.966431,10065
505,63rd Street,Lexington Av,40.764881,-73.966411,10065
506,63rd Street,Lexington Av,40.764721,-73.966552,10065
507,63rd Street,Lexington Av,40.764866,-73.966422,10065
508,6 Avenue,57th St,40.763874,-73.977358,10019
509,6 Avenue,57th St,40.764227,-73.97743,10019
510,6 Avenue,57th St,40.763998,-73.977264,10019
511,6 Avenue,57th St,40.764652,-73.977119,10019
512,6 Avenue,57th St,40.764564,-73.97683,10019
513,6 Avenue,57th St,40.763482,-73.977974,10019
514,6 Avenue,57th St,40.763392,-73.977674,10019
515,6 Avenue,57th St,40.763831,-73.977718,10019
516,6 Avenue,47-50th Sts Rockefeller Center,40.759434,-73.981001,10020
517,6 Avenue,47-50th Sts Rockefeller Center,40.759896,-73.980706,10020
518,6 Avenue,47-50th Sts Rockefeller Center,40.760502,-73.980218,10020
519,6 Avenue,47-50th Sts Rockefeller Center,40.759953,-73.980117,10020
520,6 Avenue,47-50th Sts Rockefeller Center,40.760125,-73.980499,10020
521,6 Avenue,47-50th Sts Rockefeller Center,40.759301,-73.980594,10111
522,6 Avenue,47-50th Sts Rockefeller Center,40.759414,-73.981035,10020
523,6 Avenue,47-50th Sts Rockefeller Center,40.758996,-73.980788,10020
524,6 Avenue,42nd St,40.754849,-73.984627,10018
525,6 Avenue,42nd St,40.754609,-73.983894,10036
526,6 Avenue,34th St,40.749615,-73.988159,10001
527,6 Avenue,34th St,40.749845,-73.988254,10001
528,6 Avenue,34th St,40.750088,-73.988142,10001
529,6 Avenue,23rd St,40.742659,-73.992489,10010
530,6 Avenue,23rd St,40.742715,-73.992617,
531,6 Avenue,23rd St,40.74288,-73.992506,10010
532,6 Avenue,23rd St,40.742825,-73.992383,10010
533,6 Avenue,14th St,40.737423,-73.99722,10011
534,6 Avenue,14th St,40.737572,-73.997111,10011
535,6 Avenue,14th St,40.737519,-73.99697,10011
536,6 Avenue,14th St,40.73737,-73.997079,10011
537,6 Avenue,Broadway-Lafayette St,40.725202,-73.996583,10012
538,6 Avenue,Broadway-Lafayette St,40.725499,-73.996387,10012
539,6 Avenue,Grand St,40.718155,-73.993452,10002
540,6 Avenue,Grand St,40.718191,-73.993577,10002
541,6 Avenue,Grand St,40.718265,-73.993877,10002
542,6 Avenue,2nd Av,40.722807,-73.988942,10002
=======
502,63rd Street,Roosevelt Island,40.759015999999995,-73.953505,10044
503,63rd Street,Lexington Av,40.764884,-73.966514,10065
504,63rd Street,Lexington Av,40.764874,-73.966431,10065
505,63rd Street,Lexington Av,40.764881,-73.966411,10065
506,63rd Street,Lexington Av,40.764721,-73.96655200000001,10065
507,63rd Street,Lexington Av,40.764866,-73.966422,10065
508,6 Avenue,57th St,40.763874,-73.977358,10019
509,6 Avenue,57th St,40.764227000000005,-73.97743,10019
510,6 Avenue,57th St,40.763998,-73.977264,10019
511,6 Avenue,57th St,40.764652000000005,-73.97711899999999,10019
512,6 Avenue,57th St,40.764564,-73.97683,10019
513,6 Avenue,57th St,40.763482,-73.977974,10019
514,6 Avenue,57th St,40.763391999999996,-73.977674,10019
515,6 Avenue,57th St,40.763831,-73.97771800000001,10019
516,6 Avenue,47-50th Sts Rockefeller Center,40.759434000000006,-73.981001,10020
517,6 Avenue,47-50th Sts Rockefeller Center,40.759896000000005,-73.98070600000001,10020
518,6 Avenue,47-50th Sts Rockefeller Center,40.760502,-73.98021800000001,10020
519,6 Avenue,47-50th Sts Rockefeller Center,40.759953,-73.980117,10020
520,6 Avenue,47-50th Sts Rockefeller Center,40.760125,-73.980499,10020
521,6 Avenue,47-50th Sts Rockefeller Center,40.759301,-73.980594,10111
522,6 Avenue,47-50th Sts Rockefeller Center,40.759414,-73.98103499999999,10020
523,6 Avenue,47-50th Sts Rockefeller Center,40.758996,-73.980788,10020
524,6 Avenue,42nd St,40.754849,-73.984627,10018
525,6 Avenue,42nd St,40.754609,-73.98389399999999,10036
526,6 Avenue,34th St,40.749615000000006,-73.988159,10001
527,6 Avenue,34th St,40.749845,-73.988254,10001
528,6 Avenue,34th St,40.750088,-73.98814200000001,10001
529,6 Avenue,23rd St,40.742659,-73.992489,10010
530,6 Avenue,23rd St,40.742715000000004,-73.99261700000001,
531,6 Avenue,23rd St,40.74288,-73.992506,10010
532,6 Avenue,23rd St,40.742825,-73.99238299999999,10010
533,6 Avenue,14th St,40.737423,-73.99722,10011
534,6 Avenue,14th St,40.737572,-73.997111,10011
535,6 Avenue,14th St,40.737519,-73.99696999999999,10011
536,6 Avenue,14th St,40.73737,-73.997079,10011
537,6 Avenue,Broadway-Lafayette St,40.725202,-73.996583,10012
538,6 Avenue,Broadway-Lafayette St,40.725499,-73.996387,10012
539,6 Avenue,Grand St,40.718154999999996,-73.993452,10002
540,6 Avenue,Grand St,40.718191,-73.993577,10002
541,6 Avenue,Grand St,40.718265,-73.993877,10002
542,6 Avenue,2nd Av,40.722807,-73.98894200000001,10002
>>>>>>> 0926605a035426e9993d06469d3abb162d099394
543,6 Avenue,2nd Av,40.7232,-73.988863,10003
544,6 Avenue,Delancey St,40.718781,-73.988233,10002
545,6 Avenue,Delancey St,40.718778,-73.987961,10002
546,6 Avenue,East Broadway,40.712727,-73.990126,10002
547,6 Avenue,York St,40.70138,-73.986655,11201
548,6 Avenue,Bergen St,40.686584,-73.990362,11201
<<<<<<< HEAD
549,6 Avenue,Bergen St,40.686727,-73.990269,11201
550,6 Avenue,Carroll St,40.679299,-73.995698,11231
551,6 Avenue,Carroll St,40.679344,-73.995288,11231
552,6 Avenue,Smith-9th St,40.674725,-73.997505,11231
553,6 Avenue,4th Av,40.669953,-73.989442,11215
554,6 Avenue,4th Av,40.67001,-73.989248,11215
555,6 Avenue,7th Av,40.665835,-73.979007,11215
556,6 Avenue,7th Av,40.665494,-73.979278,11215
557,6 Avenue,7th Av,40.665593,-73.979509,11215
558,6 Avenue,7th Av,40.665993,-73.979181,11215
559,6 Avenue,7th Av,40.666649,-73.981624,11215
560,6 Avenue,7th Av,40.667004,-73.981331,11215
=======
549,6 Avenue,Bergen St,40.686727000000005,-73.990269,11201
550,6 Avenue,Carroll St,40.679299,-73.995698,11231
551,6 Avenue,Carroll St,40.679344,-73.995288,11231
552,6 Avenue,Smith-9th St,40.674725,-73.997505,11231
553,6 Avenue,4th Av,40.669953,-73.98944200000001,11215
554,6 Avenue,4th Av,40.67001,-73.989248,11215
555,6 Avenue,7th Av,40.665834999999994,-73.979007,11215
556,6 Avenue,7th Av,40.665494,-73.97927800000001,11215
557,6 Avenue,7th Av,40.665593,-73.979509,11215
558,6 Avenue,7th Av,40.665993,-73.97918100000001,11215
559,6 Avenue,7th Av,40.666649,-73.981624,11215
560,6 Avenue,7th Av,40.667004,-73.98133100000001,11215
>>>>>>> 0926605a035426e9993d06469d3abb162d099394
561,6 Avenue,7th Av,40.666751,-73.981851,11215
562,6 Avenue,7th Av,40.667112,-73.981716,11215
563,6 Avenue,Prospect Park-15 St,40.659436,-73.979951,11215
564,6 Avenue,Prospect Park-15 St,40.660198,-73.979787,11215
565,6 Avenue,Fort Hamilton Parkway,40.651834,-73.976076,11218
566,6 Avenue,Fort Hamilton Parkway,40.651608,-73.975596,11218
<<<<<<< HEAD
567,6 Avenue,Fort Hamilton Parkway,40.652665,-73.975901,11218
568,6 Avenue,Church Av,40.642571,-73.979579,11218
569,6 Avenue,Church Av,40.642692,-73.97926,11218
570,6 Avenue,Church Av,40.643147,-73.979342,11218
571,6 Avenue,Church Av,40.643006,-73.97966,11218
572,Culver,Ditmas Av,40.635434,-73.978289,11218
=======
567,6 Avenue,Fort Hamilton Parkway,40.652665,-73.97590100000001,11218
568,6 Avenue,Church Av,40.642571000000004,-73.979579,11218
569,6 Avenue,Church Av,40.642692,-73.97926,11218
570,6 Avenue,Church Av,40.643147,-73.979342,11218
571,6 Avenue,Church Av,40.643006,-73.97966,11218
572,Culver,Ditmas Av,40.635434000000004,-73.978289,11218
>>>>>>> 0926605a035426e9993d06469d3abb162d099394
573,Culver,Ditmas Av,40.635389,-73.977914,11218
574,Culver,18th Av,40.630531,-73.977251,11230
575,Culver,18th Av,40.630562,-73.976995,11218
576,Culver,Av I,40.626133,-73.976407,11204
577,Culver,Av I,40.626163,-73.976177,11230
<<<<<<< HEAD
578,Culver,Bay Parkway-22nd Av,40.620797,-73.975479,11230
579,Culver,Bay Parkway-22nd Av,40.620825,-73.975138,11230
580,Culver,Bay Parkway-22nd Av,40.621162,-73.975467,11230
581,Culver,Av N,40.614279,-73.97418,11230
582,Culver,Av N,40.614304,-73.97391,11230
583,Culver,Av P,40.608615,-73.973097,11223
584,Culver,Av P,40.609041,-73.972904,11223
585,Culver,Kings Highway,40.604007,-73.972393,11223
586,Culver,Kings Highway,40.603999,-73.972124,11223
587,Culver,Av U,40.596701,-73.973402,11223
588,Culver,Av U,40.596897,-73.973137,11223
589,Culver,Av X,40.590521,-73.974242,11223
590,Culver,Av X,40.590266,-73.974051,11223
591,Culver,Neptune Av-Van Siclen,40.580576,-73.974443,11224
592,Culver,Neptune Av-Van Siclen,40.580547,-73.974778,11224
593,Queens Boulevard,Jamaica-179th St,40.712581,-73.783377,11432
594,Queens Boulevard,Jamaica-179th St,40.712865,-73.782418,11432
595,Queens Boulevard,Jamaica-179th St,40.713207,-73.782119,11432
=======
578,Culver,Bay Parkway-22nd Av,40.620796999999996,-73.975479,11230
579,Culver,Bay Parkway-22nd Av,40.620825,-73.975138,11230
580,Culver,Bay Parkway-22nd Av,40.621162,-73.97546700000001,11230
581,Culver,Av N,40.614278999999996,-73.97418,11230
582,Culver,Av N,40.614304,-73.97391,11230
583,Culver,Av P,40.608615,-73.973097,11223
584,Culver,Av P,40.609041,-73.972904,11223
585,Culver,Kings Highway,40.604007,-73.97239300000001,11223
586,Culver,Kings Highway,40.603999,-73.972124,11223
587,Culver,Av U,40.596701,-73.97340200000001,11223
588,Culver,Av U,40.596897,-73.973137,11223
589,Culver,Av X,40.590521,-73.974242,11223
590,Culver,Av X,40.590266,-73.974051,11223
591,Culver,Neptune Av-Van Siclen,40.580576,-73.97444300000001,11224
592,Culver,Neptune Av-Van Siclen,40.580546999999996,-73.974778,11224
593,Queens Boulevard,Jamaica-179th St,40.712581,-73.783377,11432
594,Queens Boulevard,Jamaica-179th St,40.712865,-73.782418,11432
595,Queens Boulevard,Jamaica-179th St,40.713207000000004,-73.782119,11432
>>>>>>> 0926605a035426e9993d06469d3abb162d099394
596,Queens Boulevard,Jamaica-179th St,40.712723,-73.782637,11432
597,Queens Boulevard,Jamaica-179th St,40.713113,-73.782624,11432
598,Queens Boulevard,Jamaica-179th St,40.712723,-73.783035,11432
599,Queens Boulevard,Jamaica-179th St,40.71294,-73.783179,11432
600,Queens Boulevard,Jamaica-179th St,40.712669,-73.783274,11432
601,Queens Boulevard,Jamaica-179th St,40.712892,-73.783363,11432
602,Queens Boulevard,Jamaica-179th St,40.712548,-73.783427,11432
<<<<<<< HEAD
603,Queens Boulevard,169th St,40.710563,-73.792853,11432
604,Queens Boulevard,169th St,40.710968,-73.792761,11432
605,Queens Boulevard,169th St,40.710495,-73.793022,11432
606,Queens Boulevard,169th St,40.71083,-73.793248,11432
=======
603,Queens Boulevard,169th St,40.710563,-73.79285300000001,11432
604,Queens Boulevard,169th St,40.710968,-73.792761,11432
605,Queens Boulevard,169th St,40.710495,-73.793022,11432
606,Queens Boulevard,169th St,40.71083,-73.79324799999999,11432
>>>>>>> 0926605a035426e9993d06469d3abb162d099394
607,Queens Boulevard,Parsons Blvd,40.707473,-73.802797,11432
608,Queens Boulevard,Parsons Blvd,40.707873,-73.802999,11432
609,Queens Boulevard,Parsons Blvd,40.707563,-73.802611,11432
610,Queens Boulevard,Sutphin Blvd,40.705591,-73.809481,11435
611,Queens Boulevard,Sutphin Blvd,40.705945,-73.809489,11435
612,Queens Boulevard,Sutphin Blvd,40.705538,-73.809717,11435
613,Queens Boulevard,Briarwood-Van Wyck Blvd,40.708068,-73.820111,11435
<<<<<<< HEAD
614,Queens Boulevard,Briarwood-Van Wyck Blvd,40.709316,-73.819773,11435
615,Queens Boulevard,Briarwood-Van Wyck Blvd,40.709681,-73.819601,11435
616,Queens Boulevard,Kew Gardens-Union Turnpike,40.714001,-73.831166,11415
617,Queens Boulevard,Kew Gardens-Union Turnpike,40.713663,-73.830011,11415
618,Queens Boulevard,Kew Gardens-Union Turnpike,40.714073,-73.829917,
619,Queens Boulevard,Kew Gardens-Union Turnpike,40.713967,-73.831303,11415
620,Queens Boulevard,75th Av,40.717895,-73.836743,11375
621,Queens Boulevard,75th Av,40.719061,-73.837916,11375
622,Queens Boulevard,75th Av,40.718574,-73.838257,11375
623,Queens Boulevard,Forest Hills-71st Av,40.7211,-73.844039,11375
624,Queens Boulevard,Forest Hills-71st Av,40.72149,-73.843389,11375
625,Queens Boulevard,67th Av,40.726598,-73.853534,11375
626,Queens Boulevard,67th Av,40.727073,-73.853226,11375
627,Queens Boulevard,63rd Drive-Rego Park,40.729953,-73.862699,11374
628,Queens Boulevard,63rd Drive-Rego Park,40.729265,-73.860814,11374
629,Queens Boulevard,Woodhaven Blvd,40.733041,-73.870334,11373
630,Queens Boulevard,Woodhaven Blvd,40.733354,-73.870983,11373
631,Queens Boulevard,Woodhaven Blvd,40.733555,-73.869588,11373
632,Queens Boulevard,Grand Av-Newtown,40.735888,-73.876886,11373
633,Queens Boulevard,Grand Av-Newtown,40.736277,-73.876424,11373
634,Queens Boulevard,Grand Av-Newtown,40.736075,-73.877167,11373
635,Queens Boulevard,Grand Av-Newtown,40.737354,-73.877191,11373
636,Queens Boulevard,Grand Av-Newtown,40.737477,-73.877424,11373
637,Queens Boulevard,Elmhurst Av,40.741729,-73.881135,11373
638,Queens Boulevard,Elmhurst Av,40.742066,-73.881039,11373
639,Queens Boulevard,Elmhurst Av,40.741861,-73.881457,11373
640,Queens Boulevard,Elmhurst Av,40.742937,-73.882708,11373
641,Queens Boulevard,Elmhurst Av,40.742791,-73.883025,11373
642,Queens Boulevard,Jackson Heights-Roosevelt Ave,40.746784,-73.890958,11372
643,Queens Boulevard,Jackson Heights-Roosevelt Ave,40.746597,-73.890955,11372
644,Queens Boulevard,65th St,40.749145,-73.897495,11377
645,Queens Boulevard,65th St,40.74933,-73.897382,11377
646,Queens Boulevard,Northern Blvd,40.753086,-73.907119,11377
647,Queens Boulevard,46th St,40.756868,-73.914303,11103
648,Queens Boulevard,Steinway St,40.758143,-73.919842,11103
649,Queens Boulevard,Steinway St,40.758279,-73.919433,11103
650,Queens Boulevard,36th St,40.752232,-73.928775,11101
651,Queens Boulevard,36th St,40.752198,-73.929263,11101
652,Queens Boulevard,Queens Plaza,40.748705,-73.938471,11101
=======
614,Queens Boulevard,Briarwood-Van Wyck Blvd,40.709315999999994,-73.819773,11435
615,Queens Boulevard,Briarwood-Van Wyck Blvd,40.709680999999996,-73.819601,11435
616,Queens Boulevard,Kew Gardens-Union Turnpike,40.714001,-73.83116600000001,11415
617,Queens Boulevard,Kew Gardens-Union Turnpike,40.713663000000004,-73.830011,11415
618,Queens Boulevard,Kew Gardens-Union Turnpike,40.714073,-73.82991700000001,
619,Queens Boulevard,Kew Gardens-Union Turnpike,40.713967,-73.831303,11415
620,Queens Boulevard,75th Av,40.717895,-73.836743,11375
621,Queens Boulevard,75th Av,40.719060999999996,-73.837916,11375
622,Queens Boulevard,75th Av,40.718574,-73.838257,11375
623,Queens Boulevard,Forest Hills-71st Av,40.7211,-73.844039,11375
624,Queens Boulevard,Forest Hills-71st Av,40.72149,-73.843389,11375
625,Queens Boulevard,67th Av,40.726597999999996,-73.853534,11375
626,Queens Boulevard,67th Av,40.727073,-73.853226,11375
627,Queens Boulevard,63rd Drive-Rego Park,40.729953,-73.86269899999999,11374
628,Queens Boulevard,63rd Drive-Rego Park,40.729265000000005,-73.860814,11374
629,Queens Boulevard,Woodhaven Blvd,40.733041,-73.870334,11373
630,Queens Boulevard,Woodhaven Blvd,40.733354,-73.870983,11373
631,Queens Boulevard,Woodhaven Blvd,40.733554999999996,-73.86958800000001,11373
632,Queens Boulevard,Grand Av-Newtown,40.735888,-73.876886,11373
633,Queens Boulevard,Grand Av-Newtown,40.736277,-73.876424,11373
634,Queens Boulevard,Grand Av-Newtown,40.736075,-73.877167,11373
635,Queens Boulevard,Grand Av-Newtown,40.737353999999996,-73.877191,11373
636,Queens Boulevard,Grand Av-Newtown,40.737477,-73.877424,11373
637,Queens Boulevard,Elmhurst Av,40.741729,-73.881135,11373
638,Queens Boulevard,Elmhurst Av,40.742065999999994,-73.881039,11373
639,Queens Boulevard,Elmhurst Av,40.741861,-73.881457,11373
640,Queens Boulevard,Elmhurst Av,40.742937,-73.882708,11373
641,Queens Boulevard,Elmhurst Av,40.742791,-73.883025,11373
642,Queens Boulevard,Jackson Heights-Roosevelt Ave,40.746784000000005,-73.890958,11372
643,Queens Boulevard,Jackson Heights-Roosevelt Ave,40.746596999999994,-73.890955,11372
644,Queens Boulevard,65th St,40.749145,-73.89749499999999,11377
645,Queens Boulevard,65th St,40.74933,-73.897382,11377
646,Queens Boulevard,Northern Blvd,40.753085999999996,-73.907119,11377
647,Queens Boulevard,46th St,40.756868,-73.914303,11103
648,Queens Boulevard,Steinway St,40.758143,-73.919842,11103
649,Queens Boulevard,Steinway St,40.758278999999995,-73.919433,11103
650,Queens Boulevard,36th St,40.752232,-73.928775,11101
651,Queens Boulevard,36th St,40.752198,-73.929263,11101
652,Queens Boulevard,Queens Plaza,40.748705,-73.93847099999999,11101
>>>>>>> 0926605a035426e9993d06469d3abb162d099394
653,Queens Boulevard,Queens Plaza,40.749086,-73.937896,11101
654,Queens Boulevard,Queens Plaza,40.748697,-73.937364,11101
655,Queens Boulevard,Queens Plaza,40.748807,-73.937057,11101
656,Queens Boulevard,Queens Plaza,40.748466,-73.938244,11101
657,Queens Boulevard,23rd St-Ely Av,40.747371,-73.944287,11101
<<<<<<< HEAD
658,Queens Boulevard,23rd St-Ely Av,40.747954,-73.94724,11101
659,Queens Boulevard,23rd St-Ely Av,40.748195,-73.947163,11101
660,Queens Boulevard,Lexington Av-53rd St,40.758329,-73.970567,10022
=======
658,Queens Boulevard,23rd St-Ely Av,40.747954,-73.94724000000001,11101
659,Queens Boulevard,23rd St-Ely Av,40.748195,-73.947163,11101
660,Queens Boulevard,Lexington Av-53rd St,40.758328999999996,-73.970567,10022
>>>>>>> 0926605a035426e9993d06469d3abb162d099394
661,Queens Boulevard,Lexington Av-53rd St,40.75812,-73.970958,10022
662,Queens Boulevard,5th Av-53rd St,40.760422,-73.976146,10019
663,Queens Boulevard,5th Av-53rd St,40.760373,-73.975562,10022
664,Queens Boulevard,5th Av-53rd St,40.760267,-73.975638,10022
665,Queens Boulevard,7th Av,40.762937,-73.981578,10019
666,Queens Boulevard,7th Av,40.762793,-73.98169,10019
667,Archer Av,Parsons Blvd-Archer Av - Jamaica Center,40.702353,-73.799784,11432
668,Archer Av,Parsons Blvd-Archer Av - Jamaica Center,40.701855,-73.80174,11432
<<<<<<< HEAD
669,Archer Av,Parsons Blvd-Archer Av - Jamaica Center,40.702821,-73.799843,11432
=======
669,Archer Av,Parsons Blvd-Archer Av - Jamaica Center,40.702821,-73.79984300000001,11432
>>>>>>> 0926605a035426e9993d06469d3abb162d099394
670,Archer Av,Parsons Blvd-Archer Av - Jamaica Center,40.702311,-73.799991,11432
671,Archer Av,Parsons Blvd-Archer Av - Jamaica Center,40.701886,-73.801754,11432
672,Archer Av,Parsons Blvd-Archer Av - Jamaica Center,40.702674,-73.799786,11432
673,Archer Av,Parsons Blvd-Archer Av - Jamaica Center,40.702324,-73.80001,11432
674,Archer Av,Sutphin Blvd-Archer Av - JFK,40.700401,-73.807976,11435
675,Archer Av,Sutphin Blvd-Archer Av - JFK,40.70081,-73.807923,11435
676,Archer Av,Sutphin Blvd-Archer Av - JFK,40.700554,-73.807353,11435
677,Archer Av,Sutphin Blvd-Archer Av - JFK,40.700872,-73.807673,11435
678,Archer Av,Jamaica-Van Wyck,40.701263,-73.816372,11418
679,Archer Av,Jamaica-Van Wyck,40.702731,-73.81727,11418
<<<<<<< HEAD
680,Archer Av,Jamaica-Van Wyck,40.701241,-73.816577,11418
=======
680,Archer Av,Jamaica-Van Wyck,40.701240999999996,-73.816577,11418
>>>>>>> 0926605a035426e9993d06469d3abb162d099394
681,Crosstown,Long Island City-Court Square,40.746214,-73.945115,11101
682,Crosstown,21st St,40.744625,-73.949117,11101
683,Crosstown,21st St,40.744771,-73.948658,11101
684,Crosstown,21st St,40.744552,-73.948425,11101
<<<<<<< HEAD
685,Crosstown,Greenpoint Av,40.73007,-73.954377,11222
686,Crosstown,Greenpoint Av,40.730122,-73.954049,11222
687,Crosstown,Greenpoint Av,40.730278,-73.954488,11222
688,Crosstown,Nassau Av,40.72365,-73.950929,11222
689,Crosstown,Nassau Av,40.723765,-73.950566,11222
690,Crosstown,Nassau Av,40.72378,-73.950985,11222
691,Crosstown,Nassau Av,40.723894,-73.950665,11222
692,Crosstown,Metropolitan Av,40.71414,-73.95135,11211
693,Crosstown,Metropolitan Av,40.713927,-73.951737,11211
694,Crosstown,Broadway,40.705114,-73.950062,11206
695,Crosstown,Broadway,40.70549,-73.950554,11211
696,Crosstown,Broadway,40.705495,-73.950089,11206
697,Crosstown,Broadway,40.705204,-73.95032,11206
698,Crosstown,Flushing Av,40.699582,-73.950164,11206
699,Crosstown,Myrtle-Willoughby Avs,40.695436,-73.94948,11206
700,Crosstown,Bedford-Nostrand Avs,40.689995,-73.951616,11205
701,Crosstown,Bedford-Nostrand Avs,40.689757,-73.951612,11216
702,Crosstown,Classon Av,40.688942,-73.960215,11238
703,Crosstown,Classon Av,40.688781,-73.959871,11238
704,Crosstown,Classon Av,40.688753,-73.96019,11238
705,Crosstown,Clinton-Washington Avs,40.688114,-73.967575,11205
706,Crosstown,Clinton-Washington Avs,40.688114,-73.967575,11205
707,Crosstown,Clinton-Washington Avs,40.687875,-73.967931,11238
708,Crosstown,Clinton-Washington Avs,40.687875,-73.967931,11238
709,Crosstown,Clinton-Washington Avs,40.68846,-73.965749,11205
710,Crosstown,Clinton-Washington Avs,40.68846,-73.965749,11205
711,Crosstown,Clinton-Washington Avs,40.688157,-73.965579,11205
712,Crosstown,Clinton-Washington Avs,40.688157,-73.965579,11205
713,Crosstown,Fulton St,40.687159,-73.97629,11217
714,Crosstown,Fulton St,40.68716,-73.976865,11217
715,Broadway-7th Ave,Van Cortlandt Park-242nd St,40.889783,-73.898432,10471
716,Broadway-7th Ave,Van Cortlandt Park-242nd St,40.889683,-73.897925,10471
717,Broadway-7th Ave,Van Cortlandt Park-242nd St,40.890136,-73.898257,10471
718,Broadway-7th Ave,Van Cortlandt Park-242nd St,40.889946,-73.897798,10471
719,Broadway-7th Ave,238th St,40.884813,-73.900923,10463
720,Broadway-7th Ave,231st St,40.878775,-73.905024,10463
721,Broadway-7th Ave,231st St,40.879168,-73.904751,10463
722,Broadway-7th Ave,Marble Hill-225th St,40.874437,-73.910529,10034
723,Broadway-7th Ave,215th St,40.869412,-73.915455,10034
724,Broadway-7th Ave,215th St,40.869793,-73.91517,10034
725,Broadway-7th Ave,207th St,40.864745,-73.918864,10034
726,Broadway-7th Ave,207th St,40.864283,-73.919222,10034
727,Broadway-7th Ave,Dyckman St,40.861183,-73.92511,10034
728,Broadway-7th Ave,Dyckman St,40.861187,-73.925078,10034
729,Broadway-7th Ave,191st St,40.855374,-73.929536,10040
730,Broadway-7th Ave,191st St,40.856413,-73.932605,10040
=======
685,Crosstown,Greenpoint Av,40.73007,-73.95437700000001,11222
686,Crosstown,Greenpoint Av,40.730121999999994,-73.954049,11222
687,Crosstown,Greenpoint Av,40.730278000000006,-73.954488,11222
688,Crosstown,Nassau Av,40.72365,-73.950929,11222
689,Crosstown,Nassau Av,40.723765,-73.95056600000001,11222
690,Crosstown,Nassau Av,40.72378,-73.950985,11222
691,Crosstown,Nassau Av,40.723894,-73.950665,11222
692,Crosstown,Metropolitan Av,40.71414,-73.95135,11211
693,Crosstown,Metropolitan Av,40.713927000000005,-73.951737,11211
694,Crosstown,Broadway,40.705114,-73.950062,11206
695,Crosstown,Broadway,40.705490000000005,-73.950554,11211
696,Crosstown,Broadway,40.705495,-73.950089,11206
697,Crosstown,Broadway,40.705203999999995,-73.95031999999999,11206
698,Crosstown,Flushing Av,40.699582,-73.950164,11206
699,Crosstown,Myrtle-Willoughby Avs,40.695436,-73.94948000000001,11206
700,Crosstown,Bedford-Nostrand Avs,40.689995,-73.951616,11205
701,Crosstown,Bedford-Nostrand Avs,40.689757,-73.951612,11216
702,Crosstown,Classon Av,40.688942,-73.960215,11238
703,Crosstown,Classon Av,40.688781,-73.95987099999999,11238
704,Crosstown,Classon Av,40.688753000000005,-73.96019,11238
705,Crosstown,Clinton-Washington Avs,40.688114,-73.967575,11205
706,Crosstown,Clinton-Washington Avs,40.688114,-73.967575,11205
707,Crosstown,Clinton-Washington Avs,40.687875,-73.96793100000001,11238
708,Crosstown,Clinton-Washington Avs,40.687875,-73.96793100000001,11238
709,Crosstown,Clinton-Washington Avs,40.68846,-73.965749,11205
710,Crosstown,Clinton-Washington Avs,40.68846,-73.965749,11205
711,Crosstown,Clinton-Washington Avs,40.688157000000004,-73.965579,11205
712,Crosstown,Clinton-Washington Avs,40.688157000000004,-73.965579,11205
713,Crosstown,Fulton St,40.687159,-73.97629,11217
714,Crosstown,Fulton St,40.68716,-73.976865,11217
715,Broadway-7th Ave,Van Cortlandt Park-242nd St,40.889783,-73.898432,10471
716,Broadway-7th Ave,Van Cortlandt Park-242nd St,40.889683000000005,-73.897925,10471
717,Broadway-7th Ave,Van Cortlandt Park-242nd St,40.890136,-73.898257,10471
718,Broadway-7th Ave,Van Cortlandt Park-242nd St,40.889946,-73.897798,10471
719,Broadway-7th Ave,238th St,40.884813,-73.90092299999999,10463
720,Broadway-7th Ave,231st St,40.878775,-73.905024,10463
721,Broadway-7th Ave,231st St,40.879168,-73.904751,10463
722,Broadway-7th Ave,Marble Hill-225th St,40.874437,-73.910529,10034
723,Broadway-7th Ave,215th St,40.869412,-73.91545500000001,10034
724,Broadway-7th Ave,215th St,40.869793,-73.91516999999999,10034
725,Broadway-7th Ave,207th St,40.864745,-73.918864,10034
726,Broadway-7th Ave,207th St,40.864283,-73.91922199999999,10034
727,Broadway-7th Ave,Dyckman St,40.861183000000004,-73.92511,10034
728,Broadway-7th Ave,Dyckman St,40.861187,-73.925078,10034
729,Broadway-7th Ave,191st St,40.855374,-73.929536,10040
730,Broadway-7th Ave,191st St,40.856413,-73.93260500000001,10040
>>>>>>> 0926605a035426e9993d06469d3abb162d099394
731,Broadway-7th Ave,181st St,40.849435,-73.933428,10033
732,Broadway-7th Ave,181st St,40.849098,-73.933747,10033
733,Broadway-7th Ave,157th St,40.834268,-73.945183,10032
734,Broadway-7th Ave,157th St,40.834221,-73.945073,10032
735,Broadway-7th Ave,145th St,40.826657,-73.95052,10031
736,Broadway-7th Ave,137th St-City College,40.821584,-73.954223,10031
737,Broadway-7th Ave,137th St-City College,40.821348,-73.954408,10031
738,Broadway-7th Ave,125th St,40.815143,-73.958439,10027
739,Broadway-7th Ave,125th St,40.815688,-73.958554,10027
<<<<<<< HEAD
740,Broadway-7th Ave,125th St,40.815307,-73.958826,10027
741,Broadway-7th Ave,125th St,40.81523,-73.958366,10027
742,Broadway-7th Ave,116th St-Columbia University,40.808251,-73.963955,10027
743,Broadway-7th Ave,116th St-Columbia University,40.808099,-73.963603,10027
744,Broadway-7th Ave,116th St-Columbia University,40.8084,-73.963845,10027
745,Broadway-7th Ave,116th St-Columbia University,40.808245,-73.963495,10027
746,Broadway-7th Ave,Cathedral Parkway-110th St,40.80439,-73.966786,10025
747,Broadway-7th Ave,103rd St,40.799282,-73.968679,10025
748,Broadway-7th Ave,103rd St,40.799142,-73.968314,10025
749,Broadway-7th Ave,103rd St,40.79941,-73.968612,10025
750,Broadway-7th Ave,103rd St,40.799223,-73.968271,10025
751,Broadway-7th Ave,86th St,40.788349,-73.976935,10024
752,Broadway-7th Ave,86th St,40.788515,-73.976718,10024
753,Broadway-7th Ave,79th St,40.784066,-73.980051,10024
754,Broadway-7th Ave,79th St,40.783765,-73.980274,10024
755,Broadway-7th Ave,72nd St,40.779146,-73.981822,10023
=======
740,Broadway-7th Ave,125th St,40.815307000000004,-73.958826,10027
741,Broadway-7th Ave,125th St,40.81523,-73.958366,10027
742,Broadway-7th Ave,116th St-Columbia University,40.808251,-73.963955,10027
743,Broadway-7th Ave,116th St-Columbia University,40.808099,-73.963603,10027
744,Broadway-7th Ave,116th St-Columbia University,40.8084,-73.96384499999999,10027
745,Broadway-7th Ave,116th St-Columbia University,40.808245,-73.963495,10027
746,Broadway-7th Ave,Cathedral Parkway-110th St,40.804390000000005,-73.966786,10025
747,Broadway-7th Ave,103rd St,40.799282,-73.96867900000001,10025
748,Broadway-7th Ave,103rd St,40.799141999999996,-73.968314,10025
749,Broadway-7th Ave,103rd St,40.799409999999995,-73.968612,10025
750,Broadway-7th Ave,103rd St,40.799223,-73.968271,10025
751,Broadway-7th Ave,86th St,40.788349,-73.976935,10024
752,Broadway-7th Ave,86th St,40.788515000000004,-73.976718,10024
753,Broadway-7th Ave,79th St,40.784065999999996,-73.980051,10024
754,Broadway-7th Ave,79th St,40.783765,-73.980274,10024
755,Broadway-7th Ave,72nd St,40.779146000000004,-73.981822,10023
>>>>>>> 0926605a035426e9993d06469d3abb162d099394
756,Broadway-7th Ave,72nd St,40.778875,-73.981877,10023
757,Broadway-7th Ave,66th St-Lincoln Center,40.773738,-73.982448,10023
758,Broadway-7th Ave,66th St-Lincoln Center,40.773829,-73.982433,10023
759,Broadway-7th Ave,66th St-Lincoln Center,40.773576,-73.982425,10023
760,Broadway-7th Ave,50th St,40.761111,-73.983436,10019
761,Broadway-7th Ave,50th St,40.761282,-73.983853,10019
762,Broadway-7th Ave,50th St,40.761212,-73.983357,10019
<<<<<<< HEAD
763,Broadway-7th Ave,50th St,40.761367,-73.983782,10019
764,Broadway-7th Ave,Times Square,40.756241,-73.987133,10036
765,Broadway-7th Ave,Times Square,40.756042,-73.987242,10036
766,Broadway-7th Ave,34th St,40.751046,-73.991271,10119
767,Broadway-7th Ave,23rd St,40.74391,-73.995608,10011
768,Broadway-7th Ave,23rd St,40.74412,-73.995348,10011
769,Broadway-7th Ave,18th St,40.74092,-73.997698,10011
770,Broadway-7th Ave,18th St,40.741015,-73.99758,10011
771,Broadway-7th Ave,14th St,40.738484,-73.999914,10011
772,Broadway-7th Ave,14th St,40.738775,-73.999711,10011
773,Broadway-7th Ave,14th St,40.738585,-73.999405,10011
774,Broadway-7th Ave,Christopher St,40.733402,-74.002748,10014
775,Broadway-7th Ave,Houston St,40.728472,-74.005188,10014
776,Broadway-7th Ave,Houston St,40.728656,-74.005086,10014
777,Broadway-7th Ave,Canal St,40.722569,-74.00608,10013
778,Broadway-7th Ave,Canal St,40.722497,-74.005994,10013
779,Broadway-7th Ave,Franklin St,40.719001,-74.006675,10013
780,Broadway-7th Ave,Chambers St,40.715444,-74.009453,10007
781,Broadway-7th Ave,Chambers St,40.715349,-74.009211,10007
782,Broadway-7th Ave,Chambers St,40.715736,-74.009328,10013
783,Broadway-7th Ave,Chambers St,40.715576,-74.009031,10007
784,Broadway-7th Ave,Chambers St,40.715539,-74.009427,10013
785,Broadway-7th Ave,Rector St,40.708107,-74.013445,10006
786,Clark,Park Place,40.712712,-74.007766,10007
787,Clark,Fulton St,40.709475,-74.006409,10038
788,Clark,Wall St,40.706506,-74.009544,10005
789,Clark,Wall St,40.706392,-74.009332,10038
790,Clark,Clark St,40.69759,-73.993275,11201
791,Clark,Clark St,40.697649,-73.99306,11201
792,Clark,Borough Hall,40.693594,-73.990304,11201
793,Clark,Borough Hall,40.693838,-73.990119,11201
794,Clark,Borough Hall,40.693569,-73.990599,11201
795,Clark,Borough Hall,40.693728,-73.99063,11241
796,Eastern Parkway,Hoyt St,40.690388,-73.985299,11201
797,Eastern Parkway,Nevins St,40.688235,-73.980639,11217
798,Eastern Parkway,Nevins St,40.688053,-73.980506,11217
799,Eastern Parkway,Atlantic Av-Barclays Ctr,40.684976,-73.97788,11217
800,Eastern Parkway,Bergen St,40.680695,-73.974748,11217
=======
763,Broadway-7th Ave,50th St,40.761367,-73.98378199999999,10019
764,Broadway-7th Ave,Times Square,40.756240999999996,-73.987133,10036
765,Broadway-7th Ave,Times Square,40.756042,-73.98724200000001,10036
766,Broadway-7th Ave,34th St,40.751046,-73.991271,10119
767,Broadway-7th Ave,23rd St,40.74391,-73.99560799999999,10011
768,Broadway-7th Ave,23rd St,40.74412,-73.99534799999999,10011
769,Broadway-7th Ave,18th St,40.74092,-73.997698,10011
770,Broadway-7th Ave,18th St,40.741015000000004,-73.99758,10011
771,Broadway-7th Ave,14th St,40.738484,-73.999914,10011
772,Broadway-7th Ave,14th St,40.738775,-73.999711,10011
773,Broadway-7th Ave,14th St,40.738585,-73.99940500000001,10011
774,Broadway-7th Ave,Christopher St,40.733402000000005,-74.002748,10014
775,Broadway-7th Ave,Houston St,40.728472,-74.005188,10014
776,Broadway-7th Ave,Houston St,40.728656,-74.005086,10014
777,Broadway-7th Ave,Canal St,40.722569,-74.00608000000001,10013
778,Broadway-7th Ave,Canal St,40.722497,-74.005994,10013
779,Broadway-7th Ave,Franklin St,40.719001,-74.006675,10013
780,Broadway-7th Ave,Chambers St,40.715444,-74.00945300000001,10007
781,Broadway-7th Ave,Chambers St,40.715348999999996,-74.009211,10007
782,Broadway-7th Ave,Chambers St,40.715736,-74.009328,10013
783,Broadway-7th Ave,Chambers St,40.715576,-74.00903100000001,10007
784,Broadway-7th Ave,Chambers St,40.715539,-74.009427,10013
785,Broadway-7th Ave,Rector St,40.708107,-74.01344499999999,10006
786,Clark,Park Place,40.712711999999996,-74.007766,10007
787,Clark,Fulton St,40.709475,-74.00640899999999,10038
788,Clark,Wall St,40.706506,-74.00954399999999,10005
789,Clark,Wall St,40.706392,-74.009332,10038
790,Clark,Clark St,40.697590000000005,-73.993275,11201
791,Clark,Clark St,40.697649,-73.99306,11201
792,Clark,Borough Hall,40.693594,-73.99030400000001,11201
793,Clark,Borough Hall,40.693838,-73.99011899999999,11201
794,Clark,Borough Hall,40.693569000000004,-73.990599,11201
795,Clark,Borough Hall,40.693728,-73.99063000000001,11241
796,Eastern Parkway,Hoyt St,40.690388,-73.985299,11201
797,Eastern Parkway,Nevins St,40.688235,-73.980639,11217
798,Eastern Parkway,Nevins St,40.688053000000004,-73.980506,11217
799,Eastern Parkway,Atlantic Av-Barclays Ctr,40.684976,-73.97788,11217
800,Eastern Parkway,Bergen St,40.680695,-73.97474799999999,11217
>>>>>>> 0926605a035426e9993d06469d3abb162d099394
801,Eastern Parkway,Bergen St,40.680911,-73.97496,11217
802,Eastern Parkway,Grand Army Plaza,40.67495,-73.97099,11238
803,Eastern Parkway,Grand Army Plaza,40.67511,-73.970822,11238
804,Eastern Parkway,Grand Army Plaza,40.675142,-73.971216,11217
805,Eastern Parkway,Grand Army Plaza,40.675286,-73.970825,11238
<<<<<<< HEAD
806,Eastern Parkway,Eastern Parkway-Brooklyn Museum,40.672122,-73.964154,11238
807,Eastern Parkway,Eastern Parkway-Brooklyn Museum,40.671789,-73.964301,11238
808,Eastern Parkway,Franklin Av,40.670485,-73.957806,11225
809,Eastern Parkway,Franklin Av,40.670732,-73.957696,11225
810,Eastern Parkway,Franklin Av,40.670337,-73.957973,11225
811,Eastern Parkway,Franklin Av,40.670922,-73.957764,11216
812,Eastern Parkway,Nostrand Av,40.669711,-73.950247,11225
813,Eastern Parkway,Nostrand Av,40.669741,-73.950798,11225
=======
806,Eastern Parkway,Eastern Parkway-Brooklyn Museum,40.672121999999995,-73.96415400000001,11238
807,Eastern Parkway,Eastern Parkway-Brooklyn Museum,40.671789000000004,-73.964301,11238
808,Eastern Parkway,Franklin Av,40.670485,-73.957806,11225
809,Eastern Parkway,Franklin Av,40.670732,-73.957696,11225
810,Eastern Parkway,Franklin Av,40.670336999999996,-73.957973,11225
811,Eastern Parkway,Franklin Av,40.670922,-73.957764,11216
812,Eastern Parkway,Nostrand Av,40.669711,-73.95024699999999,11225
813,Eastern Parkway,Nostrand Av,40.669740999999995,-73.95079799999999,11225
>>>>>>> 0926605a035426e9993d06469d3abb162d099394
814,Eastern Parkway,Kingston Av,40.669261,-73.941948,11213
815,Eastern Parkway,Kingston Av,40.669289,-73.942463,11213
816,Eastern Parkway,Utica Av,40.668935,-73.931831,11213
817,Eastern Parkway,Utica Av,40.6687,-73.931702,11213
818,Eastern Parkway,Utica Av,40.66896,-73.931675,11213
819,Eastern Parkway,Utica Av,40.668708,-73.931883,11213
820,Eastern Parkway,Utica Av,40.668969,-73.931874,11213
821,New Lots,Sutter Av,40.664891,-73.922675,11212
822,New Lots,Sutter Av,40.664887,-73.923109,
<<<<<<< HEAD
823,New Lots,Sutter Av,40.66516,-73.92297,11212
824,New Lots,Saratoga Av,40.661558,-73.915225,11212
825,New Lots,Saratoga Av,40.661689,-73.91524,11212
826,New Lots,Saratoga Av,40.661401,-73.915543,11212
827,New Lots,Rockaway Av,40.662401,-73.908809,11212
828,New Lots,Rockaway Av,40.662703,-73.909033,11224
829,New Lots,Junius St,40.663426,-73.902636,11212
830,New Lots,Junius St,40.663361,-73.903063,11212
831,New Lots,Pennsylvania Av,40.664869,-73.893779,11207
832,New Lots,Pennsylvania Av,40.664575,-73.894117,11207
833,New Lots,Van Siclen Av,40.665431,-73.888386,11207
834,New Lots,Van Siclen Av,40.66574,-73.888613,11207
835,New Lots,New Lots Av,40.666285,-73.883276,11207
836,New Lots,New Lots Av,40.666413,-73.883307,11207
=======
823,New Lots,Sutter Av,40.66516,-73.92296999999999,11212
824,New Lots,Saratoga Av,40.661558,-73.915225,11212
825,New Lots,Saratoga Av,40.661689,-73.91524,11212
826,New Lots,Saratoga Av,40.661401,-73.915543,11212
827,New Lots,Rockaway Av,40.662401,-73.90880899999999,11212
828,New Lots,Rockaway Av,40.662703,-73.909033,11224
829,New Lots,Junius St,40.663426,-73.902636,11212
830,New Lots,Junius St,40.663361,-73.903063,11212
831,New Lots,Pennsylvania Av,40.664869,-73.89377900000001,11207
832,New Lots,Pennsylvania Av,40.664575,-73.89411700000001,11207
833,New Lots,Van Siclen Av,40.665431,-73.888386,11207
834,New Lots,Van Siclen Av,40.66574,-73.888613,11207
835,New Lots,New Lots Av,40.666284999999995,-73.883276,11207
836,New Lots,New Lots Av,40.666413,-73.88330699999999,11207
>>>>>>> 0926605a035426e9993d06469d3abb162d099394
837,Nostrand,President St,40.668166,-73.950862,11225
838,Nostrand,President St,40.668145,-73.950458,11225
839,Nostrand,Sterling St,40.66329,-73.951044,11225
840,Nostrand,Sterling St,40.663226,-73.95067,11225
841,Nostrand,Winthrop St,40.657184,-73.949976,11225
842,Nostrand,Church Av,40.650748,-73.949384,11226
<<<<<<< HEAD
843,Nostrand,Church Av,40.65064,-73.949429,11226
844,Nostrand,Church Av,40.65091,-73.949416,11226
=======
843,Nostrand,Church Av,40.65064,-73.94942900000001,11226
844,Nostrand,Church Av,40.650909999999996,-73.949416,11226
>>>>>>> 0926605a035426e9993d06469d3abb162d099394
845,Nostrand,Beverly Rd,40.645046,-73.948684,11226
846,Nostrand,Newkirk Av,40.639924,-73.948161,11226
847,Nostrand,Flatbush Av-Brooklyn College,40.632463,-73.947518,11210
848,Nostrand,Flatbush Av-Brooklyn College,40.632359,-73.947389,11210
849,Nostrand,Flatbush Av-Brooklyn College,40.632324,-73.947482,11210
850,Nostrand,Flatbush Av-Brooklyn College,40.63275,-73.947375,11210
851,Nostrand,Flatbush Av-Brooklyn College,40.632868,-73.947547,11210
<<<<<<< HEAD
852,Pelham,Pelham Bay Park,40.852377,-73.825986,10465
853,Pelham,Pelham Bay Park,40.852803,-73.827195,10461
854,Pelham,Pelham Bay Park,40.853041,-73.826991,10461
855,Pelham,Pelham Bay Park,40.853012,-73.827172,10461
856,Pelham,Pelham Bay Park,40.852824,-73.827035,10461
857,Pelham,Buhre Av,40.846891,-73.832639,10461
858,Pelham,Buhre Av,40.846795,-73.832405,10461
859,Pelham,Buhre Av,40.847185,-73.832264,10461
860,Pelham,Middletown Rd,40.843935,-73.836386,10461
=======
852,Pelham,Pelham Bay Park,40.852377000000004,-73.825986,10465
853,Pelham,Pelham Bay Park,40.852803,-73.82719499999999,10461
854,Pelham,Pelham Bay Park,40.853041,-73.826991,10461
855,Pelham,Pelham Bay Park,40.853012,-73.82717199999999,10461
856,Pelham,Pelham Bay Park,40.852824,-73.827035,10461
857,Pelham,Buhre Av,40.846891,-73.832639,10461
858,Pelham,Buhre Av,40.846795,-73.83240500000001,10461
859,Pelham,Buhre Av,40.847184999999996,-73.832264,10461
860,Pelham,Middletown Rd,40.843934999999995,-73.836386,10461
>>>>>>> 0926605a035426e9993d06469d3abb162d099394
861,Pelham,Middletown Rd,40.843609,-73.836478,10461
862,Pelham,Westchester Square-East Tremont Av,40.840128,-73.842875,10461
863,Pelham,Zerega Av,40.836954,-73.846653,10461
864,Pelham,Zerega Av,40.836613,-73.846726,10461
<<<<<<< HEAD
865,Pelham,Castle Hill Av,40.834093,-73.851857,10462
866,Pelham,Castle Hill Av,40.834321,-73.85144,10462
867,Pelham,Parkchester-East 177th St,40.833225,-73.860888,10472
868,Pelham,St Lawrence Av,40.831765,-73.867078,10472
869,Pelham,St Lawrence Av,40.831466,-73.86741,10472
870,Pelham,Morrison Av-Soundview Av,40.829517,-73.87486,10472
871,Pelham,Morrison Av-Soundview Av,40.829371,-73.874731,10472
872,Pelham,Morrison Av-Soundview Av,40.829641,-73.874447,10472
=======
865,Pelham,Castle Hill Av,40.834092999999996,-73.851857,10462
866,Pelham,Castle Hill Av,40.834321,-73.85144,10462
867,Pelham,Parkchester-East 177th St,40.833225,-73.860888,10472
868,Pelham,St Lawrence Av,40.831765000000004,-73.867078,10472
869,Pelham,St Lawrence Av,40.831466,-73.86740999999999,10472
870,Pelham,Morrison Av-Soundview Av,40.829516999999996,-73.87486,10472
871,Pelham,Morrison Av-Soundview Av,40.829371,-73.87473100000001,10472
872,Pelham,Morrison Av-Soundview Av,40.829640999999995,-73.874447,10472
>>>>>>> 0926605a035426e9993d06469d3abb162d099394
873,Pelham,Elder Av,40.828688,-73.879018,10472
874,Pelham,Elder Av,40.82846,-73.879362,10472
875,Pelham,Whitlock Av,40.827298,-73.886256,10459
876,Pelham,Whitlock Av,40.827295,-73.886082,10459
877,Pelham,Hunts Point Av,40.820591,-73.890836,10474
<<<<<<< HEAD
878,Pelham,Hunts Point Av,40.820819,-73.890442,10474
879,Pelham,Longwood Av,40.816263,-73.896506,10455
880,Pelham,Longwood Av,40.81652,-73.896224,10459
881,Pelham,East 149th St,40.812331,-73.904102,10455
882,Pelham,East 149th St,40.812367,-73.903797,10455
883,Pelham,East 143rd St-St Mary's St,40.808179,-73.908065,10454
884,Pelham,East 143rd St-St Mary's St,40.808322,-73.908002,10454
885,Pelham,Cypress Av,40.805234,-73.913391,10454
886,Pelham,Cypress Av,40.805155,-73.913208,10454
887,Pelham,Brook Av,40.807747,-73.919347,10454
888,Pelham,Brook Av,40.80758,-73.918957,10454
=======
878,Pelham,Hunts Point Av,40.820819,-73.89044200000001,10474
879,Pelham,Longwood Av,40.816263,-73.896506,10455
880,Pelham,Longwood Av,40.816520000000004,-73.896224,10459
881,Pelham,East 149th St,40.812331,-73.90410200000001,10455
882,Pelham,East 149th St,40.812367,-73.903797,10455
883,Pelham,East 143rd St-St Mary's St,40.808178999999996,-73.90806500000001,10454
884,Pelham,East 143rd St-St Mary's St,40.808322,-73.908002,10454
885,Pelham,Cypress Av,40.805234000000006,-73.913391,10454
886,Pelham,Cypress Av,40.805155,-73.913208,10454
887,Pelham,Brook Av,40.807747,-73.919347,10454
888,Pelham,Brook Av,40.80758,-73.91895699999999,10454
>>>>>>> 0926605a035426e9993d06469d3abb162d099394
889,Pelham,138th St-3rd Ave,40.810282,-73.925386,10454
890,Pelham,138th St-3rd Ave,40.810102,-73.925641,10454
891,Pelham,138th St-3rd Ave,40.810241,-73.925267,10454
892,Pelham,138th St-3rd Ave,40.810019,-73.925438,10454
893,Jerome,Woodlawn,40.886819,-73.878376,10467
894,Jerome,Woodlawn,40.886737,-73.87812,10467
895,Jerome,Mosholu Parkway,40.880077,-73.88447,10467
896,Jerome,Mosholu Parkway,40.879899,-73.884244,10467
<<<<<<< HEAD
897,Jerome,Bedford Park Blvd-Lehman College,40.873528,-73.889754,10468
898,Jerome,Kingsbridge Rd,40.867606,-73.897418,10468
899,Jerome,Kingsbridge Rd,40.86762,-73.897152,10468
900,Jerome,Kingsbridge Rd,40.867766,-73.897039,10468
901,Jerome,Fordham Rd,40.862562,-73.901367,10468
902,Jerome,Fordham Rd,40.862592,-73.90097,10468
903,Jerome,Fordham Rd,40.86289,-73.901262,10468
904,Jerome,Fordham Rd,40.862814,-73.900815,10468
905,Jerome,183rd St,40.858267,-73.904099,10453
906,Jerome,183rd St,40.858453,-73.90369,10453
907,Jerome,183rd St,40.858477,-73.904088,10453
908,Jerome,Burnside Av,40.853313,-73.907977,10453
909,Jerome,Burnside Av,40.853181,-73.907782,10453
910,Jerome,Burnside Av,40.85367,-73.907654,10453
911,Jerome,Burnside Av,40.853596,-73.907393,10453
912,Jerome,176th St,40.848385,-73.912003,10453
913,Jerome,176th St,40.848501,-73.911633,10453
914,Jerome,Mt Eden Av,40.844702,-73.91465,10452
915,Jerome,Mt Eden Av,40.844389,-73.914578,10452
916,Jerome,170th St,40.83996,-73.918018,10452
917,Jerome,170th St,40.839877,-73.917791,10452
=======
897,Jerome,Bedford Park Blvd-Lehman College,40.873528,-73.88975400000001,10468
898,Jerome,Kingsbridge Rd,40.867606,-73.897418,10468
899,Jerome,Kingsbridge Rd,40.86762,-73.897152,10468
900,Jerome,Kingsbridge Rd,40.867765999999996,-73.897039,10468
901,Jerome,Fordham Rd,40.862562,-73.90136700000001,10468
902,Jerome,Fordham Rd,40.862592,-73.90097,10468
903,Jerome,Fordham Rd,40.86289,-73.901262,10468
904,Jerome,Fordham Rd,40.862814,-73.90081500000001,10468
905,Jerome,183rd St,40.858267,-73.904099,10453
906,Jerome,183rd St,40.858453000000004,-73.90369,10453
907,Jerome,183rd St,40.858477,-73.904088,10453
908,Jerome,Burnside Av,40.853313,-73.907977,10453
909,Jerome,Burnside Av,40.853181,-73.907782,10453
910,Jerome,Burnside Av,40.85367,-73.90765400000001,10453
911,Jerome,Burnside Av,40.853596,-73.907393,10453
912,Jerome,176th St,40.848385,-73.912003,10453
913,Jerome,176th St,40.848501,-73.911633,10453
914,Jerome,Mt Eden Av,40.844702000000005,-73.91465,10452
915,Jerome,Mt Eden Av,40.844389,-73.914578,10452
916,Jerome,170th St,40.83996,-73.918018,10452
917,Jerome,170th St,40.839877,-73.91779100000001,10452
>>>>>>> 0926605a035426e9993d06469d3abb162d099394
918,Jerome,170th St,40.840076,-73.917648,10452
919,Jerome,167th St,40.8356,-73.921131,10452
920,Jerome,167th St,40.835746,-73.921562,10452
921,Jerome,167th St,40.835726,-73.921059,10452
922,Jerome,167th St,40.835873,-73.92149,10452
923,Jerome,149th St-Grand Concourse,40.818281,-73.927251,10451
<<<<<<< HEAD
924,Jerome,149th St-Grand Concourse,40.818405,-73.927101,10451
925,Jerome,138th St,40.813328,-73.930004,10451
=======
924,Jerome,149th St-Grand Concourse,40.818405,-73.92710100000001,10451
925,Jerome,138th St,40.813328000000006,-73.930004,10451
>>>>>>> 0926605a035426e9993d06469d3abb162d099394
926,Jerome,138th St,40.813091,-73.929689,10451
927,Jerome,138th St,40.813363,-73.929847,10451
928,Lexington,125th St,40.804407,-73.937234,10035
929,Lexington,125th St,40.804251,-73.937658,10035
930,Lexington,125th St,40.804164,-73.937444,10035
<<<<<<< HEAD
931,Lexington,125th St,40.804597,-73.9374,10035
932,Lexington,125th St,40.804517,-73.937186,10035
933,Lexington,116th St,40.798466,-73.941882,10029
934,Lexington,116th St,40.798852,-73.9416,10035
=======
931,Lexington,125th St,40.804596999999994,-73.9374,10035
932,Lexington,125th St,40.804517,-73.937186,10035
933,Lexington,116th St,40.798466,-73.94188199999999,10029
934,Lexington,116th St,40.798852000000004,-73.9416,10035
>>>>>>> 0926605a035426e9993d06469d3abb162d099394
935,Lexington,110th St,40.794804,-73.944613,10029
936,Lexington,110th St,40.794927,-73.944502,10029
937,Lexington,103rd St,40.790279,-73.947856,10029
938,Lexington,103rd St,40.790193,-73.947649,10029
<<<<<<< HEAD
939,Lexington,96th St,40.785843,-73.951232,10128
940,Lexington,96th St,40.78564,-73.95093,
941,Lexington,96th St,40.786055,-73.951057,10128
942,Lexington,96th St,40.785903,-73.950695,10128
943,Lexington,86th St,40.779468,-73.955905,10028
944,Lexington,86th St,40.779718,-73.955719,10028
945,Lexington,86th St,40.779427,-73.95581,10028
946,Lexington,86th St,40.77972,-73.955596,10028
947,Lexington,77th St,40.773669,-73.960135,10075
948,Lexington,77th St,40.773779,-73.959954,10075
949,Lexington,77th St,40.773779,-73.960041,10075
950,Lexington,77th St,40.773636,-73.96006,10075
951,Lexington,68th St-Hunter College,40.76787,-73.964244,10065
952,Lexington,68th St-Hunter College,40.767817,-73.964355,10065
953,Lexington,68th St-Hunter College,40.767703,-73.963979,10065
=======
939,Lexington,96th St,40.785843,-73.95123199999999,10128
940,Lexington,96th St,40.78564,-73.95093,
941,Lexington,96th St,40.786055,-73.95105699999999,10128
942,Lexington,96th St,40.785903000000005,-73.950695,10128
943,Lexington,86th St,40.779468,-73.955905,10028
944,Lexington,86th St,40.779718,-73.95571899999999,10028
945,Lexington,86th St,40.779427,-73.95581,10028
946,Lexington,86th St,40.779720000000005,-73.955596,10028
947,Lexington,77th St,40.773669,-73.960135,10075
948,Lexington,77th St,40.773779,-73.95995400000001,10075
949,Lexington,77th St,40.773779,-73.960041,10075
950,Lexington,77th St,40.773635999999996,-73.96006,10075
951,Lexington,68th St-Hunter College,40.76787,-73.964244,10065
952,Lexington,68th St-Hunter College,40.767817,-73.964355,10065
953,Lexington,68th St-Hunter College,40.767703000000004,-73.96397900000001,10065
>>>>>>> 0926605a035426e9993d06469d3abb162d099394
954,Lexington,68th St-Hunter College,40.767981,-73.964178,10065
955,Lexington,68th St-Hunter College,40.767863,-73.963898,10065
956,Lexington,59th St,40.762836,-73.96804,10022
957,Lexington,51st St,40.757123,-73.972117,10022
<<<<<<< HEAD
958,Lexington,51st St,40.757293,-73.972108,10154
959,Lexington,51st St,40.757157,-73.972196,10022
960,Lexington,51st St,40.757298,-73.971939,10154
961,Lexington,33rd St,40.746263,-73.981663,10016
962,Lexington,33rd St,40.746242,-73.9816,10016
963,Lexington,33rd St,40.74655,-73.981533,10016
964,Lexington,28th St,40.743128,-73.983806,10016
965,Lexington,28th St,40.743167,-73.983896,10016
966,Lexington,28th St,40.743304,-73.983857,10016
=======
958,Lexington,51st St,40.757293,-73.97210799999999,10154
959,Lexington,51st St,40.757157,-73.972196,10022
960,Lexington,51st St,40.757298,-73.971939,10154
961,Lexington,33rd St,40.746263,-73.981663,10016
962,Lexington,33rd St,40.746241999999995,-73.9816,10016
963,Lexington,33rd St,40.74655,-73.981533,10016
964,Lexington,28th St,40.743128000000006,-73.983806,10016
965,Lexington,28th St,40.743167,-73.983896,10016
966,Lexington,28th St,40.743303999999995,-73.983857,10016
>>>>>>> 0926605a035426e9993d06469d3abb162d099394
967,Lexington,28th St,40.743257,-73.983738,10016
968,Lexington,23rd St,40.740008,-73.986233,10010
969,Lexington,23rd St,40.739984,-73.986343,10010
970,Lexington,23rd St,40.74018,-73.986006,10010
971,Lexington,14th St-Union Square,40.734406,-73.989437,10003
972,Lexington,14th St-Union Square,40.73418,-73.989549,10003
<<<<<<< HEAD
973,Lexington,14th St-Union Square,40.734222,-73.989674,10003
974,Lexington,Astor Place,40.730084,-73.990838,10003
975,Lexington,Bleecker St,40.725726,-73.994579,10012
976,Lexington,Bleecker St,40.725755,-73.994367,10012
977,Lexington,Bleecker St,40.725845,-73.99432,10012
978,Lexington,Bleecker St,40.725137,-73.994938,10012
979,Lexington,Bleecker St,40.724888,-73.995291,10012
980,Lexington,Spring St,40.722116,-73.996912,10012
981,Lexington,Spring St,40.722235,-73.996818,10012
982,Lexington,Canal St,40.718155,-74.000317,10013
983,Lexington,Canal St,40.718197,-74.000388,10013
=======
973,Lexington,14th St-Union Square,40.734221999999995,-73.989674,10003
974,Lexington,Astor Place,40.730084000000005,-73.990838,10003
975,Lexington,Bleecker St,40.725726,-73.994579,10012
976,Lexington,Bleecker St,40.725755,-73.99436700000001,10012
977,Lexington,Bleecker St,40.725845,-73.99432,10012
978,Lexington,Bleecker St,40.725137,-73.994938,10012
979,Lexington,Bleecker St,40.724888,-73.99529100000001,10012
980,Lexington,Spring St,40.722116,-73.996912,10012
981,Lexington,Spring St,40.722235,-73.996818,10012
982,Lexington,Canal St,40.718154999999996,-74.00031700000001,10013
983,Lexington,Canal St,40.718196999999996,-74.000388,10013
>>>>>>> 0926605a035426e9993d06469d3abb162d099394
984,Lexington,Brooklyn Bridge-City Hall,40.712868,-74.004806,10013
985,Lexington,Brooklyn Bridge-City Hall,40.712723,-74.004971,10013
986,Lexington,Brooklyn Bridge-City Hall,40.712333,-74.004387,10013
987,Lexington,Brooklyn Bridge-City Hall,40.711857,-74.005114,10013
988,Lexington,Brooklyn Bridge-City Hall,40.711824,-74.005057,10013
989,Lexington,Brooklyn Bridge-City Hall,40.713721,-74.003734,10013
990,Lexington,Brooklyn Bridge-City Hall,40.713721,-74.003734,10013
<<<<<<< HEAD
991,Lexington,Wall St,40.70719,-74.011997,10005
992,Lexington,Wall St,40.707446,-74.011848,10005
993,Lexington,Wall St,40.707577,-74.011731,10005
=======
991,Lexington,Wall St,40.707190000000004,-74.011997,10005
992,Lexington,Wall St,40.707446000000004,-74.011848,10005
993,Lexington,Wall St,40.707577,-74.01173100000001,10005
>>>>>>> 0926605a035426e9993d06469d3abb162d099394
994,Lexington,Bowling Green,40.704659,-74.01392,10004
995,Lexington,Bowling Green,40.704629,-74.013502,10004
996,Lexington,Borough Hall,40.69234,-73.99056,11201
997,Lexington,Borough Hall,40.692299,-73.990301,11201
<<<<<<< HEAD
998,Lexington,Borough Hall,40.692548,-73.990099,11201
=======
998,Lexington,Borough Hall,40.692547999999995,-73.990099,11201
>>>>>>> 0926605a035426e9993d06469d3abb162d099394
999,Lexington,Borough Hall,40.692588,-73.990572,11201
1000,White Plains Road,Wakefield-241st St,40.903597,-73.85036,10470
1001,White Plains Road,Wakefield-241st St,40.903283,-73.850321,10470
1002,White Plains Road,Wakefield-241st St,40.903509,-73.850124,10470
1003,White Plains Road,238th St-Nereid Av,40.89862,-73.854316,10470
1004,White Plains Road,238th St-Nereid Av,40.898323,-73.854288,10466
<<<<<<< HEAD
1005,White Plains Road,233rd St,40.893215,-73.857344,10466
1006,White Plains Road,233rd St,40.893597,-73.857405,10466
1007,White Plains Road,225th St,40.887709,-73.860666,10466
1008,White Plains Road,225th St,40.88766,-73.860444,10466
1009,White Plains Road,225th St,40.887972,-73.860517,10466
1010,White Plains Road,219th St,40.883723,-73.86287,10467
1011,White Plains Road,219th St,40.883439,-73.862743,10467
1012,White Plains Road,Gun Hill Rd,40.877779,-73.866185,10467
1013,White Plains Road,Gun Hill Rd,40.877839,-73.866421,10467
1014,White Plains Road,Burke Av,40.871631,-73.867283,10467
1015,White Plains Road,Burke Av,40.871215,-73.867043,10467
1016,White Plains Road,Allerton Av,40.865605,-73.867476,10467
1017,White Plains Road,Allerton Av,40.865257,-73.867246,10467
1018,White Plains Road,Pelham Parkway,40.856338,-73.867544,10462
1019,White Plains Road,Pelham Parkway,40.856403,-73.867771,10462
1020,White Plains Road,Pelham Parkway,40.856337,-73.867521,10462
=======
1005,White Plains Road,233rd St,40.893215000000005,-73.857344,10466
1006,White Plains Road,233rd St,40.893597,-73.857405,10466
1007,White Plains Road,225th St,40.887709,-73.86066600000001,10466
1008,White Plains Road,225th St,40.88766,-73.860444,10466
1009,White Plains Road,225th St,40.887972,-73.860517,10466
1010,White Plains Road,219th St,40.883722999999996,-73.86287,10467
1011,White Plains Road,219th St,40.883439,-73.86274300000001,10467
1012,White Plains Road,Gun Hill Rd,40.877779,-73.866185,10467
1013,White Plains Road,Gun Hill Rd,40.877839,-73.866421,10467
1014,White Plains Road,Burke Av,40.871631,-73.867283,10467
1015,White Plains Road,Burke Av,40.871215,-73.86704300000001,10467
1016,White Plains Road,Allerton Av,40.865605,-73.867476,10467
1017,White Plains Road,Allerton Av,40.865257,-73.867246,10467
1018,White Plains Road,Pelham Parkway,40.856338,-73.867544,10462
1019,White Plains Road,Pelham Parkway,40.856403,-73.86777099999999,10462
1020,White Plains Road,Pelham Parkway,40.856336999999996,-73.867521,10462
>>>>>>> 0926605a035426e9993d06469d3abb162d099394
1021,White Plains Road,Bronx Park East,40.848762,-73.868382,10462
1022,White Plains Road,Bronx Park East,40.849169,-73.868356,10462
1023,White Plains Road,Bronx Park East,40.849128,-73.868213,10462
1024,White Plains Road,East 180th St,40.841223,-73.873499,10460
<<<<<<< HEAD
1025,White Plains Road,East 180th St,40.841453,-73.872892,10460
1026,White Plains Road,East Tremont Av-West Farms Sq,40.840815,-73.879623,10460
1027,White Plains Road,East Tremont Av-West Farms Sq,40.840434,-73.880005,10460
1028,White Plains Road,East Tremont Av-West Farms Sq,40.840354,-73.879833,10460
1029,White Plains Road,East Tremont Av-West Farms Sq,40.840639,-73.879555,10460
=======
1025,White Plains Road,East 180th St,40.841453,-73.87289200000001,10460
1026,White Plains Road,East Tremont Av-West Farms Sq,40.840815,-73.879623,10460
1027,White Plains Road,East Tremont Av-West Farms Sq,40.840434,-73.88000500000001,10460
1028,White Plains Road,East Tremont Av-West Farms Sq,40.840354,-73.87983299999999,10460
1029,White Plains Road,East Tremont Av-West Farms Sq,40.840639,-73.87955500000001,10460
>>>>>>> 0926605a035426e9993d06469d3abb162d099394
1030,White Plains Road,East Tremont Av-West Farms Sq,40.841078,-73.879397,10460
1031,White Plains Road,174th St,40.837325,-73.888048,10460
1032,White Plains Road,174th St,40.837599,-73.887755,10460
1033,White Plains Road,Freeman St,40.829903,-73.89202,10459
1034,White Plains Road,Freeman St,40.830369,-73.892015,10459
<<<<<<< HEAD
1035,White Plains Road,Simpson St,40.824356,-73.892897,10459
1036,White Plains Road,Simpson St,40.824177,-73.893114,10459
1037,White Plains Road,Simpson St,40.824358,-73.892724,10459
1038,White Plains Road,Intervale Av,40.8224,-73.896508,10459
1039,White Plains Road,Intervale Av,40.822447,-73.896719,10459
1040,White Plains Road,Intervale Av,40.822095,-73.896681,10459
=======
1035,White Plains Road,Simpson St,40.824356,-73.89289699999999,10459
1036,White Plains Road,Simpson St,40.824177,-73.893114,10459
1037,White Plains Road,Simpson St,40.824358000000004,-73.892724,10459
1038,White Plains Road,Intervale Av,40.8224,-73.896508,10459
1039,White Plains Road,Intervale Av,40.822447,-73.89671899999999,10459
1040,White Plains Road,Intervale Av,40.822095000000004,-73.896681,10459
>>>>>>> 0926605a035426e9993d06469d3abb162d099394
1041,White Plains Road,Prospect Av,40.819583,-73.901958,10455
1042,White Plains Road,Prospect Av,40.819887,-73.901666,10455
1043,White Plains Road,Jackson Av,40.816201,-73.907942,10455
1044,White Plains Road,Jackson Av,40.816349,-73.907836,10455
1045,White Plains Road,Jackson Av,40.816589,-73.907893,10455
1046,White Plains Road,Jackson Av,40.816873,-73.907379,10455
1047,White Plains Road,149th St-3rd Av,40.816247,-73.917798,10455
<<<<<<< HEAD
1048,White Plains Road,149th St-3rd Av,40.816315,-73.917543,10455
1049,White Plains Road,149th St-3rd Av,40.816242,-73.917934,10455
1050,White Plains Road,149th St-3rd Av,40.816265,-73.917456,10455
1051,Lenox,Harlem-148th St,40.824069,-73.936981,10039
1052,Lenox,145th St,40.820343,-73.936508,10039
1053,Lenox,145th St,40.820662,-73.936275,10039
1054,Lenox,135th St,40.814024,-73.941117,10030
=======
1048,White Plains Road,149th St-3rd Av,40.816315,-73.91754300000001,10455
1049,White Plains Road,149th St-3rd Av,40.816241999999995,-73.917934,10455
1050,White Plains Road,149th St-3rd Av,40.816265,-73.917456,10455
1051,Lenox,Harlem-148th St,40.824069,-73.936981,10039
1052,Lenox,145th St,40.820343,-73.93650799999999,10039
1053,Lenox,145th St,40.820662,-73.936275,10039
1054,Lenox,135th St,40.814023999999996,-73.941117,10030
>>>>>>> 0926605a035426e9993d06469d3abb162d099394
1055,Lenox,135th St,40.814316,-73.94091,10030
1056,Lenox,125th St,40.807681,-73.945752,10027
1057,Lenox,125th St,40.807995,-73.945524,10027
1058,Lenox,116th St,40.801945,-73.949943,10026
<<<<<<< HEAD
1059,Lenox,116th St,40.802229,-73.949734,10026
1060,Lenox,110th St-Central Park North,40.798497,-73.952672,10026
1061,Flushing,Flushing-Main St,40.759542,-73.829885,11354
1062,Flushing,Flushing-Main St,40.759706,-73.829943,11354
1063,Flushing,Flushing-Main St,40.759451,-73.829927,11354
1064,Flushing,Flushing-Main St,40.759587,-73.830408,11354
1065,Flushing,Flushing-Main St,40.759404,-73.830333,11354
1066,Flushing,Mets - Willets Point,40.754777,-73.845737,11368
=======
1059,Lenox,116th St,40.802229,-73.94973399999999,10026
1060,Lenox,110th St-Central Park North,40.798497,-73.95267199999999,10026
1061,Flushing,Flushing-Main St,40.759541999999996,-73.829885,11354
1062,Flushing,Flushing-Main St,40.759706,-73.829943,11354
1063,Flushing,Flushing-Main St,40.759451,-73.829927,11354
1064,Flushing,Flushing-Main St,40.759586999999996,-73.83040799999999,11354
1065,Flushing,Flushing-Main St,40.759403999999996,-73.830333,11354
1066,Flushing,Mets - Willets Point,40.754777000000004,-73.845737,11368
>>>>>>> 0926605a035426e9993d06469d3abb162d099394
1067,Flushing,Mets - Willets Point,40.754394,-73.845832,11368
1068,Flushing,Mets - Willets Point,40.754657,-73.846014,11368
1069,Flushing,Mets - Willets Point,40.754768,-73.845598,11368
1070,Flushing,111th St,40.75161,-73.856065,11368
<<<<<<< HEAD
1071,Flushing,111th St,40.751423,-73.855996,11368
1072,Flushing,111th St,40.751551,-73.855628,11368
1073,Flushing,103rd St,40.749787,-73.862389,11368
=======
1071,Flushing,111th St,40.751422999999996,-73.85599599999999,11368
1072,Flushing,111th St,40.751551,-73.855628,11368
1073,Flushing,103rd St,40.749787,-73.86238900000001,11368
>>>>>>> 0926605a035426e9993d06469d3abb162d099394
1074,Flushing,103rd St,40.749973,-73.862425,11368
1075,Flushing,103rd St,40.749775,-73.862537,11368
1076,Flushing,103rd St,40.749964,-73.862546,11368
1077,Flushing,Junction Blvd,40.749263,-73.869376,11368
<<<<<<< HEAD
1078,Flushing,Junction Blvd,40.749095,-73.86912,11368
1079,Flushing,Junction Blvd,40.749266,-73.86922,11368
1080,Flushing,Junction Blvd,40.749028,-73.869574,11373
1081,Flushing,Junction Blvd,40.749213,-73.869696,11368
1082,Flushing,90th St Elmhurst,40.748318,-73.876432,11372
1083,Flushing,90th St Elmhurst,40.74859,-73.876461,11372
1084,Flushing,90th St Elmhurst,40.748582,-73.876591,11372
1085,Flushing,82nd St-Jackson Heights,40.747812,-73.883876,11372
=======
1078,Flushing,Junction Blvd,40.749095000000004,-73.86912,11368
1079,Flushing,Junction Blvd,40.749266,-73.86922,11368
1080,Flushing,Junction Blvd,40.749028,-73.869574,11373
1081,Flushing,Junction Blvd,40.749213,-73.86969599999999,11368
1082,Flushing,90th St Elmhurst,40.748318,-73.876432,11372
1083,Flushing,90th St Elmhurst,40.74859,-73.87646099999999,11372
1084,Flushing,90th St Elmhurst,40.748582,-73.876591,11372
1085,Flushing,82nd St-Jackson Heights,40.747811999999996,-73.883876,11372
>>>>>>> 0926605a035426e9993d06469d3abb162d099394
1086,Flushing,82nd St-Jackson Heights,40.747453,-73.883973,11372
1087,Flushing,82nd St-Jackson Heights,40.747797,-73.884028,11372
1088,Flushing,Fisk Av-69th St,40.746509,-73.896268,11377
1089,Flushing,Fisk Av-69th St,40.746148,-73.896396,11377
1090,Flushing,Woodside Av-61st St,40.745531,-73.903248,11377
1091,Flushing,Woodside Av-61st St,40.745717,-73.903063,11377
1092,Flushing,Woodside Av-61st St,40.745692,-73.903234,11377
1093,Flushing,Lincoln Av-52nd St,40.743933,-73.913003,11377
<<<<<<< HEAD
1094,Flushing,Lincoln Av-52nd St,40.744067,-73.91308,11377
1095,Flushing,Lincoln Av-52nd St,40.744453,-73.911282,11377
1096,Flushing,Lincoln Av-52nd St,40.74459,-73.911294,11377
1097,Flushing,Bliss St-46th St,40.743064,-73.918601,11104
=======
1094,Flushing,Lincoln Av-52nd St,40.744067,-73.91308000000001,11377
1095,Flushing,Lincoln Av-52nd St,40.744453,-73.911282,11377
1096,Flushing,Lincoln Av-52nd St,40.74459,-73.911294,11377
1097,Flushing,Bliss St-46th St,40.743064000000004,-73.918601,11104
>>>>>>> 0926605a035426e9993d06469d3abb162d099394
1098,Flushing,Bliss St-46th St,40.743217,-73.918564,11104
1099,Flushing,Bliss St-46th St,40.743105,-73.918848,11104
1100,Flushing,Bliss St-46th St,40.74324,-73.918813,11104
1101,Flushing,Lowery St-40th St,40.74371,-73.924161,11104
1102,Flushing,Lowery St-40th St,40.743882,-73.924112,11104
1103,Flushing,Lowery St-40th St,40.743743,-73.924417,11104
1104,Flushing,Lowery St-40th St,40.743911,-73.924385,11104
1105,Flushing,Rawson St-33rd St,40.744568,-73.93157,11101
1106,Flushing,Rawson St-33rd St,40.744724,-73.931533,11101
<<<<<<< HEAD
1107,Flushing,Rawson St-33rd St,40.744594,-73.931829,11101
1108,Flushing,Rawson St-33rd St,40.744763,-73.931794,11101
1109,Flushing,Queensboro Plaza,40.750835,-73.939671,11101
1110,Flushing,Queensboro Plaza,40.750302,-73.940245,11101
1111,Flushing,45 Rd-Court House Sq,40.746308,-73.945713,11101
1112,Flushing,45 Rd-Court House Sq,40.74613,-73.945349,11101
1113,Flushing,45 Rd-Court House Sq,40.746232,-73.945322,11101
1114,Flushing,Hunters Point,40.7425,-73.948609,11101
1115,Flushing,Hunters Point,40.742405,-73.94811,11101
1116,Flushing,Hunters Point,40.742422,-73.948195,11101
1117,Flushing,Vernon Blvd-Jackson Av,40.742759,-73.953893,11101
1118,Flushing,Vernon Blvd-Jackson Av,40.742803,-73.953955,11101
1119,Flushing,5th Av,40.753409,-73.98113,10036
=======
1107,Flushing,Rawson St-33rd St,40.744594,-73.93182900000001,11101
1108,Flushing,Rawson St-33rd St,40.744763,-73.931794,11101
1109,Flushing,Queensboro Plaza,40.750834999999995,-73.93967099999999,11101
1110,Flushing,Queensboro Plaza,40.750302000000005,-73.94024499999999,11101
1111,Flushing,45 Rd-Court House Sq,40.746308,-73.945713,11101
1112,Flushing,45 Rd-Court House Sq,40.74613,-73.945349,11101
1113,Flushing,45 Rd-Court House Sq,40.746232,-73.94532199999999,11101
1114,Flushing,Hunters Point,40.7425,-73.94860899999999,11101
1115,Flushing,Hunters Point,40.742405,-73.94811,11101
1116,Flushing,Hunters Point,40.742422,-73.948195,11101
1117,Flushing,Vernon Blvd-Jackson Av,40.742759,-73.95389300000001,11101
1118,Flushing,Vernon Blvd-Jackson Av,40.742803,-73.95395500000001,11101
1119,Flushing,5th Av,40.753409000000005,-73.98113000000001,10036
>>>>>>> 0926605a035426e9993d06469d3abb162d099394
1120,Broadway-7th Ave,South Ferry,40.702033,-74.013149,10004
1121,Broadway-7th Ave,South Ferry,40.702033,-74.013149,10004
1122,Broadway-7th Ave,South Ferry,40.701961,-74.013397,10004
1123,Broadway-7th Ave,South Ferry,40.701961,-74.013397,10004
<<<<<<< HEAD
1124,Broadway,Lexington Av,40.762092,-73.96634,10022
1125,Broadway,Lexington Av,40.762353,-73.966155,10022
1126,Broadway,Lexington Av,40.761996,-73.966105,10022
1127,Broadway,Lexington Av,40.762255,-73.965918,10065
1128,Broadway,5th Av,40.764599,-73.974228,10019
1129,Broadway,5th Av,40.764935,-73.974191,10019
1130,Broadway,5th Av,40.764859,-73.973998,10022
1131,Broadway,57th St,40.764258,-73.981278,10019
1132,Broadway,57th St,40.764057,-73.980803,10106
1133,Broadway,57th St,40.764377,-73.981167,10019
1134,Broadway,57th St,40.764179,-73.980683,10106
1135,Broadway,49th St,40.760454,-73.983388,10019
1136,Broadway,49th St,40.75903,-73.984412,10036
1137,Broadway,49th St,40.759513,-73.984884,10036
1138,Broadway,49th St,40.759384,-73.984709,10036
1139,Broadway,49th St,40.760297,-73.983567,10019
1140,Broadway,Times Square-42nd St,40.754172,-73.98668,10018
1141,Broadway,Times Square-42nd St,40.754335,-73.987097,10018
1142,Broadway,Times Square-42nd St,40.754301,-73.986623,10018
1143,Broadway,Times Square-42nd St,40.754507,-73.987108,10018
1144,Broadway,34th St,40.74959,-73.98762,10001
=======
1124,Broadway,Lexington Av,40.762091999999996,-73.96634,10022
1125,Broadway,Lexington Av,40.762353000000004,-73.966155,10022
1126,Broadway,Lexington Av,40.761996,-73.966105,10022
1127,Broadway,Lexington Av,40.762254999999996,-73.965918,10065
1128,Broadway,5th Av,40.764599,-73.974228,10019
1129,Broadway,5th Av,40.764934999999994,-73.974191,10019
1130,Broadway,5th Av,40.764859,-73.973998,10022
1131,Broadway,57th St,40.764258,-73.981278,10019
1132,Broadway,57th St,40.764057,-73.98080300000001,10106
1133,Broadway,57th St,40.764377,-73.981167,10019
1134,Broadway,57th St,40.764179,-73.980683,10106
1135,Broadway,49th St,40.760453999999996,-73.983388,10019
1136,Broadway,49th St,40.759029999999996,-73.984412,10036
1137,Broadway,49th St,40.759513,-73.984884,10036
1138,Broadway,49th St,40.759384000000004,-73.984709,10036
1139,Broadway,49th St,40.760296999999994,-73.98356700000001,10019
1140,Broadway,Times Square-42nd St,40.754172,-73.98668,10018
1141,Broadway,Times Square-42nd St,40.754335,-73.98709699999999,10018
1142,Broadway,Times Square-42nd St,40.754301,-73.986623,10018
1143,Broadway,Times Square-42nd St,40.754507000000004,-73.98710799999999,10018
1144,Broadway,34th St,40.749590000000005,-73.98761999999999,10001
>>>>>>> 0926605a035426e9993d06469d3abb162d099394
1145,Broadway,34th St,40.749891,-73.987495,10001
1146,Broadway,34th St,40.748294,-73.987976,10001
1147,Broadway,34th St,40.748477,-73.988288,10001
1148,Broadway,28th St,40.745281,-73.988923,10001
1149,Broadway,28th St,40.745488,-73.98901,10001
<<<<<<< HEAD
1150,Broadway,23rd St,40.740643,-73.989217,10010
1151,Broadway,23rd St,40.741208,-73.989639,10010
1152,Broadway,23rd St,40.741913,-73.989428,10010
1153,Broadway,23rd St,40.740758,-73.989632,10010
1154,Broadway,Union Square,40.736339,-73.990603,10003
1155,Broadway,Union Square,40.736523,-73.990447,10003
1156,Broadway,8th St,40.729678,-73.993051,10003
1157,Broadway,8th St,40.730642,-73.992737,10003
1158,Broadway,8th St,40.730592,-73.99262,10003
1159,Broadway,8th St,40.730716,-73.992517,10003
1160,Broadway,8th St,40.730773,-73.992641,10003
1161,Broadway,Prince St,40.72426,-73.997957,10012
1162,Broadway,Prince St,40.724344,-73.997875,10012
1163,Broadway,Canal St (UL),40.719585,-74.00193,10013
1164,Broadway,Canal St (UL),40.71966,-74.002019,10013
=======
1150,Broadway,23rd St,40.740643,-73.98921700000001,10010
1151,Broadway,23rd St,40.741208,-73.989639,10010
1152,Broadway,23rd St,40.741913000000004,-73.989428,10010
1153,Broadway,23rd St,40.740758,-73.989632,10010
1154,Broadway,Union Square,40.736339,-73.99060300000001,10003
1155,Broadway,Union Square,40.736523,-73.990447,10003
1156,Broadway,8th St,40.729678,-73.993051,10003
1157,Broadway,8th St,40.730641999999996,-73.992737,10003
1158,Broadway,8th St,40.730592,-73.99262,10003
1159,Broadway,8th St,40.730715999999994,-73.992517,10003
1160,Broadway,8th St,40.730773,-73.992641,10003
1161,Broadway,Prince St,40.72426,-73.997957,10012
1162,Broadway,Prince St,40.724344,-73.997875,10012
1163,Broadway,Canal St (UL),40.719584999999995,-74.00193,10013
1164,Broadway,Canal St (UL),40.71966,-74.00201899999999,10013
>>>>>>> 0926605a035426e9993d06469d3abb162d099394
1165,Broadway,Canal St (UL),40.719408,-74.002158,10013
1166,Broadway,Canal St (UL),40.71946,-74.002236,10013
1167,Broadway,Cortlandt St,40.710201,-74.011198,10006
1168,Broadway,Cortlandt St,40.710435,-74.011066,10007
1169,Broadway,Rector St,40.706345,-74.014,10006
1170,Broadway,Rector St,40.707495,-74.013273,10006
1171,Broadway,Rector St,40.707659,-74.013166,10006
1172,Broadway,Rector St,40.70795,-74.012963,10006
1173,Broadway,Rector St,40.708083,-74.012863,10006
<<<<<<< HEAD
1174,Broadway,Rector St,40.707225,-74.013454,10006
1175,Broadway,Whitehall St,40.704015,-74.013284,10004
1176,Broadway,Whitehall St,40.704114,-74.013,10004
1177,Broadway,Whitehall St,40.704096,-74.013293,10004
1178,Broadway,Court St,40.694416,-73.992619,11201
1179,Broadway,Court St,40.694232,-73.992635,11201
1180,Broadway,Court St,40.694475,-73.99283,11201
1181,Broadway,Lawrence St,40.69198,-73.98519,11201
1182,Broadway,Lawrence St,40.692315,-73.985172,11201
1183,Broadway,Lawrence St,40.692031,-73.985395,11201
1184,4 Avenue,DeKalb Av,40.69154,-73.982565,11201
1185,4 Avenue,DeKalb Av,40.691562,-73.982048,11201
1186,4 Avenue,Union St,40.677135,-73.983416,11215
1187,4 Avenue,9th St,40.670538,-73.988778,11215
1188,4 Avenue,Prospect Av,40.665269,-73.993245,11215
1189,4 Avenue,25th St,40.660489,-73.99822,11232
1190,4 Avenue,53rd St,40.645619,-74.013688,11220
1191,4 Avenue,59th St,40.640682,-74.018857,11220
1192,4 Avenue,59th St,40.640501,-74.018531,11220
1193,4 Avenue,Bay Ridge Av,40.635468,-74.023313,11220
1194,4 Avenue,77th St,40.630221,-74.025459,11209
1195,4 Avenue,86th St,40.623498,-74.028204,11209
1196,4 Avenue,95th St,40.617587,-74.030696,11209
1197,4 Avenue,95th St,40.617363,-74.030404,11209
1198,Brighton,Atlantic Av,40.685222,-73.977628,11217
1199,Brighton,Prospect Park,40.662482,-73.962285,11226
1200,Brighton,Prospect Park,40.662727,-73.962249,11225
1201,Brighton,Parkside Av,40.654251,-73.961909,11226
1202,Brighton,Church Av,40.651482,-73.962732,11226
1203,Brighton,Av J,40.625307,-73.960969,11230
1204,Brighton,Av J,40.625363,-73.960654,11230
1205,Brighton,Av M,40.61814,-73.95946,11230
1206,Brighton,Kings Highway,40.609062,-73.957808,11229
1207,Brighton,Sheepshead Bay,40.585734,-73.954371,11235
1208,Brighton,Brighton Beach,40.577618,-73.961994,11235
1209,Brighton,Brighton Beach,40.577656,-73.961792,11235
1210,Brighton,Brighton Beach,40.577387,-73.961912,11235
1211,Brighton,Brighton Beach,40.577425,-73.961719,11235
=======
1174,Broadway,Rector St,40.707225,-74.01345400000001,10006
1175,Broadway,Whitehall St,40.704015000000005,-74.013284,10004
1176,Broadway,Whitehall St,40.704114000000004,-74.013,10004
1177,Broadway,Whitehall St,40.704096,-74.013293,10004
1178,Broadway,Court St,40.694416,-73.99261899999999,11201
1179,Broadway,Court St,40.694232,-73.99263499999999,11201
1180,Broadway,Court St,40.694475,-73.99283,11201
1181,Broadway,Lawrence St,40.69198,-73.98519,11201
1182,Broadway,Lawrence St,40.692315,-73.98517199999999,11201
1183,Broadway,Lawrence St,40.692031,-73.985395,11201
1184,4 Avenue,DeKalb Av,40.69154,-73.98256500000001,11201
1185,4 Avenue,DeKalb Av,40.691562,-73.98204799999999,11201
1186,4 Avenue,Union St,40.677135,-73.983416,11215
1187,4 Avenue,9th St,40.670538,-73.988778,11215
1188,4 Avenue,Prospect Av,40.665269,-73.993245,11215
1189,4 Avenue,25th St,40.660489,-73.99821999999999,11232
1190,4 Avenue,53rd St,40.645619,-74.013688,11220
1191,4 Avenue,59th St,40.640682,-74.018857,11220
1192,4 Avenue,59th St,40.640501,-74.01853100000001,11220
1193,4 Avenue,Bay Ridge Av,40.635467999999996,-74.023313,11220
1194,4 Avenue,77th St,40.630221,-74.025459,11209
1195,4 Avenue,86th St,40.623498,-74.028204,11209
1196,4 Avenue,95th St,40.617587,-74.03069599999999,11209
1197,4 Avenue,95th St,40.617363,-74.030404,11209
1198,Brighton,Atlantic Av,40.685221999999996,-73.977628,11217
1199,Brighton,Prospect Park,40.662482000000004,-73.962285,11226
1200,Brighton,Prospect Park,40.662727000000004,-73.962249,11225
1201,Brighton,Parkside Av,40.654251,-73.96190899999999,11226
1202,Brighton,Church Av,40.651482,-73.96273199999999,11226
1203,Brighton,Av J,40.625307,-73.96096899999999,11230
1204,Brighton,Av J,40.625363,-73.960654,11230
1205,Brighton,Av M,40.618140000000004,-73.95945999999999,11230
1206,Brighton,Kings Highway,40.609062,-73.957808,11229
1207,Brighton,Sheepshead Bay,40.585734,-73.954371,11235
1208,Brighton,Brighton Beach,40.577618,-73.96199399999999,11235
1209,Brighton,Brighton Beach,40.577656,-73.961792,11235
1210,Brighton,Brighton Beach,40.577387,-73.961912,11235
1211,Brighton,Brighton Beach,40.577425,-73.96171899999999,11235
>>>>>>> 0926605a035426e9993d06469d3abb162d099394
1212,Brighton,Ocean Parkway,40.576507,-73.969445,11235
1213,Brighton,Ocean Parkway,40.576487,-73.969243,11235
1214,Brighton,West 8th St,40.575752,-73.97674,11224
1215,Brighton,West 8th St,40.576464,-73.974862,11224
<<<<<<< HEAD
1216,Brighton,Stillwell Av,40.576241,-73.981077,11224
1217,West End,62nd St,40.627299,-73.996465,11219
1218,West End,62nd St,40.62711,-73.99687,11219
=======
1216,Brighton,Stillwell Av,40.576240999999996,-73.981077,11224
1217,West End,62nd St,40.627299,-73.996465,11219
1218,West End,62nd St,40.627109999999995,-73.99687,11219
>>>>>>> 0926605a035426e9993d06469d3abb162d099394
1219,West End,62nd St,40.627367,-73.996729,11219
1220,Sea Beach,Fort Hamilton Parkway,40.630609,-74.004067,11219
1221,Sea Beach,New Utrecht Av,40.624246,-73.995962,11219
1222,Sea Beach,18th Av,40.621306,-73.991469,11204
1223,Sea Beach,Bay Parkway-22nd Av,40.610572,-73.981613,11204
1224,Sea Beach,Kings Highway,40.603212,-73.980199,11223
<<<<<<< HEAD
1225,Sea Beach,Av U,40.598512,-73.979335,11223
1226,Broadway Jamaica,121st St,40.700808,-73.82739,11418
1227,Broadway Jamaica,Woodhaven Blvd,40.694077,-73.850476,11421
1228,Broadway Jamaica,Marcy Av,40.708293,-73.958044,11211
1229,Broadway Jamaica,Marcy Av,40.708788,-73.958826,11211
1230,Broadway Jamaica,Marcy Av,40.708271,-73.957749,11211
1231,Broadway Jamaica,Marcy Av,40.708403,-73.958124,11211
1232,Broadway Jamaica,Marcy Av,40.708681,-73.958927,11211
1233,Nassau,Canal St,40.717823,-74.000326,10013
1234,Nassau,Chambers St,40.712699,-74.004099,10007
1235,Nassau,Chambers St,40.714199,-74.003187,10007
1236,Nassau,Fulton St,40.710241,-74.008022,10038
=======
1225,Sea Beach,Av U,40.598512,-73.97933499999999,11223
1226,Broadway Jamaica,121st St,40.700808,-73.82739000000001,11418
1227,Broadway Jamaica,Woodhaven Blvd,40.694077,-73.850476,11421
1228,Broadway Jamaica,Marcy Av,40.708293,-73.958044,11211
1229,Broadway Jamaica,Marcy Av,40.708788,-73.958826,11211
1230,Broadway Jamaica,Marcy Av,40.708271,-73.95774899999999,11211
1231,Broadway Jamaica,Marcy Av,40.708403000000004,-73.958124,11211
1232,Broadway Jamaica,Marcy Av,40.708681,-73.958927,11211
1233,Nassau,Canal St,40.717822999999996,-74.000326,10013
1234,Nassau,Chambers St,40.712699,-74.004099,10007
1235,Nassau,Chambers St,40.714199,-74.003187,10007
1236,Nassau,Fulton St,40.710240999999996,-74.008022,10038
>>>>>>> 0926605a035426e9993d06469d3abb162d099394
1237,Nassau,Fulton St,40.710106,-74.007648,10038
1238,Nassau,Fulton St,40.709376,-74.008375,10038
1239,Nassau,Fulton St,40.710388,-74.007935,10038
1240,Nassau,Fulton St,40.710211,-74.007584,10038
<<<<<<< HEAD
1241,Nassau,Fulton St,40.709507,-74.008295,10038
1242,Nassau,Broad St,40.706142,-74.011128,10004
1243,Nassau,Broad St,40.705961,-74.011229,10004
1244,Nassau,Broad St,40.706001,-74.011497,10004
1245,Nassau,Broad St,40.706439,-74.011263,10005
1246,Nassau,Broad St,40.705747,-74.011554,10004
1247,Canarsie,6th Av,40.737197,-73.996704,10011
1248,Canarsie,6th Av,40.737149,-73.996578,10011
1249,Canarsie,Union Square,40.734755,-73.990991,10003
1250,Canarsie,Union Square,40.734859,-73.991235,10003
1251,Canarsie,3rd Av,40.733122,-73.986548,10003
1252,Canarsie,3rd Av,40.733277,-73.986931,10003
=======
1241,Nassau,Fulton St,40.709507,-74.00829499999999,10038
1242,Nassau,Broad St,40.706142,-74.011128,10004
1243,Nassau,Broad St,40.705961,-74.011229,10004
1244,Nassau,Broad St,40.706001,-74.01149699999999,10004
1245,Nassau,Broad St,40.706439,-74.011263,10005
1246,Nassau,Broad St,40.705746999999995,-74.011554,10004
1247,Canarsie,6th Av,40.737196999999995,-73.99670400000001,10011
1248,Canarsie,6th Av,40.737149,-73.996578,10011
1249,Canarsie,Union Square,40.734755,-73.99099100000001,10003
1250,Canarsie,Union Square,40.734859,-73.991235,10003
1251,Canarsie,3rd Av,40.733121999999995,-73.986548,10003
1252,Canarsie,3rd Av,40.733277,-73.98693100000001,10003
>>>>>>> 0926605a035426e9993d06469d3abb162d099394
1253,Canarsie,1st Av,40.73105,-73.982625,10009
1254,Canarsie,1st Av,40.731118,-73.982563,10009
1255,Canarsie,Bedford Av,40.716888,-73.956367,11211
1256,Canarsie,Bedford Av,40.716991,-73.956257,11211
1257,Canarsie,Lorimer St,40.713908,-73.949262,11211
<<<<<<< HEAD
1258,Canarsie,Lorimer St,40.71421,-73.949313,11211
1259,Canarsie,Graham Av,40.714439,-73.94419,11211
1260,Canarsie,Graham Av,40.714433,-73.944546,11211
1261,Canarsie,Grand St,40.711791,-73.940742,11206
1262,Canarsie,Grand St,40.712017,-73.940976,11211
1263,Canarsie,DeKalb Av,40.703461,-73.917606,11237
1264,Canarsie,DeKalb Av,40.70354,-73.917771,11237
1265,Canarsie,Myrtle Av,40.699814,-73.911295,11385
1266,Canarsie,Myrtle Av,40.699468,-73.910648,11385
1267,Canarsie,Myrtle Av,40.699807,-73.910999,11237
1268,Canarsie,Halsey St,40.695871,-73.905143,11237
1269,Canarsie,Halsey St,40.69599,-73.905265,11237
1270,Canarsie,Livonia Av,40.663749,-73.900482,11212
1271,8 Avenue,Inwood - 207th St,40.868284,-73.919607,10034
1272,8 Avenue,Inwood - 207th St,40.868036,-73.919284,10034
1273,8 Avenue,Dyckman St-200th St,40.865296,-73.927411,10040
1274,8 Avenue,Dyckman St-200th St,40.865248,-73.927279,10040
1275,8 Avenue,Dyckman St-200th St,40.865342,-73.926964,10040
1276,8 Avenue,Dyckman St-200th St,40.865446,-73.927035,
1277,8 Avenue,181st St,40.850778,-73.938472,10033
1278,8 Avenue,181st St,40.850717,-73.938214,10033
1279,8 Avenue,181st St,40.85087,-73.938537,10033
1280,8 Avenue,175th St,40.846352,-73.940287,10033
1281,8 Avenue,175th St,40.846407,-73.939861,10033
1282,8 Avenue,168th St - Washington Heights,40.84186,-73.939569,10032
1283,8 Avenue,168th St - Washington Heights,40.841928,-73.939455,10032
1284,8 Avenue,168th St - Washington Heights,40.84176,-73.939067,10032
1285,8 Avenue,145th St,40.825622,-73.943796,10031
1286,8 Avenue,145th St,40.825581,-73.943444,10031
1287,8 Avenue,135th St,40.818558,-73.947543,10030
1288,8 Avenue,135th St,40.817188,-73.947665,10030
1289,8 Avenue,135th St,40.816892,-73.947818,10030
1290,8 Avenue,135th St,40.816867,-73.947953,10030
1291,8 Avenue,135th St,40.818354,-73.947213,10030
1292,8 Avenue,125th St,40.811858,-73.951351,10027
1293,8 Avenue,125th St,40.81199,-73.951745,10027
1294,8 Avenue,116th St,40.804428,-73.955024,10026
1295,8 Avenue,116th St,40.804172,-73.955131,10026
1296,8 Avenue,Cathedral Parkway-110th St,40.800866,-73.958405,10026
1297,8 Avenue,96th St,40.792285,-73.964423,10025
1298,8 Avenue,96th St,40.792591,-73.964316,10025
=======
1258,Canarsie,Lorimer St,40.714209999999994,-73.949313,11211
1259,Canarsie,Graham Av,40.714439,-73.94419,11211
1260,Canarsie,Graham Av,40.714433,-73.944546,11211
1261,Canarsie,Grand St,40.711791,-73.940742,11206
1262,Canarsie,Grand St,40.712016999999996,-73.940976,11211
1263,Canarsie,DeKalb Av,40.703461,-73.917606,11237
1264,Canarsie,DeKalb Av,40.703540000000004,-73.917771,11237
1265,Canarsie,Myrtle Av,40.699814,-73.911295,11385
1266,Canarsie,Myrtle Av,40.699467999999996,-73.910648,11385
1267,Canarsie,Myrtle Av,40.699807,-73.910999,11237
1268,Canarsie,Halsey St,40.695871000000004,-73.90514300000001,11237
1269,Canarsie,Halsey St,40.69599,-73.905265,11237
1270,Canarsie,Livonia Av,40.663748999999996,-73.900482,11212
1271,8 Avenue,Inwood - 207th St,40.868284,-73.919607,10034
1272,8 Avenue,Inwood - 207th St,40.868036,-73.91928399999999,10034
1273,8 Avenue,Dyckman St-200th St,40.865296,-73.92741099999999,10040
1274,8 Avenue,Dyckman St-200th St,40.865248,-73.927279,10040
1275,8 Avenue,Dyckman St-200th St,40.865342,-73.926964,10040
1276,8 Avenue,Dyckman St-200th St,40.865446,-73.927035,
1277,8 Avenue,181st St,40.850778000000005,-73.93847199999999,10033
1278,8 Avenue,181st St,40.850716999999996,-73.938214,10033
1279,8 Avenue,181st St,40.85087,-73.938537,10033
1280,8 Avenue,175th St,40.846352,-73.940287,10033
1281,8 Avenue,175th St,40.846407,-73.939861,10033
1282,8 Avenue,168th St - Washington Heights,40.84186,-73.93956899999999,10032
1283,8 Avenue,168th St - Washington Heights,40.841928,-73.93945500000001,10032
1284,8 Avenue,168th St - Washington Heights,40.84176,-73.93906700000001,10032
1285,8 Avenue,145th St,40.825621999999996,-73.94379599999999,10031
1286,8 Avenue,145th St,40.825581,-73.943444,10031
1287,8 Avenue,135th St,40.818558,-73.94754300000001,10030
1288,8 Avenue,135th St,40.817188,-73.947665,10030
1289,8 Avenue,135th St,40.816891999999996,-73.947818,10030
1290,8 Avenue,135th St,40.816866999999995,-73.947953,10030
1291,8 Avenue,135th St,40.818354,-73.947213,10030
1292,8 Avenue,125th St,40.811858,-73.951351,10027
1293,8 Avenue,125th St,40.81199,-73.95174499999999,10027
1294,8 Avenue,116th St,40.804428,-73.955024,10026
1295,8 Avenue,116th St,40.804171999999994,-73.95513100000001,10026
1296,8 Avenue,Cathedral Parkway-110th St,40.800866,-73.958405,10026
1297,8 Avenue,96th St,40.792285,-73.964423,10025
1298,8 Avenue,96th St,40.792590999999994,-73.964316,10025
>>>>>>> 0926605a035426e9993d06469d3abb162d099394
1299,8 Avenue,86th St,40.786769,-73.968448,10024
1300,8 Avenue,86th St,40.786115,-73.969011,10024
1301,8 Avenue,81st St - Museum of Natural History,40.780895,-73.972918,10024
1302,8 Avenue,81st St - Museum of Natural History,40.780319,-73.973179,10024
1303,8 Avenue,72nd St,40.77494,-73.977144,10023
<<<<<<< HEAD
1304,8 Avenue,59th St,40.768649,-73.981184,10023
1305,8 Avenue,50th St,40.762085,-73.985829,10019
1306,8 Avenue,50th St,40.762216,-73.985757,10019
1307,8 Avenue,42nd St,40.758567,-73.989053,10036
1308,8 Avenue,42nd St,40.758401,-73.988673,10036
1309,8 Avenue,42nd St,40.758685,-73.98899,10036
1310,8 Avenue,34th St,40.752689,-73.992742,10001
1311,8 Avenue,34th St,40.752796,-73.992669,10123
1312,8 Avenue,34th St,40.752766,-73.992596,10001
1313,8 Avenue,34th St,40.752877,-73.993244,10001
1314,8 Avenue,34th St,40.753053,-73.993256,10018
1315,8 Avenue,34th St,40.753032,-73.993188,10018
1316,8 Avenue,34th St,40.752178,-73.993701,10001
1317,8 Avenue,34th St,40.752427,-73.993679,10001
1318,8 Avenue,23rd St,40.746732,-73.997711,10011
1319,8 Avenue,23rd St,40.746603,-73.997801,10011
1320,8 Avenue,23rd St,40.745278,-73.998771,10011
1321,8 Avenue,23rd St,40.745505,-73.998642,10011
1322,8 Avenue,23rd St,40.746535,-73.997271,10011
1323,8 Avenue,23rd St,40.746483,-73.997142,10001
1324,8 Avenue,23rd St,40.74611,-73.998145,10011
1325,8 Avenue,23rd St,40.745814,-73.997852,10011
1326,8 Avenue,23rd St,40.746427,-73.99735,10001
1327,8 Avenue,West 4th St,40.733067,-73.999728,10011
1328,8 Avenue,West 4th St,40.733259,-73.999615,10012
=======
1304,8 Avenue,59th St,40.768648999999996,-73.981184,10023
1305,8 Avenue,50th St,40.762085,-73.98582900000001,10019
1306,8 Avenue,50th St,40.762215999999995,-73.98575699999999,10019
1307,8 Avenue,42nd St,40.758567,-73.989053,10036
1308,8 Avenue,42nd St,40.758401,-73.98867299999999,10036
1309,8 Avenue,42nd St,40.758685,-73.98899,10036
1310,8 Avenue,34th St,40.752689000000004,-73.992742,10001
1311,8 Avenue,34th St,40.752796000000004,-73.99266899999999,10123
1312,8 Avenue,34th St,40.752765999999994,-73.99259599999999,10001
1313,8 Avenue,34th St,40.752877000000005,-73.99324399999999,10001
1314,8 Avenue,34th St,40.753053,-73.993256,10018
1315,8 Avenue,34th St,40.753032,-73.993188,10018
1316,8 Avenue,34th St,40.752178,-73.993701,10001
1317,8 Avenue,34th St,40.752427000000004,-73.993679,10001
1318,8 Avenue,23rd St,40.746732,-73.997711,10011
1319,8 Avenue,23rd St,40.746603,-73.997801,10011
1320,8 Avenue,23rd St,40.745278000000006,-73.99877099999999,10011
1321,8 Avenue,23rd St,40.745505,-73.998642,10011
1322,8 Avenue,23rd St,40.746534999999994,-73.997271,10011
1323,8 Avenue,23rd St,40.746483000000005,-73.99714200000001,10001
1324,8 Avenue,23rd St,40.746109999999994,-73.998145,10011
1325,8 Avenue,23rd St,40.745814,-73.99785200000001,10011
1326,8 Avenue,23rd St,40.746427000000004,-73.99735,10001
1327,8 Avenue,West 4th St,40.733067,-73.999728,10011
1328,8 Avenue,West 4th St,40.733259000000004,-73.999615,10012
>>>>>>> 0926605a035426e9993d06469d3abb162d099394
1329,8 Avenue,West 4th St,40.733072,-74.000192,10014
1330,8 Avenue,Spring St,40.725595,-74.004326,10013
1331,8 Avenue,Spring St,40.726208,-74.00399,10013
1332,8 Avenue,Canal St,40.71987,-74.005038,10013
1333,8 Avenue,Chambers St,40.714873,-74.008162,10007
<<<<<<< HEAD
1334,8 Avenue,Chambers St,40.714777,-74.007903,10007
1335,8 Avenue,Chambers St,40.715099,-74.007989,10007
1336,8 Avenue,Chambers St,40.714992,-74.007739,10007
1337,8 Avenue,Chambers St,40.713949,-74.00896,10007
1338,8 Avenue,Chambers St,40.714313,-74.008584,10007
1339,8 Avenue,Chambers St,40.714539,-74.008428,10007
1340,8 Avenue,High St,40.699112,-73.98892,11201
1341,8 Avenue,High St,40.699212,-73.988274,11201
1342,Fulton,Jay St - Borough Hall,40.693243,-73.987402,11201
1343,Fulton,Jay St - Borough Hall,40.693491,-73.987089,11201
=======
1334,8 Avenue,Chambers St,40.714777000000005,-74.007903,10007
1335,8 Avenue,Chambers St,40.715099,-74.007989,10007
1336,8 Avenue,Chambers St,40.714991999999995,-74.007739,10007
1337,8 Avenue,Chambers St,40.713949,-74.00896,10007
1338,8 Avenue,Chambers St,40.714313,-74.008584,10007
1339,8 Avenue,Chambers St,40.714539,-74.00842800000001,10007
1340,8 Avenue,High St,40.699112,-73.98892,11201
1341,8 Avenue,High St,40.699212,-73.988274,11201
1342,Fulton,Jay St - Borough Hall,40.693243,-73.987402,11201
1343,Fulton,Jay St - Borough Hall,40.693490999999995,-73.987089,11201
>>>>>>> 0926605a035426e9993d06469d3abb162d099394
1344,Fulton,Jay St - Borough Hall,40.693153,-73.987408,11201
1345,Fulton,Jay St - Borough Hall,40.693153,-73.987484,11201
1346,Fulton,Jay St - Borough Hall,40.693243,-73.987481,11201
1347,Fulton,Jay St - Borough Hall,40.692397,-73.987162,11201
1348,Fulton,Jay St - Borough Hall,40.692329,-73.987167,11201
1349,Fulton,Clinton & Washington Avs,40.682868,-73.96463,11238
1350,Fulton,Clinton & Washington Avs,40.683172,-73.964689,11238
1351,Fulton,Franklin Av,40.681256,-73.95559,11216
1352,Fulton,Nostrand Av,40.680228,-73.949414,11216
1353,Fulton,Nostrand Av,40.680262,-73.949635,11216
1354,Fulton,Kingston-Throop,40.679804,-73.941119,11213
<<<<<<< HEAD
1355,Fulton,Kingston-Throop,40.679728,-73.941362,11213
1356,Fulton,Utica Av,40.67953,-73.932021,11233
1357,Fulton,Utica Av,40.679346,-73.931987,11233
1358,Fulton,Rockaway Av,40.678513,-73.910773,11233
1359,Fulton,Rockaway Av,40.67846,-73.910971,11233
=======
1355,Fulton,Kingston-Throop,40.679728000000004,-73.941362,11213
1356,Fulton,Utica Av,40.67953,-73.93202099999999,11233
1357,Fulton,Utica Av,40.679346,-73.931987,11233
1358,Fulton,Rockaway Av,40.678513,-73.91077299999999,11233
1359,Fulton,Rockaway Av,40.67846,-73.91097099999999,11233
>>>>>>> 0926605a035426e9993d06469d3abb162d099394
1360,Liberty,80th St-Hudson St,40.679215,-73.860291,11417
1361,Liberty,80th St-Hudson St,40.679361,-73.860284,11416
1362,Liberty,Rockaway Blvd,40.680611,-73.842537,11417
1363,Liberty,Rockaway Blvd,40.680774,-73.842558,11417
<<<<<<< HEAD
1364,Liberty,111th St-Greenwood Av,40.683972,-73.832816,11420
1365,Liberty,111th St-Greenwood Av,40.684111,-73.832889,11419
1366,Liberty,Lefferts Blvd,40.68572,-73.827092,11419
=======
1364,Liberty,111th St-Greenwood Av,40.683972,-73.83281600000001,11420
1365,Liberty,111th St-Greenwood Av,40.684111,-73.832889,11419
1366,Liberty,Lefferts Blvd,40.68572,-73.82709200000001,11419
>>>>>>> 0926605a035426e9993d06469d3abb162d099394
1367,Liberty,Lefferts Blvd,40.685868,-73.827107,11419
1368,Rockaway,Aqueduct-North Conduit Av,40.669339,-73.834721,11417
1369,Rockaway,Howard Beach,40.66016,-73.830372,11414
1370,Concourse,Norwood-205th St,40.874021,-73.877501,10467
1371,Concourse,Norwood-205th St,40.874262,-73.877533,10467
1372,Concourse,Bedford Park Blvd,40.874084,-73.887112,10468
1373,Concourse,Bedford Park Blvd,40.874025,-73.886466,10468
1374,Concourse,Kingsbridge Rd,40.866181,-73.894306,10468
1375,Concourse,Kingsbridge Rd,40.866369,-73.894521,10468
1376,Concourse,Kingsbridge Rd,40.866127,-73.893982,10468
1377,Concourse,Fordham Rd,40.862296,-73.896885,10458
1378,Concourse,Fordham Rd,40.862608,-73.896662,10458
<<<<<<< HEAD
1379,Concourse,Tremont Av,40.851052,-73.905093,10453
=======
1379,Concourse,Tremont Av,40.851052,-73.90509300000001,10453
>>>>>>> 0926605a035426e9993d06469d3abb162d099394
1380,Concourse,Tremont Av,40.851176,-73.904263,10457
1381,Concourse,174-175th Sts,40.846461,-73.909796,10453
1382,Concourse,174-175th Sts,40.846354,-73.909047,10457
1383,Concourse,170th St,40.838618,-73.914191,10452
1384,Concourse,170th St,40.838991,-73.914037,10452
<<<<<<< HEAD
1385,Concourse,170th St,40.838421,-73.913626,10452
1386,Concourse,167th St,40.833111,-73.919399,10452
1387,Concourse,Yankee Stadium-161st St,40.827372,-73.924217,10451
1388,Concourse,Yankee Stadium-161st St,40.827572,-73.924028,10452
1389,Concourse,Yankee Stadium-161st St,40.827539,-73.924156,10452
=======
1385,Concourse,170th St,40.838421000000004,-73.91362600000001,10452
1386,Concourse,167th St,40.833110999999995,-73.919399,10452
1387,Concourse,Yankee Stadium-161st St,40.827372,-73.924217,10451
1388,Concourse,Yankee Stadium-161st St,40.827571999999996,-73.924028,10452
1389,Concourse,Yankee Stadium-161st St,40.827539,-73.92415600000001,10452
>>>>>>> 0926605a035426e9993d06469d3abb162d099394
1390,6 Avenue,47-50th Sts Rockefeller Center,40.758623,-73.981566,10020
1391,6 Avenue,47-50th Sts Rockefeller Center,40.758977,-73.981352,10020
1392,6 Avenue,47-50th Sts Rockefeller Center,40.759105,-73.981252,10020
1393,6 Avenue,47-50th Sts Rockefeller Center,40.757801,-73.981788,10036
1394,6 Avenue,47-50th Sts Rockefeller Center,40.758024,-73.982079,10036
1395,6 Avenue,47-50th Sts Rockefeller Center,40.757981,-73.98154,10036
1396,6 Avenue,47-50th Sts Rockefeller Center,40.757862,-73.981735,10036
1397,6 Avenue,47-50th Sts Rockefeller Center,40.758486,-73.981158,10036
1398,6 Avenue,47-50th Sts Rockefeller Center,40.758615,-73.981095,10020
1399,6 Avenue,42nd St,40.753709,-73.985084,10018
<<<<<<< HEAD
1400,6 Avenue,42nd St,40.755333,-73.983934,10018
1401,6 Avenue,42nd St,40.755008,-73.984249,10018
=======
1400,6 Avenue,42nd St,40.755333,-73.98393399999999,10018
1401,6 Avenue,42nd St,40.755008000000004,-73.984249,10018
>>>>>>> 0926605a035426e9993d06469d3abb162d099394
1402,6 Avenue,42nd St,40.754832,-73.983657,10018
1403,6 Avenue,42nd St,40.753473,-73.985259,10018
1404,6 Avenue,42nd St,40.753408,-73.984892,10018
1405,6 Avenue,42nd St,40.753546,-73.984779,10018
1406,6 Avenue,34th St,40.750674,-73.988031,10001
<<<<<<< HEAD
1407,6 Avenue,34th St,40.750271,-73.987066,10018
1408,6 Avenue,34th St,40.75088,-73.988096,10001
1409,6 Avenue,34th St,40.750647,-73.987346,10001
1410,6 Avenue,34th St,40.750404,-73.986989,10001
=======
1407,6 Avenue,34th St,40.750271000000005,-73.987066,10018
1408,6 Avenue,34th St,40.75088,-73.988096,10001
1409,6 Avenue,34th St,40.750647,-73.987346,10001
1410,6 Avenue,34th St,40.750403999999996,-73.98698900000001,10001
>>>>>>> 0926605a035426e9993d06469d3abb162d099394
1411,6 Avenue,23rd St,40.743121,-73.993099,10011
1412,6 Avenue,23rd St,40.743066,-73.992971,10011
1413,6 Avenue,23rd St,40.742977,-73.993188,10011
1414,6 Avenue,23rd St,40.742922,-73.993066,10010
1415,6 Avenue,14th St,40.738678,-73.995632,10011
1416,6 Avenue,14th St,40.738529,-73.995685,10011
1417,6 Avenue,14th St,40.738838,-73.996023,10011
1418,6 Avenue,14th St,40.738718,-73.996121,10011
1419,6 Avenue,14th St,40.737286,-73.996437,10011
<<<<<<< HEAD
1420,6 Avenue,14th St,40.737316,-73.996508,10011
1421,6 Avenue,Broadway-Lafayette St,40.725344,-73.995612,10012
1422,6 Avenue,2nd Av,40.72395,-73.991298,10003
1423,6 Avenue,2nd Av,40.723665,-73.991651,10002
1424,6 Avenue,Delancey St,40.718372,-73.988445,10002
1425,6 Avenue,Delancey St,40.718207,-73.988273,10002
1426,6 Avenue,East Broadway,40.713906,-73.990014,10002
1427,6 Avenue,East Broadway,40.714194,-73.990352,10002
1428,6 Avenue,East Broadway,40.714404,-73.989918,10002
1429,6 Avenue,Bergen St,40.686708,-73.990629,11201
1430,6 Avenue,Bergen St,40.686868,-73.990526,11201
1431,6 Avenue,Bergen St,40.685579,-73.991465,11201
1432,6 Avenue,Bergen St,40.685445,-73.991131,11201
1433,6 Avenue,Carroll St,40.680806,-73.99435,11231
1434,6 Avenue,Carroll St,40.680944,-73.994247,11231
1435,6 Avenue,Carroll St,40.681115,-73.994434,11231
=======
1420,6 Avenue,14th St,40.737316,-73.99650799999999,10011
1421,6 Avenue,Broadway-Lafayette St,40.725344,-73.995612,10012
1422,6 Avenue,2nd Av,40.72395,-73.991298,10003
1423,6 Avenue,2nd Av,40.723665000000004,-73.991651,10002
1424,6 Avenue,Delancey St,40.718371999999995,-73.988445,10002
1425,6 Avenue,Delancey St,40.718207,-73.98827299999999,10002
1426,6 Avenue,East Broadway,40.713906,-73.990014,10002
1427,6 Avenue,East Broadway,40.714194,-73.990352,10002
1428,6 Avenue,East Broadway,40.714403999999995,-73.989918,10002
1429,6 Avenue,Bergen St,40.686708,-73.990629,11201
1430,6 Avenue,Bergen St,40.686868,-73.990526,11201
1431,6 Avenue,Bergen St,40.685579,-73.991465,11201
1432,6 Avenue,Bergen St,40.685445,-73.99113100000001,11201
1433,6 Avenue,Carroll St,40.680806,-73.99435,11231
1434,6 Avenue,Carroll St,40.680944000000004,-73.994247,11231
1435,6 Avenue,Carroll St,40.681115000000005,-73.994434,11231
>>>>>>> 0926605a035426e9993d06469d3abb162d099394
1436,6 Avenue,Prospect Park-15 St,40.660705,-73.979522,11215
1437,6 Avenue,Prospect Park-15 St,40.660763,-73.978992,11215
1438,6 Avenue,Prospect Park-15 St,40.661287,-73.979395,11215
1439,6 Avenue,Prospect Park-15 St,40.6614,-73.979762,11215
1440,6 Avenue,Fort Hamilton Parkway,40.649854,-73.975815,11218
1441,6 Avenue,Church Av,40.645042,-73.979573,11218
1442,6 Avenue,Church Av,40.644908,-73.980019,11218
1443,Culver,Ditmas Av,40.637093,-73.978463,11218
1444,Culver,Ditmas Av,40.637107,-73.978257,11218
1445,Culver,18th Av,40.628674,-73.976892,11230
1446,Culver,18th Av,40.628708,-73.976646,11230
<<<<<<< HEAD
1447,Culver,Av N,40.616121,-73.974507,11230
1448,Culver,Av N,40.61616,-73.97427,11230
1449,Culver,Kings Highway,40.602197,-73.97264,11223
1450,Culver,Kings Highway,40.602178,-73.972379,11223
1451,Queens Boulevard,Jamaica-179th St,40.71264,-73.784411,11432
1452,Queens Boulevard,Jamaica-179th St,40.712295,-73.78428,11432
1453,Queens Boulevard,Jamaica-179th St,40.712575,-73.784669,11432
1454,Queens Boulevard,Jamaica-179th St,40.71224,-73.784456,11432
1455,Queens Boulevard,Jamaica-179th St,40.712483,-73.785064,11432
1456,Queens Boulevard,Jamaica-179th St,40.712242,-73.784968,11432
1457,Queens Boulevard,169th St,40.709812,-73.794712,11432
1458,Queens Boulevard,169th St,40.710154,-73.794922,11432
1459,Queens Boulevard,169th St,40.709852,-73.794564,11432
1460,Queens Boulevard,169th St,40.710184,-73.79473,11432
1461,Queens Boulevard,Parsons Blvd,40.707062,-73.804332,11432
1462,Queens Boulevard,Parsons Blvd,40.707358,-73.804498,11432
1463,Queens Boulevard,Parsons Blvd,40.707063,-73.80462,11432
1464,Queens Boulevard,Sutphin Blvd,40.705341,-73.81186,11435
1465,Queens Boulevard,Sutphin Blvd,40.704906,-73.811956,11435
1466,Queens Boulevard,Kew Gardens-Union Turnpike,40.714145,-73.830886,11415
=======
1447,Culver,Av N,40.616121,-73.97450699999999,11230
1448,Culver,Av N,40.61616,-73.97426999999999,11230
1449,Culver,Kings Highway,40.602197,-73.97264,11223
1450,Culver,Kings Highway,40.602178,-73.972379,11223
1451,Queens Boulevard,Jamaica-179th St,40.71264,-73.78441099999999,11432
1452,Queens Boulevard,Jamaica-179th St,40.712295000000005,-73.78428000000001,11432
1453,Queens Boulevard,Jamaica-179th St,40.712575,-73.784669,11432
1454,Queens Boulevard,Jamaica-179th St,40.71224,-73.784456,11432
1455,Queens Boulevard,Jamaica-179th St,40.712483,-73.785064,11432
1456,Queens Boulevard,Jamaica-179th St,40.712241999999996,-73.784968,11432
1457,Queens Boulevard,169th St,40.709812,-73.794712,11432
1458,Queens Boulevard,169th St,40.710153999999996,-73.794922,11432
1459,Queens Boulevard,169th St,40.709852000000005,-73.79456400000001,11432
1460,Queens Boulevard,169th St,40.710184000000005,-73.79473,11432
1461,Queens Boulevard,Parsons Blvd,40.707062,-73.80433199999999,11432
1462,Queens Boulevard,Parsons Blvd,40.707358,-73.804498,11432
1463,Queens Boulevard,Parsons Blvd,40.707063,-73.80462,11432
1464,Queens Boulevard,Sutphin Blvd,40.705341,-73.81186,11435
1465,Queens Boulevard,Sutphin Blvd,40.704906,-73.81195600000001,11435
1466,Queens Boulevard,Kew Gardens-Union Turnpike,40.714145,-73.83088599999999,11415
>>>>>>> 0926605a035426e9993d06469d3abb162d099394
1467,Queens Boulevard,Kew Gardens-Union Turnpike,40.715019,-73.83162,11375
1468,Queens Boulevard,Kew Gardens-Union Turnpike,40.714673,-73.832151,11375
1469,Queens Boulevard,Kew Gardens-Union Turnpike,40.714929,-73.831501,11375
1470,Queens Boulevard,Forest Hills-71st Av,40.722269,-73.845153,11375
<<<<<<< HEAD
1471,Queens Boulevard,Forest Hills-71st Av,40.721409,-73.844632,11375
1472,Queens Boulevard,Forest Hills-71st Av,40.721916,-73.844352,11375
1473,Queens Boulevard,67th Av,40.72603,-73.852186,11375
1474,Queens Boulevard,67th Av,40.726367,-73.851592,11375
=======
1471,Queens Boulevard,Forest Hills-71st Av,40.721409,-73.84463199999999,11375
1472,Queens Boulevard,Forest Hills-71st Av,40.721916,-73.844352,11375
1473,Queens Boulevard,67th Av,40.72603,-73.852186,11375
1474,Queens Boulevard,67th Av,40.726366999999996,-73.85159200000001,11375
>>>>>>> 0926605a035426e9993d06469d3abb162d099394
1475,Queens Boulevard,Woodhaven Blvd,40.733188,-73.868605,11373
1476,Queens Boulevard,Jackson Heights-Roosevelt Ave,40.747238,-73.892146,11372
1477,Queens Boulevard,Jackson Heights-Roosevelt Ave,40.747034,-73.892555,11372
1478,Queens Boulevard,Northern Blvd,40.753428,-73.906847,11377
1479,Queens Boulevard,46th St,40.756029,-73.91218,11103
1480,Queens Boulevard,46th St,40.756624,-73.914407,11103
1481,Queens Boulevard,46th St,40.755813,-73.912642,11103
<<<<<<< HEAD
1482,Queens Boulevard,Steinway St,40.756583,-73.921108,11101
=======
1482,Queens Boulevard,Steinway St,40.756583,-73.92110799999999,11101
>>>>>>> 0926605a035426e9993d06469d3abb162d099394
1483,Queens Boulevard,Steinway St,40.756673,-73.920622,11103
1484,Queens Boulevard,36th St,40.751868,-73.930585,11101
1485,Queens Boulevard,36th St,40.752238,-73.927662,11101
1486,Queens Boulevard,36th St,40.75193,-73.927141,11101
1487,Queens Boulevard,Queens Plaza,40.749577,-73.936094,11101
1488,Queens Boulevard,Queens Plaza,40.749857,-73.936198,11101
1489,Queens Boulevard,23rd St-Ely Av,40.747706,-73.944626,11101
1490,Queens Boulevard,Lexington Av-53rd St,40.757784,-73.971098,10022
1491,Queens Boulevard,Lexington Av-53rd St,40.757804,-73.971141,10022
<<<<<<< HEAD
1492,Queens Boulevard,5th Av-53rd St,40.759721,-73.973858,10022
1493,Queens Boulevard,5th Av-53rd St,40.759556,-73.974068,10022
1494,Queens Boulevard,7th Av,40.763141,-73.982666,10019
1495,Queens Boulevard,7th Av,40.763388,-73.982495,10019
1496,Archer Av,Parsons Blvd-Archer Av - Jamaica Center,40.702234,-73.801859,11432
1497,Archer Av,Parsons Blvd-Archer Av - Jamaica Center,40.701874,-73.801747,11432
1498,Archer Av,Parsons Blvd-Archer Av - Jamaica Center,40.70164,-73.802478,11432
1499,Crosstown,Greenpoint Av,40.732258,-73.954379,11222
1500,Crosstown,Greenpoint Av,40.732216,-73.954784,11222
1501,Crosstown,Nassau Av,40.725446,-73.951974,11222
1502,Crosstown,Nassau Av,40.725573,-73.951603,11222
1503,Crosstown,Metropolitan Av,40.713747,-73.951768,11211
1504,Crosstown,Metropolitan Av,40.713744,-73.951455,11211
=======
1492,Queens Boulevard,5th Av-53rd St,40.759721,-73.97385799999999,10022
1493,Queens Boulevard,5th Av-53rd St,40.759555999999996,-73.974068,10022
1494,Queens Boulevard,7th Av,40.763141,-73.98266600000001,10019
1495,Queens Boulevard,7th Av,40.763388,-73.982495,10019
1496,Archer Av,Parsons Blvd-Archer Av - Jamaica Center,40.702234000000004,-73.801859,11432
1497,Archer Av,Parsons Blvd-Archer Av - Jamaica Center,40.701874,-73.80174699999999,11432
1498,Archer Av,Parsons Blvd-Archer Av - Jamaica Center,40.701640000000005,-73.80247800000001,11432
1499,Crosstown,Greenpoint Av,40.732258,-73.954379,11222
1500,Crosstown,Greenpoint Av,40.732215999999994,-73.954784,11222
1501,Crosstown,Nassau Av,40.725446000000005,-73.95197399999999,11222
1502,Crosstown,Nassau Av,40.725573,-73.951603,11222
1503,Crosstown,Metropolitan Av,40.713747,-73.951768,11211
1504,Crosstown,Metropolitan Av,40.713744,-73.95145500000001,11211
>>>>>>> 0926605a035426e9993d06469d3abb162d099394
1505,Crosstown,Flushing Av,40.699985,-73.949895,11206
1506,Crosstown,Myrtle-Willoughby Avs,40.6955,-73.94896,11206
1507,Crosstown,Bedford-Nostrand Avs,40.689543,-73.954998,11205
1508,Crosstown,Bedford-Nostrand Avs,40.689367,-73.954957,11205
1509,Crosstown,Bedford-Nostrand Avs,40.6895,-73.955353,11205
1510,Crosstown,Bedford-Nostrand Avs,40.68933,-73.955318,11205
1511,Broadway-7th Ave,238th St,40.884868,-73.900598,10463
1512,Broadway-7th Ave,231st St,40.878694,-73.904821,10463
<<<<<<< HEAD
1513,Broadway-7th Ave,231st St,40.879091,-73.904538,10463
1514,Broadway-7th Ave,Marble Hill-225th St,40.874308,-73.909795,10463
=======
1513,Broadway-7th Ave,231st St,40.879090999999995,-73.904538,10463
1514,Broadway-7th Ave,Marble Hill-225th St,40.874308,-73.90979499999999,10463
>>>>>>> 0926605a035426e9993d06469d3abb162d099394
1515,Broadway-7th Ave,215th St,40.869315,-73.915216,10034
1516,Broadway-7th Ave,207th St,40.86423,-73.918951,10034
1517,Broadway-7th Ave,168th St,40.840859,-73.940209,10040
1518,Broadway-7th Ave,168th St,40.841024,-73.940083,10032
<<<<<<< HEAD
1519,Broadway-7th Ave,157th St,40.83386,-73.94462,10032
1520,Broadway-7th Ave,157th St,40.833832,-73.944753,10032
1521,Broadway-7th Ave,145th St,40.826199,-73.950392,10031
1522,Broadway-7th Ave,145th St,40.826513,-73.950162,10031
1523,Broadway-7th Ave,137th St-City College,40.821454,-73.953856,10031
1524,Broadway-7th Ave,137th St-City College,40.821391,-73.953906,10031
1525,Broadway-7th Ave,116th St-Columbia University,40.807535,-73.964013,10027
1526,Broadway-7th Ave,Cathedral Parkway-110th St,40.803926,-73.966647,10025
=======
1519,Broadway-7th Ave,157th St,40.833859999999994,-73.94462,10032
1520,Broadway-7th Ave,157th St,40.833832,-73.944753,10032
1521,Broadway-7th Ave,145th St,40.826199,-73.95039200000001,10031
1522,Broadway-7th Ave,145th St,40.826513,-73.950162,10031
1523,Broadway-7th Ave,137th St-City College,40.821453999999996,-73.953856,10031
1524,Broadway-7th Ave,137th St-City College,40.821391,-73.953906,10031
1525,Broadway-7th Ave,116th St-Columbia University,40.807534999999994,-73.964013,10027
1526,Broadway-7th Ave,Cathedral Parkway-110th St,40.803926000000004,-73.966647,10025
>>>>>>> 0926605a035426e9993d06469d3abb162d099394
1527,Broadway-7th Ave,Cathedral Parkway-110th St,40.804257,-73.966422,10025
1528,Broadway-7th Ave,96th St,40.794329,-73.972042,10025
1529,Broadway-7th Ave,86th St,40.788073,-73.976288,10024
1530,Broadway-7th Ave,86th St,40.788272,-73.976083,10024
1531,Broadway-7th Ave,79th St,40.78362,-73.97991,10024
<<<<<<< HEAD
1532,Broadway-7th Ave,79th St,40.783985,-73.979662,10024
1533,Broadway-7th Ave,72nd St,40.778585,-73.981923,10023
1534,Broadway-7th Ave,66th St-Lincoln Center,40.773536,-73.982006,10023
=======
1532,Broadway-7th Ave,79th St,40.783984999999994,-73.979662,10024
1533,Broadway-7th Ave,72nd St,40.778585,-73.981923,10023
1534,Broadway-7th Ave,66th St-Lincoln Center,40.773536,-73.98200600000001,10023
>>>>>>> 0926605a035426e9993d06469d3abb162d099394
1535,Broadway-7th Ave,66th St-Lincoln Center,40.773457,-73.982004,10023
1536,Broadway-7th Ave,66th St-Lincoln Center,40.773682,-73.982015,10023
1537,Broadway-7th Ave,59th St-Columbus Circle,40.768777,-73.982106,10023
1538,Broadway-7th Ave,59th St-Columbus Circle,40.769227,-73.9824,10023
1539,Broadway-7th Ave,59th St-Columbus Circle,40.769365,-73.982392,10023
1540,Broadway-7th Ave,50th St,40.761432,-73.98437,10019
1541,Broadway-7th Ave,50th St,40.761561,-73.984154,10019
<<<<<<< HEAD
1542,Broadway-7th Ave,Times Square,40.754691,-73.988067,10018
=======
1542,Broadway-7th Ave,Times Square,40.754690999999994,-73.988067,10018
>>>>>>> 0926605a035426e9993d06469d3abb162d099394
1543,Broadway-7th Ave,Times Square,40.754568,-73.987827,10018
1544,Broadway-7th Ave,Times Square,40.755554,-73.987679,10036
1545,Broadway-7th Ave,Times Square,40.755575,-73.986311,10036
1546,Broadway-7th Ave,34th St,40.749656,-73.99113,10001
<<<<<<< HEAD
1547,Broadway-7th Ave,34th St,40.750077,-73.99082,10120
=======
1547,Broadway-7th Ave,34th St,40.750077000000005,-73.99082,10120
>>>>>>> 0926605a035426e9993d06469d3abb162d099394
1548,Broadway-7th Ave,34th St,40.750283,-73.99065,10001
1549,Broadway-7th Ave,34th St,40.750313,-73.990854,10001
1550,Broadway-7th Ave,34th St,40.750476,-73.991254,10119
1551,Broadway-7th Ave,34th St,40.750982,-73.990899,10119
1552,Broadway-7th Ave,34th St,40.751187,-73.990791,10120
1553,Broadway-7th Ave,28th St,40.747264,-73.993611,10001
1554,Broadway-7th Ave,28th St,40.747392,-73.99351,10001
1555,Broadway-7th Ave,28th St,40.746787,-73.993955,10001
1556,Broadway-7th Ave,28th St,40.746594,-73.993555,10001
1557,Broadway-7th Ave,23rd St,40.744017,-73.995901,10011
1558,Broadway-7th Ave,23rd St,40.744313,-73.995811,10011
<<<<<<< HEAD
1559,Broadway-7th Ave,18th St,40.741081,-73.998105,10011
1560,Broadway-7th Ave,18th St,40.741206,-73.998035,10011
1561,Broadway-7th Ave,18th St,40.741783,-73.997557,10011
1562,Broadway-7th Ave,18th St,40.741617,-73.997197,10011
1563,Broadway-7th Ave,14th St,40.738358,-73.999656,10011
1564,Broadway-7th Ave,14th St,40.738013,-74.000329,10011
1565,Broadway-7th Ave,14th St,40.737388,-74.000815,10011
1566,Broadway-7th Ave,14th St,40.737197,-74.0004,10011
1567,Broadway-7th Ave,Christopher St,40.733515,-74.003147,10014
1568,Broadway-7th Ave,Christopher St,40.733467,-74.003076,10014
=======
1559,Broadway-7th Ave,18th St,40.741081,-73.99810500000001,10011
1560,Broadway-7th Ave,18th St,40.741206,-73.998035,10011
1561,Broadway-7th Ave,18th St,40.741783,-73.997557,10011
1562,Broadway-7th Ave,18th St,40.741617,-73.997197,10011
1563,Broadway-7th Ave,14th St,40.738358000000005,-73.999656,10011
1564,Broadway-7th Ave,14th St,40.738013,-74.00032900000001,10011
1565,Broadway-7th Ave,14th St,40.737388,-74.000815,10011
1566,Broadway-7th Ave,14th St,40.737196999999995,-74.0004,10011
1567,Broadway-7th Ave,Christopher St,40.733515000000004,-74.003147,10014
1568,Broadway-7th Ave,Christopher St,40.733467,-74.00307600000001,10014
>>>>>>> 0926605a035426e9993d06469d3abb162d099394
1569,Broadway-7th Ave,Christopher St,40.733634,-74.003123,10014
1570,Broadway-7th Ave,Christopher St,40.733652,-74.003006,10014
1571,Broadway-7th Ave,Houston St,40.727739,-74.005305,10014
1572,Broadway-7th Ave,Houston St,40.727989,-74.005258,10014
<<<<<<< HEAD
1573,Broadway-7th Ave,Houston St,40.72784,-74.005681,10014
1574,Broadway-7th Ave,Houston St,40.727983,-74.00565,10014
1575,Broadway-7th Ave,Houston St,40.728561,-74.00554,10014
1576,Broadway-7th Ave,Houston St,40.728686,-74.005517,10014
1577,Broadway-7th Ave,Canal St,40.722932,-74.00662,10013
1578,Broadway-7th Ave,Canal St,40.722878,-74.006518,10013
1579,Broadway-7th Ave,Franklin St,40.719918,-74.00662,10013
1580,Broadway-7th Ave,Franklin St,40.718965,-74.007121,10013
1581,Broadway-7th Ave,Franklin St,40.719251,-74.007058,10013
1582,Broadway-7th Ave,Franklin St,40.719888,-74.006925,10013
1583,Broadway-7th Ave,Rector St,40.706493,-74.014319,10006
1584,Broadway-7th Ave,Rector St,40.706527,-74.014144,10006
1585,Broadway-7th Ave,Rector St,40.706597,-74.014115,10006
=======
1573,Broadway-7th Ave,Houston St,40.72784,-74.00568100000001,10014
1574,Broadway-7th Ave,Houston St,40.727983,-74.00565,10014
1575,Broadway-7th Ave,Houston St,40.728561,-74.00554,10014
1576,Broadway-7th Ave,Houston St,40.728685999999996,-74.005517,10014
1577,Broadway-7th Ave,Canal St,40.722932,-74.00662,10013
1578,Broadway-7th Ave,Canal St,40.722878,-74.006518,10013
1579,Broadway-7th Ave,Franklin St,40.719918,-74.00662,10013
1580,Broadway-7th Ave,Franklin St,40.718965000000004,-74.007121,10013
1581,Broadway-7th Ave,Franklin St,40.719251,-74.007058,10013
1582,Broadway-7th Ave,Franklin St,40.719888,-74.006925,10013
1583,Broadway-7th Ave,Rector St,40.706493,-74.014319,10006
1584,Broadway-7th Ave,Rector St,40.706527,-74.01414399999999,10006
1585,Broadway-7th Ave,Rector St,40.706596999999995,-74.014115,10006
>>>>>>> 0926605a035426e9993d06469d3abb162d099394
1586,Broadway-7th Ave,Rector St,40.707564,-74.013853,10006
1587,Clark,Wall St,40.707431,-74.008778,10038
1588,Clark,Wall St,40.706385,-74.009658,10038
1589,Clark,Wall St,40.706272,-74.009447,10038
1590,Clark,Wall St,40.706755,-74.008804,10038
1591,Eastern Parkway,Hoyt St,40.690931,-73.98525,11201
<<<<<<< HEAD
1592,Eastern Parkway,Hoyt St,40.690972,-73.985448,11201
=======
1592,Eastern Parkway,Hoyt St,40.690971999999995,-73.985448,11201
>>>>>>> 0926605a035426e9993d06469d3abb162d099394
1593,Eastern Parkway,Hoyt St,40.690025,-73.984248,11201
1594,Eastern Parkway,Nevins St,40.688243,-73.980356,11217
1595,Eastern Parkway,Nevins St,40.688085,-73.980243,11217
1596,Eastern Parkway,Bergen St,40.680832,-73.975534,11217
1597,Eastern Parkway,Bergen St,40.680709,-73.975241,11217
1598,Eastern Parkway,Bergen St,40.680951,-73.975448,11217
1599,Eastern Parkway,Utica Av,40.668838,-73.934239,11213
1600,Eastern Parkway,Utica Av,40.669102,-73.934213,11213
1601,Nostrand,Winthrop St,40.656171,-73.950346,11226
<<<<<<< HEAD
1602,Nostrand,Church Av,40.65064,-73.949677,11226
1603,Nostrand,Church Av,40.650717,-73.949741,11226
1604,Nostrand,Church Av,40.650894,-73.949819,11226
1605,Nostrand,Church Av,40.650969,-73.949714,11226
1606,Nostrand,Beverly Rd,40.645016,-73.949213,11226
1607,Nostrand,Newkirk Av,40.639883,-73.948701,11226
1608,Nostrand,Flatbush Av-Brooklyn College,40.631845,-73.947665,11210
1609,Nostrand,Flatbush Av-Brooklyn College,40.63327,-73.947929,11210
1610,Nostrand,Flatbush Av-Brooklyn College,40.633297,-73.947836,11210
1611,Pelham,Hunts Point Av,40.820614,-73.891519,10474
1612,Pelham,Longwood Av,40.816137,-73.896133,10455
=======
1602,Nostrand,Church Av,40.65064,-73.94967700000001,11226
1603,Nostrand,Church Av,40.650717,-73.949741,11226
1604,Nostrand,Church Av,40.650894,-73.94981899999999,11226
1605,Nostrand,Church Av,40.650969,-73.949714,11226
1606,Nostrand,Beverly Rd,40.645016,-73.949213,11226
1607,Nostrand,Newkirk Av,40.639883000000005,-73.948701,11226
1608,Nostrand,Flatbush Av-Brooklyn College,40.631845,-73.947665,11210
1609,Nostrand,Flatbush Av-Brooklyn College,40.63327,-73.947929,11210
1610,Nostrand,Flatbush Av-Brooklyn College,40.633297,-73.947836,11210
1611,Pelham,Hunts Point Av,40.820614,-73.89151899999999,10474
1612,Pelham,Longwood Av,40.816137,-73.89613299999999,10455
>>>>>>> 0926605a035426e9993d06469d3abb162d099394
1613,Pelham,Longwood Av,40.816367,-73.895924,10459
1614,Pelham,East 149th St,40.811887,-73.904145,10455
1615,Pelham,East 149th St,40.812027,-73.903869,10455
1616,Pelham,East 143rd St-St Mary's St,40.80803,-73.90772,10454
1617,Pelham,East 143rd St-St Mary's St,40.80834,-73.907618,10454
1618,Pelham,Cypress Av,40.805171,-73.913933,10454
<<<<<<< HEAD
1619,Pelham,Cypress Av,40.805047,-73.913524,10454
1620,Pelham,Brook Av,40.807467,-73.919448,10454
1621,Pelham,Brook Av,40.807355,-73.919219,10454
1622,Pelham,138th St-3rd Ave,40.810831,-73.926655,10454
1623,Pelham,138th St-3rd Ave,40.810712,-73.92705,10454
1624,Pelham,138th St-3rd Ave,40.810638,-73.926883,10454
1625,Jerome,Mosholu Parkway,40.879503,-73.885138,10467
1626,Jerome,Mosholu Parkway,40.879343,-73.88488,10467
1627,Jerome,Yankee Stadium-161st St,40.827685,-73.925842,10451
1628,Jerome,Yankee Stadium-161st St,40.827759,-73.9261,10451
1629,Jerome,Yankee Stadium-161st St,40.827942,-73.926,10451
1630,Jerome,Yankee Stadium-161st St,40.827854,-73.925745,10451
1631,Jerome,149th St-Grand Concourse,40.818259,-73.927659,10451
1632,Jerome,149th St-Grand Concourse,40.818373,-73.927609,10451
1633,Lexington,116th St,40.798404,-73.941647,10029
1634,Lexington,116th St,40.798742,-73.941406,10035
1635,Lexington,110th St,40.794682,-73.944319,10029
1636,Lexington,110th St,40.794811,-73.944235,10029
1637,Lexington,86th St,40.779661,-73.955302,10028
1638,Lexington,86th St,40.779577,-73.955304,10028
1639,Lexington,86th St,40.779284,-73.955443,10028
1640,Lexington,86th St,40.77933,-73.955545,10028
1641,Lexington,77th St,40.773526,-73.959734,10075
1642,Lexington,77th St,40.773631,-73.959659,10075
1643,Lexington,77th St,40.773493,-73.959659,10075
1644,Lexington,77th St,40.773603,-73.959578,10075
1645,Lexington,59th St,40.76266,-73.967625,10022
1646,Lexington,59th St,40.762414,-73.968371,10022
1647,Lexington,59th St,40.762266,-73.968479,10022
1648,Lexington,59th St,40.762835,-73.967554,
1649,Lexington,59th St,40.762069,-73.968016,10022
1650,Lexington,51st St,40.756686,-73.97251,10022
1651,Lexington,51st St,40.756999,-73.971803,10022
1652,Lexington,51st St,40.757126,-73.971721,10022
1653,Lexington,51st St,40.756964,-73.971712,10022
1654,Lexington,51st St,40.757059,-73.97157,10022
1655,Lexington,Grand Central-42nd St,40.751741,-73.977691,10017
1656,Lexington,Grand Central-42nd St,40.751653,-73.977753,10022
1657,Lexington,Grand Central-42nd St,40.751352,-73.976396,10168
1658,Lexington,Grand Central-42nd St,40.751647,-73.977382,10017
1659,Lexington,33rd St,40.745585,-73.982198,10016
1660,Lexington,33rd St,40.745641,-73.982103,10016
1661,Lexington,33rd St,40.746447,-73.982147,10016
1662,Lexington,33rd St,40.746632,-73.981882,10016
1663,Lexington,33rd St,40.745723,-73.982531,10016
1664,Lexington,33rd St,40.745821,-73.982576,10016
1665,Lexington,28th St,40.743484,-73.98428,10016
1666,Lexington,28th St,40.743394,-73.984409,10016
1667,Lexington,28th St,40.743351,-73.984302,10016
1668,Lexington,23rd St,40.740419,-73.986452,10010
1669,Lexington,23rd St,40.739501,-73.987134,10010
1670,Lexington,23rd St,40.740097,-73.986601,10010
1671,Lexington,23rd St,40.74018,-73.986617,10010
1672,Lexington,23rd St,40.739674,-73.98704,10010
1673,Lexington,23rd St,40.739477,-73.986562,10010
1674,Lexington,14th St-Union Square,40.735184,-73.989793,10003
1675,Lexington,14th St-Union Square,40.734495,-73.990311,10003
1676,Lexington,14th St-Union Square,40.734444,-73.990184,10003
1677,Lexington,Astor Place,40.729968,-73.99141,10003
1678,Lexington,Bleecker St,40.725958,-73.994829,10012
1679,Lexington,Bleecker St,40.726047,-73.994759,10012
1680,Lexington,Spring St,40.722468,-73.997397,10012
1681,Lexington,Spring St,40.72239,-73.997437,10012
1682,Lexington,Canal St,40.718304,-74.000138,10013
1683,Lexington,Canal St,40.718358,-74.000216,10013
1684,Lexington,Brooklyn Bridge-City Hall,40.713839,-74.003864,10007
=======
1619,Pelham,Cypress Av,40.805046999999995,-73.913524,10454
1620,Pelham,Brook Av,40.807466999999995,-73.919448,10454
1621,Pelham,Brook Av,40.807355,-73.919219,10454
1622,Pelham,138th St-3rd Ave,40.810831,-73.92665500000001,10454
1623,Pelham,138th St-3rd Ave,40.810712,-73.92705,10454
1624,Pelham,138th St-3rd Ave,40.810638,-73.92688299999999,10454
1625,Jerome,Mosholu Parkway,40.879503,-73.885138,10467
1626,Jerome,Mosholu Parkway,40.879343,-73.88488000000001,10467
1627,Jerome,Yankee Stadium-161st St,40.827684999999995,-73.925842,10451
1628,Jerome,Yankee Stadium-161st St,40.827759,-73.9261,10451
1629,Jerome,Yankee Stadium-161st St,40.827942,-73.926,10451
1630,Jerome,Yankee Stadium-161st St,40.827853999999995,-73.92574499999999,10451
1631,Jerome,149th St-Grand Concourse,40.818259000000005,-73.92765899999999,10451
1632,Jerome,149th St-Grand Concourse,40.818373,-73.92760899999999,10451
1633,Lexington,116th St,40.798404,-73.941647,10029
1634,Lexington,116th St,40.798742,-73.941406,10035
1635,Lexington,110th St,40.794682,-73.944319,10029
1636,Lexington,110th St,40.794810999999996,-73.94423499999999,10029
1637,Lexington,86th St,40.779661,-73.955302,10028
1638,Lexington,86th St,40.779577,-73.955304,10028
1639,Lexington,86th St,40.779284000000004,-73.955443,10028
1640,Lexington,86th St,40.77933,-73.955545,10028
1641,Lexington,77th St,40.773526000000004,-73.959734,10075
1642,Lexington,77th St,40.773631,-73.959659,10075
1643,Lexington,77th St,40.773493,-73.959659,10075
1644,Lexington,77th St,40.773603,-73.95957800000001,10075
1645,Lexington,59th St,40.76266,-73.967625,10022
1646,Lexington,59th St,40.762414,-73.96837099999999,10022
1647,Lexington,59th St,40.762266,-73.968479,10022
1648,Lexington,59th St,40.762834999999995,-73.967554,
1649,Lexington,59th St,40.762069,-73.968016,10022
1650,Lexington,51st St,40.756686,-73.97251,10022
1651,Lexington,51st St,40.756999,-73.97180300000001,10022
1652,Lexington,51st St,40.757126,-73.971721,10022
1653,Lexington,51st St,40.756964,-73.971712,10022
1654,Lexington,51st St,40.757059000000005,-73.97157,10022
1655,Lexington,Grand Central-42nd St,40.751740999999996,-73.97769100000001,10017
1656,Lexington,Grand Central-42nd St,40.751653000000005,-73.977753,10022
1657,Lexington,Grand Central-42nd St,40.751352000000004,-73.976396,10168
1658,Lexington,Grand Central-42nd St,40.751647,-73.97738199999999,10017
1659,Lexington,33rd St,40.745585,-73.982198,10016
1660,Lexington,33rd St,40.745641,-73.98210300000001,10016
1661,Lexington,33rd St,40.746446999999996,-73.982147,10016
1662,Lexington,33rd St,40.746632,-73.981882,10016
1663,Lexington,33rd St,40.745723,-73.98253100000001,10016
1664,Lexington,33rd St,40.745821,-73.982576,10016
1665,Lexington,28th St,40.743484,-73.98428,10016
1666,Lexington,28th St,40.743394,-73.984409,10016
1667,Lexington,28th St,40.743351000000004,-73.984302,10016
1668,Lexington,23rd St,40.740419,-73.986452,10010
1669,Lexington,23rd St,40.739501000000004,-73.987134,10010
1670,Lexington,23rd St,40.740097,-73.98660100000001,10010
1671,Lexington,23rd St,40.74018,-73.98661700000001,10010
1672,Lexington,23rd St,40.739674,-73.98704000000001,10010
1673,Lexington,23rd St,40.739477,-73.986562,10010
1674,Lexington,14th St-Union Square,40.735184000000004,-73.989793,10003
1675,Lexington,14th St-Union Square,40.734495,-73.990311,10003
1676,Lexington,14th St-Union Square,40.734444,-73.990184,10003
1677,Lexington,Astor Place,40.729968,-73.99141,10003
1678,Lexington,Bleecker St,40.725958,-73.99482900000001,10012
1679,Lexington,Bleecker St,40.726046999999994,-73.994759,10012
1680,Lexington,Spring St,40.722468,-73.99739699999999,10012
1681,Lexington,Spring St,40.722390000000004,-73.997437,10012
1682,Lexington,Canal St,40.718303999999996,-74.000138,10013
1683,Lexington,Canal St,40.718358,-74.00021600000001,10013
1684,Lexington,Brooklyn Bridge-City Hall,40.713839,-74.00386400000001,10007
>>>>>>> 0926605a035426e9993d06469d3abb162d099394
1685,Lexington,Brooklyn Bridge-City Hall,40.713899,-74.003642,10007
1686,Lexington,Fulton St,40.710166,-74.009424,10038
1687,Lexington,Fulton St,40.710165,-74.009182,10038
1688,Lexington,Wall St,40.708436,-74.011298,10006
<<<<<<< HEAD
1689,Lexington,Wall St,40.707315,-74.012161,10006
1690,Lexington,Wall St,40.707428,-74.012067,10006
1691,Lexington,Wall St,40.707577,-74.011927,10006
1692,Lexington,Wall St,40.707671,-74.011854,10006
1693,Lexington,Bowling Green,40.704825,-74.014572,10004
1694,Lexington,Bowling Green,40.704795,-74.014454,10004
1695,Lexington,Bowling Green,40.704157,-74.014509,10004
1696,Lexington,Borough Hall,40.692489,-73.991193,11201
1697,White Plains Road,Pelham Parkway,40.858041,-73.867718,10462
1698,White Plains Road,Pelham Parkway,40.858029,-73.867481,10462
1699,White Plains Road,174th St,40.837241,-73.88756,10460
1700,White Plains Road,174th St,40.837306,-73.887287,10460
1701,White Plains Road,Freeman St,40.830074,-73.891486,10459
1702,White Plains Road,Freeman St,40.830177,-73.891482,10459
1703,White Plains Road,Simpson St,40.823884,-73.893197,10459
1704,White Plains Road,Simpson St,40.824118,-73.892731,10459
1705,White Plains Road,Prospect Av,40.819368,-73.901966,10455
1706,White Plains Road,Prospect Av,40.819562,-73.901498,10455
1707,White Plains Road,Prospect Av,40.819684,-73.901348,10455
1708,White Plains Road,149th St-3rd Av,40.815971,-73.917983,10455
1709,White Plains Road,149th St-3rd Av,40.815881,-73.917522,10455
1710,White Plains Road,149th St-3rd Av,40.816033,-73.918064,10455
1711,White Plains Road,149th St-3rd Av,40.815853,-73.917759,10455
=======
1689,Lexington,Wall St,40.707315,-74.01216099999999,10006
1690,Lexington,Wall St,40.707428,-74.012067,10006
1691,Lexington,Wall St,40.707577,-74.011927,10006
1692,Lexington,Wall St,40.707671000000005,-74.011854,10006
1693,Lexington,Bowling Green,40.704825,-74.014572,10004
1694,Lexington,Bowling Green,40.704795000000004,-74.014454,10004
1695,Lexington,Bowling Green,40.704157,-74.01450899999999,10004
1696,Lexington,Borough Hall,40.692489,-73.99119300000001,11201
1697,White Plains Road,Pelham Parkway,40.858041,-73.86771800000001,10462
1698,White Plains Road,Pelham Parkway,40.858028999999995,-73.86748100000001,10462
1699,White Plains Road,174th St,40.837241,-73.88756,10460
1700,White Plains Road,174th St,40.837306,-73.887287,10460
1701,White Plains Road,Freeman St,40.830073999999996,-73.891486,10459
1702,White Plains Road,Freeman St,40.830177,-73.891482,10459
1703,White Plains Road,Simpson St,40.823884,-73.893197,10459
1704,White Plains Road,Simpson St,40.824118,-73.89273100000001,10459
1705,White Plains Road,Prospect Av,40.819368,-73.901966,10455
1706,White Plains Road,Prospect Av,40.819562,-73.901498,10455
1707,White Plains Road,Prospect Av,40.819684,-73.901348,10455
1708,White Plains Road,149th St-3rd Av,40.815971000000005,-73.91798299999999,10455
1709,White Plains Road,149th St-3rd Av,40.815881,-73.91752199999999,10455
1710,White Plains Road,149th St-3rd Av,40.816033000000004,-73.918064,10455
1711,White Plains Road,149th St-3rd Av,40.815853000000004,-73.917759,10455
>>>>>>> 0926605a035426e9993d06469d3abb162d099394
1712,Lenox,135th St,40.813896,-73.940831,10030
1713,Lenox,135th St,40.814188,-73.940618,10030
1714,Lenox,125th St,40.807548,-73.945463,10027
1715,Lenox,125th St,40.807875,-73.945229,10027
<<<<<<< HEAD
1716,Lenox,116th St,40.801822,-73.949651,10026
=======
1716,Lenox,116th St,40.801821999999994,-73.949651,10026
>>>>>>> 0926605a035426e9993d06469d3abb162d099394
1717,Lenox,116th St,40.802111,-73.949437,10026
1718,Lenox,110th St-Central Park North,40.799033,-73.952058,10026
1719,Flushing,Broadway-74th St,40.747025,-73.891413,11372
1720,Flushing,Bliss St-46th St,40.742987,-73.917936,11104
<<<<<<< HEAD
1721,Flushing,Bliss St-46th St,40.743134,-73.917895,11104
1722,Flushing,Rawson St-33rd St,40.744494,-73.930894,11101
1723,Flushing,Rawson St-33rd St,40.744658,-73.930865,11101
1724,Flushing,Vernon Blvd-Jackson Av,40.742588,-73.954252,11101
1725,Flushing,Vernon Blvd-Jackson Av,40.742654,-73.954232,11101
1726,Flushing,Vernon Blvd-Jackson Av,40.742496,-73.952482,11101
1727,Flushing,Vernon Blvd-Jackson Av,40.742593,-73.95285,11101
1728,Flushing,Grand Central-42nd St,40.750851,-73.975078,10017
1729,42nd St Shuttle,Times Square,40.756476,-73.986311,10036
1730,42nd St Shuttle,Grand Central,40.75283,-73.978917,10017
1731,42nd St Shuttle,Grand Central,40.752218,-73.978396,10017
1732,42nd St Shuttle,Grand Central,40.752279,-73.97828,10017
1733,42nd St Shuttle,Grand Central,40.752717,-73.978487,10017
1734,42nd St Shuttle,Grand Central,40.752184,-73.978048,10017
1735,Broadway,Union Square,40.735311,-73.990265,10003
=======
1721,Flushing,Bliss St-46th St,40.743134000000005,-73.917895,11104
1722,Flushing,Rawson St-33rd St,40.744494,-73.930894,11101
1723,Flushing,Rawson St-33rd St,40.744658,-73.930865,11101
1724,Flushing,Vernon Blvd-Jackson Av,40.742588,-73.954252,11101
1725,Flushing,Vernon Blvd-Jackson Av,40.742653999999995,-73.95423199999999,11101
1726,Flushing,Vernon Blvd-Jackson Av,40.742496,-73.95248199999999,11101
1727,Flushing,Vernon Blvd-Jackson Av,40.742593,-73.95285,11101
1728,Flushing,Grand Central-42nd St,40.750851000000004,-73.975078,10017
1729,42nd St Shuttle,Times Square,40.756476,-73.986311,10036
1730,42nd St Shuttle,Grand Central,40.752829999999996,-73.97891700000001,10017
1731,42nd St Shuttle,Grand Central,40.752218,-73.97839599999999,10017
1732,42nd St Shuttle,Grand Central,40.752278999999994,-73.97828,10017
1733,42nd St Shuttle,Grand Central,40.752717,-73.978487,10017
1734,42nd St Shuttle,Grand Central,40.752184,-73.978048,10017
1735,Broadway,Union Square,40.735310999999996,-73.99026500000001,10003
>>>>>>> 0926605a035426e9993d06469d3abb162d099394
1736,Broadway,8th St,40.729778,-73.993262,10003
1737,West End,71st St,40.62036,-73.99855,11228
1738,West End,79th St,40.614018,-74.000378,11220
1739,Broadway Jamaica,Lorimer St,40.703454,-73.946536,11206
1740,Broadway Jamaica,Lorimer St,40.703321,-73.946613,11206
<<<<<<< HEAD
1741,Canarsie,Morgan Av,40.706073,-73.933633,11206
1742,Canarsie,Jefferson St,40.707229,-73.923725,11237
1743,Canarsie,Jefferson St,40.707071,-73.923877,11237
1744,Canarsie,DeKalb Av,40.703248,-73.91772,11237
1745,Canarsie,DeKalb Av,40.703353,-73.917957,11237
1746,Canarsie,Halsey St,40.695186,-73.903065,11237
1747,Canarsie,Halsey St,40.695201,-73.903764,11385
1748,8 Avenue,50th St,40.7629,-73.985412,10019
1749,8 Avenue,42nd St,40.757929,-73.989547,10036
1750,8 Avenue,42nd St,40.757463,-73.989984,10036
1751,8 Avenue,14th St,40.74041,-74.00175,10011
1752,8 Avenue,14th St,40.740598,-74.002185,10011
1753,8 Avenue,14th St,40.739776,-74.002256,10011
1754,Fulton,Jay St - Borough Hall,40.691559,-73.987208,11201
=======
1741,Canarsie,Morgan Av,40.706072999999996,-73.933633,11206
1742,Canarsie,Jefferson St,40.707229,-73.923725,11237
1743,Canarsie,Jefferson St,40.707071,-73.923877,11237
1744,Canarsie,DeKalb Av,40.703247999999995,-73.91771999999999,11237
1745,Canarsie,DeKalb Av,40.703353,-73.917957,11237
1746,Canarsie,Halsey St,40.695186,-73.903065,11237
1747,Canarsie,Halsey St,40.695201000000004,-73.903764,11385
1748,8 Avenue,50th St,40.7629,-73.985412,10019
1749,8 Avenue,42nd St,40.757929,-73.989547,10036
1750,8 Avenue,42nd St,40.757463,-73.98998399999999,10036
1751,8 Avenue,14th St,40.74041,-74.00175,10011
1752,8 Avenue,14th St,40.740598,-74.002185,10011
1753,8 Avenue,14th St,40.739776,-74.002256,10011
1754,Fulton,Jay St - Borough Hall,40.691559000000005,-73.987208,11201
>>>>>>> 0926605a035426e9993d06469d3abb162d099394
1755,Fulton,Jay St - Borough Hall,40.6917,-73.987461,11201
1756,Clark,Fulton St,40.70863,-74.006999,10038
1757,Clark,Fulton St,40.7092,-74.006664,10038
1758,Clark,Fulton St,40.709046,-74.006814,10038
1759,Flushing,5th Av,40.754175,-73.982871,10018
1760,Flushing,5th Av,40.754213,-73.982984,10018
<<<<<<< HEAD
1761,42nd St Shuttle,Grand Central,40.752846,-73.979798,10017
1762,42nd St Shuttle,Grand Central,40.753087,-73.979537,10017
1763,Broadway-7th Ave,South Ferry,40.701313,-74.013479,10004
1764,Brighton,Av H,40.629884,-73.961882,11230
1765,West End,71st St,40.620379,-73.998764,11228
1766,West End,79th St,40.614054,-74.000585,11220
1767,Broadway Jamaica,121st St,40.700596,-73.827239,11418
1768,8 Avenue,Chambers St,40.7142,-74.008357,10007
1769,Fulton,Clinton & Washington Avs,40.683317,-73.966741,11238
1770,Fulton,Rockaway Av,40.678017,-73.910661,11233
1771,Fulton,Rockaway Av,40.678142,-73.910875,11233
1772,Concourse,167th St,40.832912,-73.918822,10456
1773,Culver,Av I,40.624263,-73.976049,11230
1774,Culver,Av U,40.595053,-73.973623,11223
1775,Queens Boulevard,63rd Drive-Rego Park,40.730417,-73.862373,11374
1776,Broadway-7th Ave,238th St,40.885226,-73.900439,10463
1777,Broadway-7th Ave,215th St,40.869729,-73.914954,10034
1778,Broadway-7th Ave,168th St,40.840717,-73.93972,10032
1779,Broadway-7th Ave,103rd St,40.799584,-73.968091,10025
1780,Broadway-7th Ave,14th St,40.737846,-73.99993,10011
1781,Broadway-7th Ave,Rector St,40.708191,-74.013582,10006
1782,Nostrand,Newkirk Av,40.640743,-73.948597,11226
1783,Lexington,Grand Central-42nd St,40.751721,-73.977197,10017
1784,Lenox,145th St,40.820161,-73.936253,10039
1785,Lenox,145th St,40.820602,-73.935933,10039
1786,Dyre Av,Baychester Av,40.87933,-73.837858,10469
1787,Dyre Av,Gun Hill Rd,40.870039,-73.845724,10469
1788,Flushing,Vernon Blvd-Jackson Av,40.742351,-73.952723,11101
1789,Flushing,Vernon Blvd-Jackson Av,40.742432,-73.953156,11101
1790,Rockaway,Aqueduct Racetrack,40.672208,-73.834589,11417
1791,Broadway,Canal St (UL),40.719498,-74.001606,10013
1792,Broadway,Canal St (UL),40.719218,-74.00185,10013
1793,Broadway,Canal St (UL),40.719166,-74.001774,10013
1794,Brighton,Kings Highway,40.608319,-73.957352,11229
1795,Nassau,Broad St,40.708027,-74.009814,10005
1796,Nassau,Broad St,40.706911,-74.010494,10005
1797,Nassau,Broad St,40.707117,-74.010821,10005
1798,Nassau,Broad St,40.706887,-74.010687,10005
1799,8 Avenue,59th St,40.768719,-73.981788,10023
1800,8 Avenue,34th St,40.751291,-73.993887,10123
1801,8 Avenue,34th St,40.751432,-73.993538,10123
1802,8 Avenue,34th St,40.751677,-73.994107,10001
1803,8 Avenue,34th St,40.751561,-73.994243,10123
1804,8 Avenue,34th St,40.751539,-73.994181,10123
1805,6 Avenue,34th St,40.74895,-73.988623,10001
1806,6 Avenue,34th St,40.748746,-73.988774,10001
1807,Queens Boulevard,Lexington Av-53rd St,40.757475,-73.969255,10022
1808,Queens Boulevard,Lexington Av-53rd St,40.757718,-73.969161,10022
1809,Queens Boulevard,Lexington Av-53rd St,40.757685,-73.969125,10022
1810,Broadway-7th Ave,96th St,40.79307,-73.973174,10025
1811,Broadway-7th Ave,96th St,40.792923,-73.972824,10025
1812,Broadway-7th Ave,96th St,40.793209,-73.973074,10025
1813,Broadway-7th Ave,96th St,40.793065,-73.972722,10025
1814,Broadway-7th Ave,86th St,40.78902,-73.97633,10024
1815,Broadway-7th Ave,Times Square,40.755747,-73.986875,10036
1816,Broadway-7th Ave,Times Square,40.755248,-73.987362,10036
1817,Broadway-7th Ave,Times Square,40.755334,-73.9872,10036
1818,Broadway-7th Ave,34th St,40.74979,-73.991721,10121
1819,Broadway-7th Ave,34th St,40.75081,-73.990481,10120
1820,Broadway-7th Ave,34th St,40.75102,-73.990323,10001
1821,Broadway-7th Ave,28th St,40.747036,-73.993138,10001
1822,Broadway-7th Ave,28th St,40.747216,-73.993121,10001
1823,Lexington,Grand Central-42nd St,40.751801,-73.975294,10017
1824,Lexington,Grand Central-42nd St,40.751345,-73.975409,10017
1825,Lexington,Grand Central-42nd St,40.751701,-73.976087,10017
=======
1761,42nd St Shuttle,Grand Central,40.752846000000005,-73.979798,10017
1762,42nd St Shuttle,Grand Central,40.753087,-73.979537,10017
1763,Broadway-7th Ave,South Ferry,40.701313,-74.013479,10004
1764,Brighton,Av H,40.629884000000004,-73.96188199999999,11230
1765,West End,71st St,40.620379,-73.99876400000001,11228
1766,West End,79th St,40.614053999999996,-74.000585,11220
1767,Broadway Jamaica,121st St,40.700596000000004,-73.827239,11418
1768,8 Avenue,Chambers St,40.7142,-74.00835699999999,10007
1769,Fulton,Clinton & Washington Avs,40.683316999999995,-73.966741,11238
1770,Fulton,Rockaway Av,40.678017,-73.910661,11233
1771,Fulton,Rockaway Av,40.678142,-73.910875,11233
1772,Concourse,167th St,40.832912,-73.91882199999999,10456
1773,Culver,Av I,40.624263,-73.976049,11230
1774,Culver,Av U,40.595053,-73.973623,11223
1775,Queens Boulevard,63rd Drive-Rego Park,40.730416999999996,-73.862373,11374
1776,Broadway-7th Ave,238th St,40.885226,-73.900439,10463
1777,Broadway-7th Ave,215th St,40.869729,-73.91495400000001,10034
1778,Broadway-7th Ave,168th St,40.840717,-73.93972,10032
1779,Broadway-7th Ave,103rd St,40.799584,-73.968091,10025
1780,Broadway-7th Ave,14th St,40.737846000000005,-73.99993,10011
1781,Broadway-7th Ave,Rector St,40.708191,-74.013582,10006
1782,Nostrand,Newkirk Av,40.640743,-73.94859699999999,11226
1783,Lexington,Grand Central-42nd St,40.751721,-73.977197,10017
1784,Lenox,145th St,40.820161,-73.93625300000001,10039
1785,Lenox,145th St,40.820602,-73.93593299999999,10039
1786,Dyre Av,Baychester Av,40.879329999999996,-73.837858,10469
1787,Dyre Av,Gun Hill Rd,40.870039,-73.845724,10469
1788,Flushing,Vernon Blvd-Jackson Av,40.742351,-73.95272299999999,11101
1789,Flushing,Vernon Blvd-Jackson Av,40.742432,-73.953156,11101
1790,Rockaway,Aqueduct Racetrack,40.672208000000005,-73.83458900000001,11417
1791,Broadway,Canal St (UL),40.719498,-74.00160600000001,10013
1792,Broadway,Canal St (UL),40.719218,-74.00185,10013
1793,Broadway,Canal St (UL),40.719165999999994,-74.001774,10013
1794,Brighton,Kings Highway,40.608319,-73.957352,11229
1795,Nassau,Broad St,40.708027,-74.009814,10005
1796,Nassau,Broad St,40.706911,-74.010494,10005
1797,Nassau,Broad St,40.707117,-74.01082099999999,10005
1798,Nassau,Broad St,40.706887,-74.010687,10005
1799,8 Avenue,59th St,40.768719,-73.981788,10023
1800,8 Avenue,34th St,40.751290999999995,-73.993887,10123
1801,8 Avenue,34th St,40.751432,-73.993538,10123
1802,8 Avenue,34th St,40.751677,-73.994107,10001
1803,8 Avenue,34th St,40.751560999999995,-73.99424300000001,10123
1804,8 Avenue,34th St,40.751539,-73.99418100000001,10123
1805,6 Avenue,34th St,40.74895,-73.988623,10001
1806,6 Avenue,34th St,40.748746000000004,-73.98877399999999,10001
1807,Queens Boulevard,Lexington Av-53rd St,40.757475,-73.969255,10022
1808,Queens Boulevard,Lexington Av-53rd St,40.757718,-73.969161,10022
1809,Queens Boulevard,Lexington Av-53rd St,40.757684999999995,-73.969125,10022
1810,Broadway-7th Ave,96th St,40.79307,-73.973174,10025
1811,Broadway-7th Ave,96th St,40.792922999999995,-73.972824,10025
1812,Broadway-7th Ave,96th St,40.793209000000004,-73.973074,10025
1813,Broadway-7th Ave,96th St,40.793065000000006,-73.97272199999999,10025
1814,Broadway-7th Ave,86th St,40.78902,-73.97633,10024
1815,Broadway-7th Ave,Times Square,40.755747,-73.986875,10036
1816,Broadway-7th Ave,Times Square,40.755247999999995,-73.987362,10036
1817,Broadway-7th Ave,Times Square,40.755334000000005,-73.9872,10036
1818,Broadway-7th Ave,34th St,40.749790000000004,-73.991721,10121
1819,Broadway-7th Ave,34th St,40.750809999999994,-73.990481,10120
1820,Broadway-7th Ave,34th St,40.751020000000004,-73.990323,10001
1821,Broadway-7th Ave,28th St,40.747036,-73.993138,10001
1822,Broadway-7th Ave,28th St,40.747215999999995,-73.993121,10001
1823,Lexington,Grand Central-42nd St,40.751801,-73.97529399999999,10017
1824,Lexington,Grand Central-42nd St,40.751345,-73.975409,10017
1825,Lexington,Grand Central-42nd St,40.751701000000004,-73.97608699999999,10017
>>>>>>> 0926605a035426e9993d06469d3abb162d099394
1826,Dyre Av,Eastchester-Dyre Av,40.88798,-73.831195,10466
1827,Dyre Av,Baychester Av,40.879519,-73.837958,10469
1828,Dyre Av,Gun Hill Rd,40.870117,-73.845869,10469
1829,Dyre Av,Pelham Parkway,40.858804,-73.855515,10469
1830,Dyre Av,Morris Park,40.854544,-73.860248,10462
<<<<<<< HEAD
1831,Flushing,Flushing-Main St,40.759908,-73.829019,11354
1832,Flushing,Flushing-Main St,40.760004,-73.82863,11354
1833,Flushing,Flushing-Main St,40.760048,-73.828444,11354
1834,Flushing,Flushing-Main St,40.759895,-73.828573,11354
=======
1831,Flushing,Flushing-Main St,40.759908,-73.82901899999999,11354
1832,Flushing,Flushing-Main St,40.760003999999995,-73.82863,11354
1833,Flushing,Flushing-Main St,40.760048,-73.82844399999999,11354
1834,Flushing,Flushing-Main St,40.759895,-73.82857299999999,11354
>>>>>>> 0926605a035426e9993d06469d3abb162d099394
1835,Flushing,Flushing-Main St,40.759946,-73.828414,11354
1836,Jerome,Yankee Stadium-161st St,40.827605,-73.926282,10451
1837,Jerome,Yankee Stadium-161st St,40.827529,-73.926322,10451
1838,Jerome,Yankee Stadium-161st St,40.827461,-73.926362,10451
<<<<<<< HEAD
1839,Jerome,Yankee Stadium-161st St,40.827399,-73.926394,10451
=======
1839,Jerome,Yankee Stadium-161st St,40.827399,-73.92639399999999,10451
>>>>>>> 0926605a035426e9993d06469d3abb162d099394
1840,6 Avenue,Broadway-Lafayette St,40.724987,-73.995628,10012
1841,6 Avenue,Broadway-Lafayette St,40.725011,-73.995745,10012
1842,Culver,Av I,40.624301,-73.975817,11230
1843,Culver,Av U,40.595027,-73.973382,11223
1844,Queens Boulevard,63rd Drive-Rego Park,40.730037,-73.861343,11374
1845,Queens Boulevard,63rd Drive-Rego Park,40.729574,-73.861751,11374
<<<<<<< HEAD
1846,Queens Boulevard,63rd Drive-Rego Park,40.728847,-73.859668,11374
1847,Queens Boulevard,63rd Drive-Rego Park,40.729774,-73.860489,11374
1848,Queens Boulevard,Jackson Heights-Roosevelt Ave,40.745988,-73.890208,11373
1849,Queens Boulevard,Jackson Heights-Roosevelt Ave,40.746391,-73.890285,11372
1850,Queens Boulevard,Jackson Heights-Roosevelt Ave,40.746527,-73.891461,11373
1851,Crosstown,Long Island City-Court Square,40.746869,-73.943522,11101
1852,Crosstown,Long Island City-Court Square,40.746243,-73.944011,11101
1853,Broadway-7th Ave,207th St,40.864599,-73.918681,10034
1854,Broadway-7th Ave,96th St,40.794611,-73.972053,10025
1855,Broadway-7th Ave,72nd St,40.778437,-73.981947,10023
1856,Broadway-7th Ave,59th St-Columbus Circle,40.767654,-73.981423,10019
1857,Broadway-7th Ave,59th St-Columbus Circle,40.767642,-73.981235,10019
=======
1846,Queens Boulevard,63rd Drive-Rego Park,40.728846999999995,-73.859668,11374
1847,Queens Boulevard,63rd Drive-Rego Park,40.729774,-73.860489,11374
1848,Queens Boulevard,Jackson Heights-Roosevelt Ave,40.745988,-73.890208,11373
1849,Queens Boulevard,Jackson Heights-Roosevelt Ave,40.746390999999996,-73.89028499999999,11372
1850,Queens Boulevard,Jackson Heights-Roosevelt Ave,40.746527,-73.89146099999999,11373
1851,Crosstown,Long Island City-Court Square,40.746869000000004,-73.943522,11101
1852,Crosstown,Long Island City-Court Square,40.746243,-73.944011,11101
1853,Broadway-7th Ave,207th St,40.864599,-73.918681,10034
1854,Broadway-7th Ave,96th St,40.794610999999996,-73.972053,10025
1855,Broadway-7th Ave,72nd St,40.778437,-73.98194699999999,10023
1856,Broadway-7th Ave,59th St-Columbus Circle,40.767654,-73.98142299999999,10019
1857,Broadway-7th Ave,59th St-Columbus Circle,40.767641999999995,-73.981235,10019
>>>>>>> 0926605a035426e9993d06469d3abb162d099394
1858,Eastern Parkway,Hoyt St,40.690433,-73.984323,11201
1859,Lexington,59th St,40.762986,-73.96785,10065
1860,Lexington,Canal St,40.718589,-74.000552,10013
1861,Lexington,Canal St,40.718506,-74.000826,10013
1862,Lexington,Canal St,40.718638,-74.000623,10013
1863,Lexington,Fulton St,40.710944,-74.009403,10007
<<<<<<< HEAD
1864,Lexington,Fulton St,40.711026,-74.00919,10038
1865,Lexington,Fulton St,40.711112,-74.009382,10038
=======
1864,Lexington,Fulton St,40.711026000000004,-74.00919,10038
1865,Lexington,Fulton St,40.711112,-74.00938199999999,10038
>>>>>>> 0926605a035426e9993d06469d3abb162d099394
